{
"type": "FeatureCollection",
"name": "fault_aux",
"crs": { "type": "name", "properties": { "name": "urn:ogc:def:crs:OGC:1.3:CRS84" } },
"xy_coordinate_resolution": 1e-15,
"features": [
{ "type": "Feature", "properties": { "ID": 4, "FEATUREID": "OFBB099C1AJ430010020001672", "CHFCAC": "001672", "CHFCEC": "断层辅助点", "CHFCED": "", "point_type": 1, "symbol_no": 1894, "height": 2.2501919, "width": 1.4885026, "spacing": null, "angle": 56.840599060058594, "_src_file": "LDZOFBB099.WT", "_src_id": 1671, "sub_no_raw": 1894.0, "angle_raw": 56.840599060058594, "kind": "symbol", "sub_no": 1894.0, "fault_id": "F047", "dip": 60.0, "seg_idx": 41.0, "dist_m": 221.0, "arc_s": 11834.0, "side": -1.0, "dperp_m": 228.3, "method": "chain_nearest", "in_band": null, "n_chains_band": 1.0, "dip_az": 303.2, "dist_band_ok": null, "status_note": null, "reattrib_basis": null, "status": "normal", "_theme": "fault_aux", "semantics_version": "1.1.0" }, "geometry": { "type": "Point", "coordinates": [ 74.272791695946992, 39.91757889352337 ] } },
{ "type": "Feature", "properties": { "ID": 4, "FEATUREID": "OFBB099C1AJ430010020001673", "CHFCAC": "001673", "CHFCEC": "断层辅助点", "CHFCED": "", "point_type": 1, "symbol_no": 1894, "height": 2.2501919, "width": 1.4885026, "spacing": null, "angle": 58.885768890380859, "_src_file": "LDZOFBB099.WT", "_src_id": 1672, "sub_no_raw": 1894.0, "angle_raw": 58.885768890380859, "kind": "symbol", "sub_no": 1894.0, "fault_id": "F131", "dip": null, "seg_idx": 29.0, "dist_m": 178.7, "arc_s": 1191.0, "side": -1.0, "dperp_m": 183.5, "method": "reattributed", "in_band": null, "n_chains_band": 2.0, "dip_az": 301.1, "dist_band_ok": null, "status_note": null, "reattrib_basis": "ambig", "status": "normal", "_theme": "fault_aux", "semantics_version": "1.1.0" }, "geometry": { "type": "Point", "coordinates": [ 74.305295880988126, 39.940935676793963 ] } },
{ "type": "Feature", "properties": { "ID": 43, "FEATUREID": "OFBB099C1AJ430010020001700", "CHFCAC": "001700", "CHFCEC": "断层辅助点", "CHFCED": "", "point_type": 1, "symbol_no": 1894, "height": 2.2501919, "width": 1.4885026, "spacing": null, "angle": 104.15138244628906, "_src_file": "LDZOFBB099.WT", "_src_id": 1699, "sub_no_raw": 1894.0, "angle_raw": 104.15138244628906, "kind": "symbol", "sub_no": 1894.0, "fault_id": "F113", "dip": null, "seg_idx": 26.0, "dist_m": 275.0, "arc_s": 3228.0, "side": -1.0, "dperp_m": 276.1, "method": "chain_nearest", "in_band": null, "n_chains_band": 1.0, "dip_az": 255.8, "dist_band_ok": null, "status_note": null, "reattrib_basis": null, "status": "normal", "_theme": "fault_aux", "semantics_version": "1.1.0" }, "geometry": { "type": "Point", "coordinates": [ 74.500547180802982, 39.943749976662751 ] } },
{ "type": "Feature", "properties": { "ID": 46, "FEATUREID": "OFBB099C1AJ430010020001703", "CHFCAC": "001703", "CHFCEC": "断层辅助点", "CHFCED": "", "point_type": 1, "symbol_no": 1894, "height": 2.2501919, "width": 1.4885026, "spacing": null, "angle": 220.11489868164065, "_src_file": "LDZOFBB099.WT", "_src_id": 1702, "sub_no_raw": 1894.0, "angle_raw": 220.11489868164062, "kind": "symbol", "sub_no": 1894.0, "fault_id": "F070", "dip": 64.0, "seg_idx": 68.0, "dist_m": 323.8, "arc_s": 1116.0, "side": -1.0, "dperp_m": 331.7, "method": "chain_nearest", "in_band": null, "n_chains_band": 1.0, "dip_az": 139.9, "dist_band_ok": null, "status_note": null, "reattrib_basis": null, "status": "normal", "_theme": "fault_aux", "semantics_version": "1.1.0" }, "geometry": { "type": "Point", "coordinates": [ 74.447697938727089, 39.823417639871558 ] } },
{ "type": "Feature", "properties": { "ID": 49, "FEATUREID": "OFBB099C1AJ430010020001706", "CHFCAC": "001706", "CHFCEC": "断层辅助点", "CHFCED": "", "point_type": 1, "symbol_no": 1894, "height": 2.2501919, "width": 1.4885026, "spacing": null, "angle": 190.4425048828125, "_src_file": "LDZOFBB099.WT", "_src_id": 1705, "sub_no_raw": 1894.0, "angle_raw": 190.4425048828125, "kind": "symbol", "sub_no": 1894.0, "fault_id": "F093", "dip": 70.0, "seg_idx": 86.0, "dist_m": 276.2, "arc_s": 765.0, "side": -1.0, "dperp_m": 277.2, "method": "chain_nearest", "in_band": null, "n_chains_band": 1.0, "dip_az": 169.6, "dist_band_ok": null, "status_note": null, "reattrib_basis": null, "status": "normal", "_theme": "fault_aux", "semantics_version": "1.1.0" }, "geometry": { "type": "Point", "coordinates": [ 74.503545536134993, 39.79670861755546 ] } },
{ "type": "Feature", "properties": { "ID": 50, "FEATUREID": "OFBB099C1AJ430010020001707", "CHFCAC": "001707", "CHFCEC": "断层辅助点", "CHFCED": "", "point_type": 1, "symbol_no": 1894, "height": 2.2501919, "width": 1.4885026, "spacing": null, "angle": 208.39811706542969, "_src_file": "LDZOFBB099.WT", "_src_id": 1706, "sub_no_raw": 1894.0, "angle_raw": 208.39811706542969, "kind": "symbol", "sub_no": 1894.0, "fault_id": "F056", "dip": null, "seg_idx": 85.0, "dist_m": 315.8, "arc_s": 670.0, "side": -1.0, "dperp_m": 320.0, "method": "chain_nearest", "in_band": null, "n_chains_band": 1.0, "dip_az": 151.6, "dist_band_ok": null, "status_note": null, "reattrib_basis": null, "status": "normal", "_theme": "fault_aux", "semantics_version": "1.1.0" }, "geometry": { "type": "Point", "coordinates": [ 74.478960278130103, 39.779227845634296 ] } },
{ "type": "Feature", "properties": { "ID": 51, "FEATUREID": "OFBB099C1AJ430010020001708", "CHFCAC": "001708", "CHFCEC": "断层辅助点", "CHFCED": "", "point_type": 1, "symbol_no": 1894, "height": 2.2501919, "width": 1.4885026, "spacing": null, "angle": 196.07298278808597, "_src_file": "LDZOFBB099.WT", "_src_id": 1707, "sub_no_raw": 1894.0, "angle_raw": 196.07298278808594, "kind": "symbol", "sub_no": 1894.0, "fault_id": "F004", "dip": 71.0, "seg_idx": 99.0, "dist_m": 328.9, "arc_s": 39277.0, "side": -1.0, "dperp_m": 331.0, "method": "chain_nearest", "in_band": null, "n_chains_band": 1.0, "dip_az": 163.9, "dist_band_ok": null, "status_note": null, "reattrib_basis": null, "status": "normal", "_theme": "fault_aux", "semantics_version": "1.1.0" }, "geometry": { "type": "Point", "coordinates": [ 74.346275716049021, 39.678303177062759 ] } },
{ "type": "Feature", "properties": { "ID": 55, "FEATUREID": "OFBB099C1AJ430010020001711", "CHFCAC": "001711", "CHFCEC": "断层辅助点", "CHFCED": "", "point_type": 1, "symbol_no": 1894, "height": 2.2501919, "width": 1.4885026, "spacing": null, "angle": 335.34884643554688, "_src_file": "LDZOFBB099.WT", "_src_id": 1710, "sub_no_raw": 1894.0, "angle_raw": 335.34884643554688, "kind": "symbol", "sub_no": 1894.0, "fault_id": "F006", "dip": 51.0, "seg_idx": 93.0, "dist_m": 246.2, "arc_s": 34264.0, "side": -1.0, "dperp_m": 248.4, "method": "chain_nearest", "in_band": null, "n_chains_band": 1.0, "dip_az": 24.7, "dist_band_ok": null, "status_note": null, "reattrib_basis": null, "status": "normal", "_theme": "fault_aux", "semantics_version": "1.1.0" }, "geometry": { "type": "Point", "coordinates": [ 74.2572979373425, 39.697300238986458 ] } },
{ "type": "Feature", "properties": { "ID": 56, "FEATUREID": "OFBB099C1AJ430010020001712", "CHFCAC": "001712", "CHFCEC": "断层辅助点", "CHFCED": "", "point_type": 1, "symbol_no": 1894, "height": 2.2501919, "width": 1.4885026, "spacing": null, "angle": 39.167331695556641, "_src_file": "LDZOFBB099.WT", "_src_id": 1711, "sub_no_raw": 1894.0, "angle_raw": 39.167331695556641, "kind": "symbol", "sub_no": 1894.0, "fault_id": "F089", "dip": 42.0, "seg_idx": 104.0, "dist_m": 280.2, "arc_s": 2710.0, "side": 1.0, "dperp_m": 63.9, "method": "reattributed", "in_band": null, "n_chains_band": 1.0, "dip_az": 320.8, "dist_band_ok": null, "status_note": null, "reattrib_basis": "outband", "status": "normal", "_theme": "fault_aux", "semantics_version": "1.1.0" }, "geometry": { "type": "Point", "coordinates": [ 74.18410994517869, 39.672073143125729 ] } },
{ "type": "Feature", "properties": { "ID": 57, "FEATUREID": "OFBB099C1AJ430010020001713", "CHFCAC": "001713", "CHFCEC": "断层辅助点", "CHFCED": "", "point_type": 1, "symbol_no": 1894, "height": 2.25019, "width": 1.4885, "spacing": null, "angle": 38.764495849609375, "_src_file": "LDZOFBB099.WT", "_src_id": 1712, "sub_no_raw": 1894.0, "angle_raw": 38.764495849609375, "kind": "symbol", "sub_no": 1894.0, "fault_id": "F006", "dip": 67.0, "seg_idx": 93.0, "dist_m": 295.0, "arc_s": 40137.0, "side": -1.0, "dperp_m": 301.9, "method": "chain_nearest", "in_band": null, "n_chains_band": 1.0, "dip_az": 321.2, "dist_band_ok": null, "status_note": null, "reattrib_basis": null, "status": "normal", "_theme": "fault_aux", "semantics_version": "1.1.0" }, "geometry": { "type": "Point", "coordinates": [ 74.193880435534041, 39.679095715631043 ] } },
{ "type": "Feature", "properties": { "ID": 58, "FEATUREID": "OFBB099C1AJ430010020001714", "CHFCAC": "001714", "CHFCEC": "断层辅助点", "CHFCED": "", "point_type": 1, "symbol_no": 1894, "height": 2.2501919, "width": 1.4885026, "spacing": null, "angle": 72.27081298828125, "_src_file": "LDZOFBB099.WT", "_src_id": 1713, "sub_no_raw": 1894.0, "angle_raw": 72.27081298828125, "kind": "symbol", "sub_no": 1894.0, "fault_id": "F019", "dip": null, "seg_idx": 96.0, "dist_m": 234.2, "arc_s": 2876.0, "side": -1.0, "dperp_m": 237.2, "method": "chain_nearest", "in_band": null, "n_chains_band": 1.0, "dip_az": 287.7, "dist_band_ok": null, "status_note": null, "reattrib_basis": null, "status": "normal", "_theme": "fault_aux", "semantics_version": "1.1.0" }, "geometry": { "type": "Point", "coordinates": [ 74.046210522837256, 39.713308460251945 ] } },
{ "type": "Feature", "properties": { "ID": 59, "FEATUREID": "OFBB099C1AJ430010020001715", "CHFCAC": "001715", "CHFCEC": "断层辅助点", "CHFCED": "", "point_type": 1, "symbol_no": 1894, "height": 2.2501919, "width": 1.4885026, "spacing": null, "angle": 250.24812316894531, "_src_file": "LDZOFBB099.WT", "_src_id": 1714, "sub_no_raw": 1894.0, "angle_raw": 250.24812316894531, "kind": "symbol", "sub_no": 1894.0, "fault_id": "F032", "dip": 51.0, "seg_idx": 95.0, "dist_m": 340.3, "arc_s": 16738.0, "side": 1.0, "dperp_m": 346.7, "method": "chain_nearest", "in_band": null, "n_chains_band": 1.0, "dip_az": 109.8, "dist_band_ok": null, "status_note": null, "reattrib_basis": null, "status": "normal", "_theme": "fault_aux", "semantics_version": "1.1.0" }, "geometry": { "type": "Point", "coordinates": [ 74.073236016502094, 39.730443825632705 ] } },
{ "type": "Feature", "properties": { "ID": 62, "FEATUREID": "OFBB099C1AJ430010020001716", "CHFCAC": "001716", "CHFCEC": "断层辅助点", "CHFCED": "", "point_type": 1, "symbol_no": 1894, "height": 2.2501919, "width": 1.4885026, "spacing": null, "angle": 71.193946838378906, "_src_file": "LDZOFBB099.WT", "_src_id": 1715, "sub_no_raw": 1894.0, "angle_raw": 71.193946838378906, "kind": "symbol", "sub_no": 1894.0, "fault_id": "F044", "dip": 73.0, "seg_idx": 3.0, "dist_m": 224.9, "arc_s": 7845.0, "side": 1.0, "dperp_m": 230.2, "method": "chain_nearest", "in_band": null, "n_chains_band": 1.0, "dip_az": 288.8, "dist_band_ok": null, "status_note": null, "reattrib_basis": null, "status": "normal", "_theme": "fault_aux", "semantics_version": "1.1.0" }, "geometry": { "type": "Point", "coordinates": [ 74.01909676728944, 39.921174903316349 ] } },
{ "type": "Feature", "properties": { "ID": 69, "FEATUREID": "OFBB099C1AJ430010020001719", "CHFCAC": "001719", "CHFCEC": "断层辅助点", "CHFCED": "", "point_type": 1, "symbol_no": 1894, "height": 2.2501919, "width": 1.4885026, "spacing": null, "angle": 56.192451477050781, "_src_file": "LDZOFBB099.WT", "_src_id": 1718, "sub_no_raw": 1894.0, "angle_raw": 56.192451477050781, "kind": "symbol", "sub_no": 1894.0, "fault_id": "F071", "dip": 75.0, "seg_idx": 11.0, "dist_m": 227.8, "arc_s": 4311.0, "side": 1.0, "dperp_m": 173.0, "method": "median_pref", "in_band": null, "n_chains_band": 2.0, "dip_az": 303.8, "dist_band_ok": null, "status_note": null, "reattrib_basis": null, "status": "normal", "_theme": "fault_aux", "semantics_version": "1.1.0" }, "geometry": { "type": "Point", "coordinates": [ 74.232603744406973, 39.96434721144098 ] } },
{ "type": "Feature", "properties": { "ID": 70, "FEATUREID": "OFBB099C1AJ430010020001720", "CHFCAC": "001720", "CHFCEC": "断层辅助点", "CHFCED": "", "point_type": 1, "symbol_no": 1894, "height": 2.2501919, "width": 1.4885026, "spacing": null, "angle": 50.951030731201172, "_src_file": "LDZOFBB099.WT", "_src_id": 1719, "sub_no_raw": 1894.0, "angle_raw": 50.951030731201172, "kind": "symbol", "sub_no": 1894.0, "fault_id": "F128", "dip": 41.0, "seg_idx": 32.0, "dist_m": 309.6, "arc_s": 1236.0, "side": 1.0, "dperp_m": 319.5, "method": "chain_nearest", "in_band": null, "n_chains_band": 1.0, "dip_az": 309.0, "dist_band_ok": null, "status_note": null, "reattrib_basis": null, "status": "normal", "_theme": "fault_aux", "semantics_version": "1.1.0" }, "geometry": { "type": "Point", "coordinates": [ 74.323749771759907, 39.929591463265531 ] } },
{ "type": "Feature", "properties": { "ID": 71, "FEATUREID": "OFBB099C1AJ430010020001721", "CHFCAC": "001721", "CHFCEC": "断层辅助点", "CHFCED": "", "point_type": 1, "symbol_no": 1894, "height": 2.2501919, "width": 1.4885026, "spacing": null, "angle": 64.28363037109375, "_src_file": "LDZOFBB099.WT", "_src_id": 1720, "sub_no_raw": 1894.0, "angle_raw": 64.28363037109375, "kind": "symbol", "sub_no": 1894.0, "fault_id": "F028", "dip": 75.0, "seg_idx": 7.0, "dist_m": 231.7, "arc_s": 4727.0, "side": -1.0, "dperp_m": 236.4, "method": "chain_nearest", "in_band": null, "n_chains_band": 1.0, "dip_az": 295.7, "dist_band_ok": null, "status_note": null, "reattrib_basis": null, "status": "normal", "_theme": "fault_aux", "semantics_version": "1.1.0" }, "geometry": { "type": "Point", "coordinates": [ 74.097827804765217, 39.963025863484575 ] } },
{ "type": "Feature", "properties": { "ID": 73, "FEATUREID": "OFBB099C1AJ430010020001723", "CHFCAC": "001723", "CHFCEC": "断层辅助点", "CHFCED": "", "point_type": 1, "symbol_no": 1894, "height": 0.99954498, "width": 1.49392, "spacing": null, "angle": 48.016319274902337, "_src_file": "LDZOFBB099.WT", "_src_id": 1722, "sub_no_raw": 1894.0, "angle_raw": 48.016319274902344, "kind": "symbol", "sub_no": 1894.0, "fault_id": "F144", "dip": null, "seg_idx": 97.0, "dist_m": 109.4, "arc_s": 505.0, "side": -1.0, "dperp_m": 112.8, "method": "chain_nearest", "in_band": null, "n_chains_band": 1.0, "dip_az": 312.0, "dist_band_ok": null, "status_note": null, "reattrib_basis": null, "status": "normal", "_theme": "fault_aux", "semantics_version": "1.1.0" }, "geometry": { "type": "Point", "coordinates": [ 74.043223613327442, 39.734921487335129 ] } },
{ "type": "Feature", "properties": { "ID": 495, "FEATUREID": "OFBB099C1AJ430010020001725", "CHFCAC": "001725", "CHFCEC": "断层辅助点", "CHFCED": "", "point_type": 1, "symbol_no": 1894, "height": 2.2501919, "width": 1.4885026, "spacing": null, "angle": 36.750499725341797, "_src_file": "LDZOFBB099.WT", "_src_id": 1724, "sub_no_raw": 1894.0, "angle_raw": 36.750499725341797, "kind": "symbol", "sub_no": 1894.0, "fault_id": "F018", "dip": 56.0, "seg_idx": 78.0, "dist_m": 267.3, "arc_s": 10942.0, "side": 1.0, "dperp_m": 272.7, "method": "chain_nearest", "in_band": null, "n_chains_band": 1.0, "dip_az": 323.2, "dist_band_ok": null, "status_note": null, "reattrib_basis": null, "status": "normal", "_theme": "fault_aux", "semantics_version": "1.1.0" }, "geometry": { "type": "Point", "coordinates": [ 74.201746082172448, 39.748150495292961 ] } },
{ "type": "Feature", "properties": { "ID": 498, "FEATUREID": "OFBB099C1AJ430010020001728", "CHFCAC": "001728", "CHFCEC": "断层辅助点", "CHFCED": "", "point_type": 1, "symbol_no": 1894, "height": 2.2501919, "width": 1.4885026, "spacing": null, "angle": 223.24671936035159, "_src_file": "LDZOFBB099.WT", "_src_id": 1727, "sub_no_raw": 1894.0, "angle_raw": 223.24671936035156, "kind": "symbol", "sub_no": 1894.0, "fault_id": "F018", "dip": 52.0, "seg_idx": 78.0, "dist_m": 284.5, "arc_s": 22024.0, "side": -1.0, "dperp_m": 292.1, "method": "chain_nearest", "in_band": null, "n_chains_band": 1.0, "dip_az": 136.8, "dist_band_ok": null, "status_note": null, "reattrib_basis": null, "status": "normal", "_theme": "fault_aux", "semantics_version": "1.1.0" }, "geometry": { "type": "Point", "coordinates": [ 74.316228867634877, 39.792224572643867 ] } },
{ "type": "Feature", "properties": { "ID": 46, "FEATUREID": "OFBB099C1AJ430010020001734", "CHFCAC": "001734", "CHFCEC": "断层辅助点", "CHFCED": "", "point_type": 1, "symbol_no": 1894, "height": 2.2501919, "width": 1.4885026, "spacing": null, "angle": 40.264324188232422, "_src_file": "LDZOFBB099.WT", "_src_id": 1733, "sub_no_raw": 1894.0, "angle_raw": 40.264324188232422, "kind": "symbol", "sub_no": 1894.0, "fault_id": "F030", "dip": 67.0, "seg_idx": 63.0, "dist_m": 250.2, "arc_s": 9225.0, "side": -1.0, "dperp_m": 257.1, "method": "chain_nearest", "in_band": null, "n_chains_band": 1.0, "dip_az": 319.7, "dist_band_ok": null, "status_note": null, "reattrib_basis": null, "status": "normal", "_theme": "fault_aux", "semantics_version": "1.1.0" }, "geometry": { "type": "Point", "coordinates": [ 74.436777245210521, 39.837570149876086 ] } },
{ "type": "Feature", "properties": { "ID": 69, "FEATUREID": "OFBB099C1AJ430010020001744", "CHFCAC": "001744", "CHFCEC": "断层辅助点", "CHFCED": "", "point_type": 1, "symbol_no": 1894, "height": 2.2501919, "width": 1.4885026, "spacing": null, "angle": 53.700092315673828, "_src_file": "LDZOFBB099.WT", "_src_id": 1743, "sub_no_raw": 1894.0, "angle_raw": 53.700092315673828, "kind": "symbol", "sub_no": 1894.0, "fault_id": "F052", "dip": 70.0, "seg_idx": 10.0, "dist_m": 280.8, "arc_s": 2541.0, "side": -1.0, "dperp_m": 288.1, "method": "chain_nearest", "in_band": null, "n_chains_band": 1.0, "dip_az": 306.3, "dist_band_ok": null, "status_note": null, "reattrib_basis": null, "status": "normal", "_theme": "fault_aux", "semantics_version": "1.1.0" }, "geometry": { "type": "Point", "coordinates": [ 74.24105369402173, 39.983482170775801 ] } },
{ "type": "Feature", "properties": { "ID": 63, "FEATUREID": "OFBB099C1AJ430010020001746", "CHFCAC": "001746", "CHFCEC": "断层辅助点", "CHFCED": "", "point_type": 1, "symbol_no": 1894, "height": 2.2501919, "width": 1.4885026, "spacing": null, "angle": 101.69988250732422, "_src_file": "LDZOFBB099.WT", "_src_id": 1745, "sub_no_raw": 1894.0, "angle_raw": 101.69988250732422, "kind": "symbol", "sub_no": 1894.0, "fault_id": "F129", "dip": 54.0, "seg_idx": 53.0, "dist_m": 300.2, "arc_s": 2074.0, "side": 1.0, "dperp_m": 84.1, "method": "reattributed", "in_band": null, "n_chains_band": 1.0, "dip_az": 258.3, "dist_band_ok": null, "status_note": null, "reattrib_basis": "outband", "status": "normal", "_theme": "fault_aux", "semantics_version": "1.1.0" }, "geometry": { "type": "Point", "coordinates": [ 74.209281719990145, 39.900066810425052 ] } },
{ "type": "Feature", "properties": { "ID": 55, "FEATUREID": "OFBB099C1AJ430010020001752", "CHFCAC": "001752", "CHFCEC": "断层辅助点", "CHFCED": "", "point_type": 1, "symbol_no": 1894, "height": 2.2501919, "width": 1.4885026, "spacing": null, "angle": 35.675811767578125, "_src_file": "LDZOFBB099.WT", "_src_id": 1751, "sub_no_raw": 1894.0, "angle_raw": 35.675811767578125, "kind": "symbol", "sub_no": 1894.0, "fault_id": "F006", "dip": 65.0, "seg_idx": 93.0, "dist_m": 325.9, "arc_s": 28014.0, "side": -1.0, "dperp_m": 333.4, "method": "chain_nearest", "in_band": null, "n_chains_band": 1.0, "dip_az": 324.3, "dist_band_ok": null, "status_note": null, "reattrib_basis": null, "status": "normal", "_theme": "fault_aux", "semantics_version": "1.1.0" }, "geometry": { "type": "Point", "coordinates": [ 74.318309101110387, 39.722058928304918 ] } },
{ "type": "Feature", "properties": { "ID": 71, "FEATUREID": "OFBB099C1AJ430010020001757", "CHFCAC": "001757", "CHFCEC": "断层辅助点", "CHFCED": "", "point_type": 1, "symbol_no": 1894, "height": 2.25019, "width": 1.4885, "spacing": null, "angle": 59.080757141113281, "_src_file": "LDZOFBB099.WT", "_src_id": 1756, "sub_no_raw": 1894.0, "angle_raw": 59.080757141113281, "kind": "symbol", "sub_no": 1894.0, "fault_id": "F044", "dip": 73.0, "seg_idx": 3.0, "dist_m": 257.4, "arc_s": 13231.0, "side": 1.0, "dperp_m": 266.0, "method": "chain_nearest", "in_band": null, "n_chains_band": 1.0, "dip_az": 300.9, "dist_band_ok": null, "status_note": null, "reattrib_basis": null, "status": "normal", "_theme": "fault_aux", "semantics_version": "1.1.0" }, "geometry": { "type": "Point", "coordinates": [ 74.045522018653742, 39.965332193242411 ] } },
{ "type": "Feature", "properties": { "ID": 414, "FEATUREID": "OFBB099C1AJ430010020001762", "CHFCAC": "001762", "CHFCEC": "断层辅助点", "CHFCED": "", "point_type": 1, "symbol_no": 1894, "height": 2.25, "width": 1.5, "spacing": null, "angle": 325.70242309570312, "_src_file": "LDZOFBB099.WT", "_src_id": 1761, "sub_no_raw": 1894.0, "angle_raw": 325.70242309570312, "kind": "symbol", "sub_no": 1894.0, "fault_id": "F127", "dip": 65.0, "seg_idx": 37.0, "dist_m": 303.4, "arc_s": 853.0, "side": 1.0, "dperp_m": 309.4, "method": "chain_nearest", "in_band": null, "n_chains_band": 1.0, "dip_az": 34.3, "dist_band_ok": null, "status_note": null, "reattrib_basis": null, "status": "normal", "_theme": "fault_aux", "semantics_version": "1.1.0" }, "geometry": { "type": "Point", "coordinates": [ 74.951052114926824, 39.935310727342149 ] } },
{ "type": "Feature", "properties": { "ID": 416, "FEATUREID": "OFBB099C1AJ430010020001764", "CHFCAC": "001764", "CHFCEC": "断层辅助点", "CHFCED": "", "point_type": 1, "symbol_no": 1894, "height": 2.25, "width": 1.5, "spacing": null, "angle": 290.41848754882812, "_src_file": "LDZOFBB099.WT", "_src_id": 1763, "sub_no_raw": 1894.0, "angle_raw": 290.41848754882812, "kind": "symbol", "sub_no": 1894.0, "fault_id": "F053", "dip": 53.0, "seg_idx": 19.0, "dist_m": 284.1, "arc_s": 8958.0, "side": -1.0, "dperp_m": 289.5, "method": "chain_nearest", "in_band": null, "n_chains_band": 1.0, "dip_az": 69.6, "dist_band_ok": null, "status_note": null, "reattrib_basis": null, "status": "normal", "_theme": "fault_aux", "semantics_version": "1.1.0" }, "geometry": { "type": "Point", "coordinates": [ 74.86651942851789, 39.962919445087373 ] } },
{ "type": "Feature", "properties": { "ID": 418, "FEATUREID": "OFBB099C1AJ430010020001766", "CHFCAC": "001766", "CHFCEC": "断层辅助点", "CHFCED": "", "point_type": 1, "symbol_no": 1894, "height": 2.25, "width": 1.5, "spacing": null, "angle": 181.02926635742188, "_src_file": "LDZOFBB099.WT", "_src_id": 1765, "sub_no_raw": 1894.0, "angle_raw": 181.02926635742188, "kind": "symbol", "sub_no": 1894.0, "fault_id": "F094", "dip": 76.0, "seg_idx": 17.0, "dist_m": 325.0, "arc_s": 3194.0, "side": -1.0, "dperp_m": 325.2, "method": "chain_nearest", "in_band": null, "n_chains_band": 1.0, "dip_az": 179.0, "dist_band_ok": null, "status_note": null, "reattrib_basis": null, "status": "normal", "_theme": "fault_aux", "semantics_version": "1.1.0" }, "geometry": { "type": "Point", "coordinates": [ 74.533567125687199, 39.99116651624621 ] } },
{ "type": "Feature", "properties": { "ID": 420, "FEATUREID": "OFBB099C1AJ430010020001768", "CHFCAC": "001768", "CHFCEC": "断层辅助点", "CHFCED": "", "point_type": 1, "symbol_no": 1894, "height": 2.25, "width": 1.5, "spacing": null, "angle": 204.09930419921875, "_src_file": "LDZOFBB099.WT", "_src_id": 1767, "sub_no_raw": 1894.0, "angle_raw": 204.09930419921875, "kind": "symbol", "sub_no": 1894.0, "fault_id": "F017", "dip": 50.0, "seg_idx": 22.0, "dist_m": 307.3, "arc_s": 20969.0, "side": 1.0, "dperp_m": 309.9, "method": "chain_nearest", "in_band": null, "n_chains_band": 1.0, "dip_az": 155.9, "dist_band_ok": null, "status_note": null, "reattrib_basis": null, "status": "normal", "_theme": "fault_aux", "semantics_version": "1.1.0" }, "geometry": { "type": "Point", "coordinates": [ 74.567987863550641, 39.962821440487126 ] } },
{ "type": "Feature", "properties": { "ID": 422, "FEATUREID": "OFBB099C1AJ430010020001770", "CHFCAC": "001770", "CHFCEC": "断层辅助点", "CHFCED": "", "point_type": 1, "symbol_no": 1894, "height": 2.25, "width": 1.5, "spacing": null, "angle": 235.06410217285159, "_src_file": "LDZOFBB099.WT", "_src_id": 1769, "sub_no_raw": 1894.0, "angle_raw": 235.06410217285156, "kind": "symbol", "sub_no": 1894.0, "fault_id": "F017", "dip": 52.0, "seg_idx": 22.0, "dist_m": 238.4, "arc_s": 24661.0, "side": 1.0, "dperp_m": 246.4, "method": "chain_nearest", "in_band": null, "n_chains_band": 1.0, "dip_az": 124.9, "dist_band_ok": null, "status_note": null, "reattrib_basis": null, "status": "normal", "_theme": "fault_aux", "semantics_version": "1.1.0" }, "geometry": { "type": "Point", "coordinates": [ 74.532033773704256, 39.948948540503636 ] } },
{ "type": "Feature", "properties": { "ID": 420, "FEATUREID": "OFBB099C1AJ430010020001778", "CHFCAC": "001778", "CHFCEC": "断层辅助点", "CHFCED": "", "point_type": 1, "symbol_no": 1894, "height": 2.25, "width": 1.5, "spacing": null, "angle": 274.87115478515625, "_src_file": "LDZOFBB099.WT", "_src_id": 1777, "sub_no_raw": 1894.0, "angle_raw": 274.87115478515625, "kind": "symbol", "sub_no": 1894.0, "fault_id": "F075", "dip": 70.0, "seg_idx": 25.0, "dist_m": 260.4, "arc_s": 2368.0, "side": 1.0, "dperp_m": 261.5, "method": "chain_nearest", "in_band": null, "n_chains_band": 1.0, "dip_az": 85.1, "dist_band_ok": null, "status_note": null, "reattrib_basis": null, "status": "normal", "_theme": "fault_aux", "semantics_version": "1.1.0" }, "geometry": { "type": "Point", "coordinates": [ 74.521637274985849, 39.951109101263633 ] } },
{ "type": "Feature", "properties": { "ID": 420, "FEATUREID": "OFBB099C1AJ430010020001779", "CHFCAC": "001779", "CHFCEC": "断层辅助点", "CHFCED": "", "point_type": 1, "symbol_no": 1894, "height": 2.25, "width": 1.5, "spacing": null, "angle": 285.229248046875, "_src_file": "LDZOFBB099.WT", "_src_id": 1778, "sub_no_raw": 1894.0, "angle_raw": 285.229248046875, "kind": "symbol", "sub_no": 1894.0, "fault_id": "F085", "dip": 48.0, "seg_idx": 24.0, "dist_m": 320.2, "arc_s": 3802.0, "side": -1.0, "dperp_m": 320.2, "method": "chain_nearest", "in_band": null, "n_chains_band": 1.0, "dip_az": 74.8, "dist_band_ok": null, "status_note": null, "reattrib_basis": null, "status": "normal", "_theme": "fault_aux", "semantics_version": "1.1.0" }, "geometry": { "type": "Point", "coordinates": [ 74.497461596263477, 39.945892431436874 ] } },
{ "type": "Feature", "properties": { "ID": 450, "FEATUREID": "OFBB099C1AJ430010020001781", "CHFCAC": "001781", "CHFCEC": "断层辅助点", "CHFCED": "", "point_type": 1, "symbol_no": 1894, "height": 2.0, "width": 1.0, "spacing": null, "angle": 26.220724105834961, "_src_file": "LDZOFBB099.WT", "_src_id": 1780, "sub_no_raw": 1894.0, "angle_raw": 26.220724105834961, "kind": "symbol", "sub_no": 1894.0, "fault_id": "F031", "dip": 55.0, "seg_idx": 106.0, "dist_m": 189.4, "arc_s": 14874.0, "side": 1.0, "dperp_m": 189.6, "method": "chain_nearest", "in_band": null, "n_chains_band": 1.0, "dip_az": 333.8, "dist_band_ok": null, "status_note": null, "reattrib_basis": null, "status": "normal", "_theme": "fault_aux", "semantics_version": "1.1.0" }, "geometry": { "type": "Point", "coordinates": [ 74.956771805487477, 39.685662383624667 ] } },
{ "type": "Feature", "properties": { "ID": 461, "FEATUREID": "OFBB099C1AJ430010020001782", "CHFCAC": "001782", "CHFCEC": "断层辅助点", "CHFCED": "", "point_type": 1, "symbol_no": 1894, "height": 2.25, "width": 1.5, "spacing": null, "angle": 358.54946899414062, "_src_file": "LDZOFBB099.WT", "_src_id": 1781, "sub_no_raw": 1894.0, "angle_raw": 358.54946899414062, "kind": "symbol", "sub_no": 1894.0, "fault_id": "F012", "dip": null, "seg_idx": 74.0, "dist_m": 292.1, "arc_s": 14378.0, "side": -1.0, "dperp_m": 292.2, "method": "chain_nearest", "in_band": null, "n_chains_band": 1.0, "dip_az": 1.5, "dist_band_ok": null, "status_note": null, "reattrib_basis": null, "status": "normal", "_theme": "fault_aux", "semantics_version": "1.1.0" }, "geometry": { "type": "Point", "coordinates": [ 74.800847216697676, 39.819606347099878 ] } },
{ "type": "Feature", "properties": { "ID": 463, "FEATUREID": "OFBB099C1AJ430010020001784", "CHFCAC": "001784", "CHFCEC": "断层辅助点", "CHFCED": "", "point_type": 1, "symbol_no": 1894, "height": 2.25, "width": 1.5, "spacing": null, "angle": 138.63885498046875, "_src_file": "LDZOFBB099.WT", "_src_id": 1783, "sub_no_raw": 1894.0, "angle_raw": 138.63885498046875, "kind": "symbol", "sub_no": 1894.0, "fault_id": "F021", "dip": 63.0, "seg_idx": 82.0, "dist_m": 309.9, "arc_s": 6128.0, "side": -1.0, "dperp_m": 307.7, "method": "reattributed", "in_band": null, "n_chains_band": 2.0, "dip_az": 221.4, "dist_band_ok": null, "status_note": null, "reattrib_basis": "ambig", "status": "normal", "_theme": "fault_aux", "semantics_version": "1.1.0" }, "geometry": { "type": "Point", "coordinates": [ 74.610733612408538, 39.785349269065314 ] } },
{ "type": "Feature", "properties": { "ID": 466, "FEATUREID": "OFBB099C1AJ430010020001787", "CHFCAC": "001787", "CHFCEC": "断层辅助点", "CHFCED": "", "point_type": 1, "symbol_no": 1894, "height": 2.25, "width": 1.5, "spacing": null, "angle": 316.49960327148438, "_src_file": "LDZOFBB099.WT", "_src_id": 1786, "sub_no_raw": 1894.0, "angle_raw": 316.49960327148438, "kind": "symbol", "sub_no": 1894.0, "fault_id": "F053", "dip": 73.0, "seg_idx": 56.0, "dist_m": 310.3, "arc_s": 2228.0, "side": -1.0, "dperp_m": 318.0, "method": "chain_nearest", "in_band": null, "n_chains_band": 1.0, "dip_az": 43.5, "dist_band_ok": null, "status_note": null, "reattrib_basis": null, "status": "normal", "_theme": "fault_aux", "semantics_version": "1.1.0" }, "geometry": { "type": "Point", "coordinates": [ 74.936179305871931, 39.881615752157089 ] } },
{ "type": "Feature", "properties": { "ID": 467, "FEATUREID": "OFBB099C1AJ430010020001788", "CHFCAC": "001788", "CHFCEC": "断层辅助点", "CHFCED": "", "point_type": 1, "symbol_no": 1894, "height": 2.25, "width": 1.5, "spacing": null, "angle": 310.78268432617188, "_src_file": "LDZOFBB099.WT", "_src_id": 1787, "sub_no_raw": 1894.0, "angle_raw": 310.78268432617188, "kind": "symbol", "sub_no": 1894.0, "fault_id": "F051", "dip": 50.0, "seg_idx": 40.0, "dist_m": 253.9, "arc_s": 1743.0, "side": -1.0, "dperp_m": 261.1, "method": "chain_nearest", "in_band": null, "n_chains_band": 2.0, "dip_az": 49.2, "dist_band_ok": null, "status_note": null, "reattrib_basis": null, "status": "normal", "_theme": "fault_aux", "semantics_version": "1.1.0" }, "geometry": { "type": "Point", "coordinates": [ 74.896174484169208, 39.905576409009029 ] } },
{ "type": "Feature", "properties": { "ID": 470, "FEATUREID": "OFBB099C1AJ430010020001791", "CHFCAC": "001791", "CHFCEC": "断层辅助点", "CHFCED": "", "point_type": 1, "symbol_no": 1894, "height": 2.25, "width": 1.5, "spacing": null, "angle": 328.11962890625, "_src_file": "LDZOFBB099.WT", "_src_id": 1790, "sub_no_raw": 1894.0, "angle_raw": 328.11962890625, "kind": "symbol", "sub_no": 1894.0, "fault_id": "F048", "dip": 50.0, "seg_idx": 42.0, "dist_m": 288.6, "arc_s": 7286.0, "side": -1.0, "dperp_m": 291.3, "method": "chain_nearest", "in_band": null, "n_chains_band": 1.0, "dip_az": 31.9, "dist_band_ok": null, "status_note": null, "reattrib_basis": null, "status": "normal", "_theme": "fault_aux", "semantics_version": "1.1.0" }, "geometry": { "type": "Point", "coordinates": [ 74.880965692605557, 39.900022606310316 ] } },
{ "type": "Feature", "properties": { "ID": 473, "FEATUREID": "OFBB099C1AJ430010020001794", "CHFCAC": "001794", "CHFCEC": "断层辅助点", "CHFCED": "", "point_type": 1, "symbol_no": 1894, "height": 2.25, "width": 2.0, "spacing": null, "angle": 272.35012817382812, "_src_file": "LDZOFBB099.WT", "_src_id": 1793, "sub_no_raw": 1894.0, "angle_raw": 272.35012817382812, "kind": "symbol", "sub_no": 1894.0, "fault_id": "F110", "dip": 68.0, "seg_idx": 28.0, "dist_m": 305.3, "arc_s": 1402.0, "side": 1.0, "dperp_m": 306.2, "method": "chain_nearest", "in_band": null, "n_chains_band": 1.0, "dip_az": 87.6, "dist_band_ok": null, "status_note": null, "reattrib_basis": null, "status": "normal", "_theme": "fault_aux", "semantics_version": "1.1.0" }, "geometry": { "type": "Point", "coordinates": [ 74.615953889687745, 39.942014082513715 ] } },
{ "type": "Feature", "properties": { "ID": 726, "FEATUREID": "OFBB099C1AJ430010020001797", "CHFCAC": "001797", "CHFCEC": "断层辅助点", "CHFCED": "", "point_type": 1, "symbol_no": 1894, "height": 2.25, "width": 1.5, "spacing": null, "angle": 158.96272277832031, "_src_file": "LDZOFBB099.WT", "_src_id": 1796, "sub_no_raw": 1894.0, "angle_raw": 158.96272277832031, "kind": "symbol", "sub_no": 1894.0, "fault_id": "F057", "dip": 70.0, "seg_idx": 105.0, "dist_m": 291.6, "arc_s": 7672.0, "side": -1.0, "dperp_m": 293.8, "method": "chain_nearest", "in_band": null, "n_chains_band": 1.0, "dip_az": 201.0, "dist_band_ok": null, "status_note": null, "reattrib_basis": null, "status": "normal", "_theme": "fault_aux", "semantics_version": "1.1.0" }, "geometry": { "type": "Point", "coordinates": [ 74.680727053877106, 39.670163413410485 ] } },
{ "type": "Feature", "properties": { "ID": 420, "FEATUREID": "OFBB099C1AJ430010020001800", "CHFCAC": "001800", "CHFCEC": "断层辅助点", "CHFCED": "", "point_type": 1, "symbol_no": 1894, "height": 2.25, "width": 1.5, "spacing": null, "angle": 177.23066711425781, "_src_file": "LDZOFBB099.WT", "_src_id": 1799, "sub_no_raw": 1894.0, "angle_raw": 177.23066711425781, "kind": "symbol", "sub_no": 1894.0, "fault_id": "F017", "dip": 50.0, "seg_idx": 22.0, "dist_m": 281.4, "arc_s": 13732.0, "side": 1.0, "dperp_m": 282.1, "method": "chain_nearest", "in_band": null, "n_chains_band": 1.0, "dip_az": 182.8, "dist_band_ok": null, "status_note": null, "reattrib_basis": null, "status": "normal", "_theme": "fault_aux", "semantics_version": "1.1.0" }, "geometry": { "type": "Point", "coordinates": [ 74.645073790687363, 39.9787000689835 ] } },
{ "type": "Feature", "properties": { "ID": 466, "FEATUREID": "OFBB099C1AJ430010020001804", "CHFCAC": "001804", "CHFCEC": "断层辅助点", "CHFCED": "", "point_type": 1, "symbol_no": 1894, "height": 2.25, "width": 1.5, "spacing": null, "angle": 325.8603515625, "_src_file": "LDZOFBB099.WT", "_src_id": 1803, "sub_no_raw": 1894.0, "angle_raw": 325.8603515625, "kind": "symbol", "sub_no": 1894.0, "fault_id": "F036", "dip": 55.0, "seg_idx": 81.0, "dist_m": 284.1, "arc_s": 12867.0, "side": 1.0, "dperp_m": 291.6, "method": "chain_nearest", "in_band": null, "n_chains_band": 1.0, "dip_az": 34.1, "dist_band_ok": null, "status_note": null, "reattrib_basis": null, "status": "normal", "_theme": "fault_aux", "semantics_version": "1.1.0" }, "geometry": { "type": "Point", "coordinates": [ 74.957960876833027, 39.795903017798388 ] } },
{ "type": "Feature", "properties": { "ID": 829, "FEATUREID": "OFBB099C1AJ430010020001813", "CHFCAC": "001813", "CHFCEC": "断层辅助点", "CHFCED": "", "point_type": 1, "symbol_no": 1894, "height": 2.25, "width": 1.5, "spacing": null, "angle": 10.321635246276855, "_src_file": "LDZOFBB099.WT", "_src_id": 1812, "sub_no_raw": 1894.0, "angle_raw": 10.321635246276855, "kind": "symbol", "sub_no": 1894.0, "fault_id": "F030", "dip": 60.0, "seg_idx": 63.0, "dist_m": 285.5, "arc_s": 1998.0, "side": -1.0, "dperp_m": 286.6, "method": "chain_nearest", "in_band": null, "n_chains_band": 1.0, "dip_az": 349.7, "dist_band_ok": null, "status_note": null, "reattrib_basis": null, "status": "normal", "_theme": "fault_aux", "semantics_version": "1.1.0" }, "geometry": { "type": "Point", "coordinates": [ 74.510535451474738, 39.855923153768998 ] } },
{ "type": "Feature", "properties": { "ID": 193, "FEATUREID": "OFBB099C1AJ430010020001817", "CHFCAC": "001817", "CHFCEC": "断层辅助点", "CHFCED": "", "point_type": 1, "symbol_no": 1894, "height": 2.25, "width": 1.5, "spacing": null, "angle": 139.71832275390625, "_src_file": "LDZOFBB099.WT", "_src_id": 1816, "sub_no_raw": 1894.0, "angle_raw": 139.71832275390625, "kind": "symbol", "sub_no": 1894.0, "fault_id": "F050", "dip": 70.0, "seg_idx": 258.0, "dist_m": 248.5, "arc_s": 8039.0, "side": -1.0, "dperp_m": 253.7, "method": "chain_nearest", "in_band": null, "n_chains_band": 1.0, "dip_az": 220.3, "dist_band_ok": null, "status_note": null, "reattrib_basis": null, "status": "normal", "_theme": "fault_aux", "semantics_version": "1.1.0" }, "geometry": { "type": "Point", "coordinates": [ 73.832027791780959, 39.193185886719334 ] } },
{ "type": "Feature", "properties": { "ID": 232, "FEATUREID": "OFBB099C1AJ430010020001819", "CHFCAC": "001819", "CHFCEC": "断层辅助点", "CHFCED": "", "point_type": 1, "symbol_no": 1894, "height": 2.25, "width": 1.5, "spacing": null, "angle": 6.0710644721984863, "_src_file": "LDZOFBB099.WT", "_src_id": 1818, "sub_no_raw": 1894.0, "angle_raw": 6.0710644721984863, "kind": "symbol", "sub_no": 1894.0, "fault_id": "F098", "dip": 74.0, "seg_idx": 159.0, "dist_m": 263.3, "arc_s": 3400.0, "side": 1.0, "dperp_m": 263.7, "method": "chain_nearest", "in_band": null, "n_chains_band": 1.0, "dip_az": 353.9, "dist_band_ok": null, "status_note": null, "reattrib_basis": null, "status": "normal", "_theme": "fault_aux", "semantics_version": "1.1.0" }, "geometry": { "type": "Point", "coordinates": [ 74.615639793693617, 39.44111405841641 ] } },
{ "type": "Feature", "properties": { "ID": 235, "FEATUREID": "OFBB099C1AJ430010020001821", "CHFCAC": "001821", "CHFCEC": "断层辅助点", "CHFCED": "", "point_type": 1, "symbol_no": 1894, "height": 2.25, "width": 1.5, "spacing": null, "angle": 144.49757385253906, "_src_file": "LDZOFBB099.WT", "_src_id": 1820, "sub_no_raw": 1894.0, "angle_raw": 144.49757385253906, "kind": "symbol", "sub_no": 1894.0, "fault_id": "F088", "dip": 78.0, "seg_idx": 191.0, "dist_m": 297.9, "arc_s": 2430.0, "side": -1.0, "dperp_m": 303.5, "method": "chain_nearest", "in_band": null, "n_chains_band": 2.0, "dip_az": 215.5, "dist_band_ok": null, "status_note": null, "reattrib_basis": null, "status": "normal", "_theme": "fault_aux", "semantics_version": "1.1.0" }, "geometry": { "type": "Point", "coordinates": [ 74.66828517823842, 39.354419565404015 ] } },
{ "type": "Feature", "properties": { "ID": 236, "FEATUREID": "OFBB099C1AJ430010020001822", "CHFCAC": "001822", "CHFCEC": "断层辅助点", "CHFCED": "", "point_type": 1, "symbol_no": 1894, "height": 2.25, "width": 1.5, "spacing": null, "angle": 160.73866271972656, "_src_file": "LDZOFBB099.WT", "_src_id": 1821, "sub_no_raw": 1894.0, "angle_raw": 160.73866271972656, "kind": "symbol", "sub_no": 1894.0, "fault_id": "F122", "dip": 68.0, "seg_idx": 202.0, "dist_m": 336.4, "arc_s": 1644.0, "side": -1.0, "dperp_m": 337.4, "method": "chain_nearest", "in_band": null, "n_chains_band": 1.0, "dip_az": 199.3, "dist_band_ok": null, "status_note": null, "reattrib_basis": null, "status": "normal", "_theme": "fault_aux", "semantics_version": "1.1.0" }, "geometry": { "type": "Point", "coordinates": [ 74.704723853417335, 39.347555115239068 ] } },
{ "type": "Feature", "properties": { "ID": 240, "FEATUREID": "OFBB099C1AJ430010020001825", "CHFCAC": "001825", "CHFCEC": "断层辅助点", "CHFCED": "", "point_type": 1, "symbol_no": 1894, "height": 2.25, "width": 1.5, "spacing": null, "angle": 305.68756103515625, "_src_file": "LDZOFBB099.WT", "_src_id": 1824, "sub_no_raw": 1894.0, "angle_raw": 305.68756103515625, "kind": "symbol", "sub_no": 1894.0, "fault_id": "F107", "dip": 68.0, "seg_idx": 134.0, "dist_m": 258.0, "arc_s": 3105.0, "side": 1.0, "dperp_m": 266.3, "method": "chain_nearest", "in_band": null, "n_chains_band": 1.0, "dip_az": 54.3, "dist_band_ok": null, "status_note": null, "reattrib_basis": null, "status": "normal", "_theme": "fault_aux", "semantics_version": "1.1.0" }, "geometry": { "type": "Point", "coordinates": [ 74.858443817313457, 39.515361553138661 ] } },
{ "type": "Feature", "properties": { "ID": 243, "FEATUREID": "OFBB099C1AJ430010020001827", "CHFCAC": "001827", "CHFCEC": "断层辅助点", "CHFCED": "", "point_type": 1, "symbol_no": 1894, "height": 2.25, "width": 1.5, "spacing": null, "angle": 170.33171081542969, "_src_file": "LDZOFBB099.WT", "_src_id": 1826, "sub_no_raw": 1894.0, "angle_raw": 170.33171081542969, "kind": "symbol", "sub_no": 1894.0, "fault_id": "F079", "dip": 50.0, "seg_idx": 123.0, "dist_m": 276.0, "arc_s": 6278.0, "side": -1.0, "dperp_m": 276.5, "method": "chain_nearest", "in_band": null, "n_chains_band": 1.0, "dip_az": 189.7, "dist_band_ok": null, "status_note": null, "reattrib_basis": null, "status": "normal", "_theme": "fault_aux", "semantics_version": "1.1.0" }, "geometry": { "type": "Point", "coordinates": [ 74.692323958545984, 39.617788022159843 ] } },
{ "type": "Feature", "properties": { "ID": 247, "FEATUREID": "OFBB099C1AJ430010020001830", "CHFCAC": "001830", "CHFCEC": "断层辅助点", "CHFCED": "", "point_type": 1, "symbol_no": 1894, "height": 2.25, "width": 1.5, "spacing": null, "angle": 270.018310546875, "_src_file": "LDZOFBB099.WT", "_src_id": 1829, "sub_no_raw": 1894.0, "angle_raw": 270.018310546875, "kind": "symbol", "sub_no": 1894.0, "fault_id": "F090", "dip": null, "seg_idx": 128.0, "dist_m": 239.1, "arc_s": 2483.0, "side": 1.0, "dperp_m": 239.1, "method": "chain_nearest", "in_band": null, "n_chains_band": 1.0, "dip_az": 90.0, "dist_band_ok": null, "status_note": null, "reattrib_basis": null, "status": "normal", "_theme": "fault_aux", "semantics_version": "1.1.0" }, "geometry": { "type": "Point", "coordinates": [ 74.961397925044778, 39.567610827786154 ] } },
{ "type": "Feature", "properties": { "ID": 249, "FEATUREID": "OFBB099C1AJ430010020001831", "CHFCAC": "001831", "CHFCEC": "断层辅助点", "CHFCED": "", "point_type": 1, "symbol_no": 1894, "height": 2.25, "width": 1.5, "spacing": null, "angle": 355.07080078125, "_src_file": "LDZOFBB099.WT", "_src_id": 1830, "sub_no_raw": 1894.0, "angle_raw": 355.07080078125, "kind": "symbol", "sub_no": 1894.0, "fault_id": "F067", "dip": 73.0, "seg_idx": 143.0, "dist_m": 308.5, "arc_s": 8500.0, "side": 1.0, "dperp_m": 308.5, "method": "chain_nearest", "in_band": null, "n_chains_band": 1.0, "dip_az": 4.9, "dist_band_ok": null, "status_note": null, "reattrib_basis": null, "status": "normal", "_theme": "fault_aux", "semantics_version": "1.1.0" }, "geometry": { "type": "Point", "coordinates": [ 74.82817936186153, 39.452357038435252 ] } },
{ "type": "Feature", "properties": { "ID": 232, "FEATUREID": "OFBB099C1AJ430010020001834", "CHFCAC": "001834", "CHFCEC": "断层辅助点", "CHFCED": "", "point_type": 1, "symbol_no": 1894, "height": 2.25, "width": 1.5, "spacing": null, "angle": 141.37098693847656, "_src_file": "LDZOFBB099.WT", "_src_id": 1833, "sub_no_raw": 1894.0, "angle_raw": 141.37098693847656, "kind": "symbol", "sub_no": 1894.0, "fault_id": "F022", "dip": 72.0, "seg_idx": 107.0, "dist_m": 280.9, "arc_s": 17889.0, "side": -1.0, "dperp_m": 288.5, "method": "chain_nearest", "in_band": null, "n_chains_band": 1.0, "dip_az": 218.6, "dist_band_ok": null, "status_note": null, "reattrib_basis": null, "status": "normal", "_theme": "fault_aux", "semantics_version": "1.1.0" }, "geometry": { "type": "Point", "coordinates": [ 74.543715662953005, 39.653651568059971 ] } },
{ "type": "Feature", "properties": { "ID": 236, "FEATUREID": "OFBB099C1AJ430010020001846", "CHFCAC": "001846", "CHFCEC": "断层辅助点", "CHFCED": "", "point_type": 1, "symbol_no": 1894, "height": 2.25, "width": 1.5, "spacing": null, "angle": 152.03157043457031, "_src_file": "LDZOFBB099.WT", "_src_id": 1845, "sub_no_raw": 1894.0, "angle_raw": 152.03157043457031, "kind": "symbol", "sub_no": 1894.0, "fault_id": "F001", "dip": 50.0, "seg_idx": 208.0, "dist_m": 287.0, "arc_s": 116693.0, "side": -1.0, "dperp_m": 291.6, "method": "chain_nearest", "in_band": null, "n_chains_band": 1.0, "dip_az": 208.0, "dist_band_ok": null, "status_note": null, "reattrib_basis": null, "status": "normal", "_theme": "fault_aux", "semantics_version": "1.1.0" }, "geometry": { "type": "Point", "coordinates": [ 74.820338991474003, 39.342571792705087 ] } },
{ "type": "Feature", "properties": { "ID": 106, "FEATUREID": "OFBB099C1AJ430010020001848", "CHFCAC": "001848", "CHFCEC": "断层辅助点", "CHFCED": "", "point_type": 1, "symbol_no": 1894, "height": 2.25, "width": 1.5, "spacing": null, "angle": 49.273090362548828, "_src_file": "LDZOFBB099.WT", "_src_id": 1847, "sub_no_raw": 1894.0, "angle_raw": 49.273090362548828, "kind": "symbol", "sub_no": 1894.0, "fault_id": "F099", "dip": 70.0, "seg_idx": 111.0, "dist_m": 262.1, "arc_s": 2655.0, "side": -1.0, "dperp_m": 270.7, "method": "chain_nearest", "in_band": null, "n_chains_band": 1.0, "dip_az": 310.7, "dist_band_ok": null, "status_note": null, "reattrib_basis": null, "status": "normal", "_theme": "fault_aux", "semantics_version": "1.1.0" }, "geometry": { "type": "Point", "coordinates": [ 73.966633015559779, 39.651238190690123 ] } },
{ "type": "Feature", "properties": { "ID": 115, "FEATUREID": "OFBB099C1AJ430010020001854", "CHFCAC": "001854", "CHFCEC": "断层辅助点", "CHFCED": "", "point_type": 1, "symbol_no": 1894, "height": 2.25, "width": 1.5, "spacing": null, "angle": 2.057513952255249, "_src_file": "LDZOFBB099.WT", "_src_id": 1853, "sub_no_raw": 1894.0, "angle_raw": 2.057513952255249, "kind": "symbol", "sub_no": 1894.0, "fault_id": "F003", "dip": 50.0, "seg_idx": 140.0, "dist_m": 288.4, "arc_s": 73620.0, "side": -1.0, "dperp_m": 288.4, "method": "chain_nearest", "in_band": null, "n_chains_band": 1.0, "dip_az": 357.9, "dist_band_ok": null, "status_note": null, "reattrib_basis": null, "status": "normal", "_theme": "fault_aux", "semantics_version": "1.1.0" }, "geometry": { "type": "Point", "coordinates": [ 73.981573357964763, 39.428179305830454 ] } },
{ "type": "Feature", "properties": { "ID": 119, "FEATUREID": "OFBB099C1AJ430010020001857", "CHFCAC": "001857", "CHFCEC": "断层辅助点", "CHFCED": "", "point_type": 1, "symbol_no": 1894, "height": 2.25, "width": 1.5, "spacing": null, "angle": 6.8890552520751953, "_src_file": "LDZOFBB099.WT", "_src_id": 1856, "sub_no_raw": 1894.0, "angle_raw": 6.8890552520751953, "kind": "symbol", "sub_no": 1894.0, "fault_id": "F010", "dip": 20.0, "seg_idx": 141.0, "dist_m": 298.9, "arc_s": 10509.0, "side": 1.0, "dperp_m": 299.1, "method": "chain_nearest", "in_band": null, "n_chains_band": 1.0, "dip_az": 353.1, "dist_band_ok": null, "status_note": null, "reattrib_basis": null, "status": "normal", "_theme": "fault_aux", "semantics_version": "1.1.0" }, "geometry": { "type": "Point", "coordinates": [ 73.979481571039585, 39.416695143516428 ] } },
{ "type": "Feature", "properties": { "ID": 120, "FEATUREID": "OFBB099C1AJ430010020001858", "CHFCAC": "001858", "CHFCEC": "断层辅助点", "CHFCED": "", "point_type": 1, "symbol_no": 1894, "height": 2.25, "width": 1.5, "spacing": null, "angle": 11.108803749084473, "_src_file": "LDZOFBB099.WT", "_src_id": 1857, "sub_no_raw": 1894.0, "angle_raw": 11.108803749084473, "kind": "symbol", "sub_no": 1894.0, "fault_id": "F015", "dip": 25.0, "seg_idx": 174.0, "dist_m": 287.0, "arc_s": 18879.0, "side": 1.0, "dperp_m": 287.7, "method": "chain_nearest", "in_band": null, "n_chains_band": 1.0, "dip_az": 348.9, "dist_band_ok": null, "status_note": null, "reattrib_basis": null, "status": "normal", "_theme": "fault_aux", "semantics_version": "1.1.0" }, "geometry": { "type": "Point", "coordinates": [ 73.967715375531739, 39.391412112575132 ] } },
{ "type": "Feature", "properties": { "ID": 218, "FEATUREID": "OFBB099C1AJ430010020001864", "CHFCAC": "001864", "CHFCEC": "断层辅助点", "CHFCED": "", "point_type": 1, "symbol_no": 1894, "height": 2.25, "width": 1.5, "spacing": null, "angle": 180.44876098632807, "_src_file": "LDZOFBB099.WT", "_src_id": 1863, "sub_no_raw": 1894.0, "angle_raw": 180.44876098632812, "kind": "symbol", "sub_no": 1894.0, "fault_id": "F001", "dip": 58.0, "seg_idx": 179.0, "dist_m": 227.0, "arc_s": 41100.0, "side": -1.0, "dperp_m": 227.2, "method": "chain_nearest", "in_band": null, "n_chains_band": 1.0, "dip_az": 179.6, "dist_band_ok": null, "status_note": null, "reattrib_basis": null, "status": "normal", "_theme": "fault_aux", "semantics_version": "1.1.0" }, "geometry": { "type": "Point", "coordinates": [ 74.087243171932386, 39.38839906963171 ] } },
{ "type": "Feature", "properties": { "ID": 219, "FEATUREID": "OFBB099C1AJ430010020001865", "CHFCAC": "001865", "CHFCEC": "断层辅助点", "CHFCED": "", "point_type": 1, "symbol_no": 1894, "height": 2.25, "width": 1.5, "spacing": null, "angle": 190.39015197753903, "_src_file": "LDZOFBB099.WT", "_src_id": 1864, "sub_no_raw": 1894.0, "angle_raw": 190.39015197753906, "kind": "symbol", "sub_no": 1894.0, "fault_id": "F001", "dip": 57.0, "seg_idx": 179.0, "dist_m": 209.3, "arc_s": 45097.0, "side": -1.0, "dperp_m": 210.1, "method": "chain_nearest", "in_band": null, "n_chains_band": 1.0, "dip_az": 169.6, "dist_band_ok": null, "status_note": null, "reattrib_basis": null, "status": "normal", "_theme": "fault_aux", "semantics_version": "1.1.0" }, "geometry": { "type": "Point", "coordinates": [ 74.132787797483928, 39.391501088845622 ] } },
{ "type": "Feature", "properties": { "ID": 220, "FEATUREID": "OFBB099C1AJ430010020001868", "CHFCAC": "001868", "CHFCEC": "断层辅助点", "CHFCED": "", "point_type": 1, "symbol_no": 1894, "height": 2.25, "width": 1.5, "spacing": null, "angle": 193.42633056640625, "_src_file": "LDZOFBB099.WT", "_src_id": 1867, "sub_no_raw": 1894.0, "angle_raw": 193.42633056640625, "kind": "symbol", "sub_no": 1894.0, "fault_id": "F039", "dip": 50.0, "seg_idx": 172.0, "dist_m": 268.0, "arc_s": 15188.0, "side": 1.0, "dperp_m": 269.6, "method": "chain_nearest", "in_band": null, "n_chains_band": 1.0, "dip_az": 166.6, "dist_band_ok": null, "status_note": null, "reattrib_basis": null, "status": "normal", "_theme": "fault_aux", "semantics_version": "1.1.0" }, "geometry": { "type": "Point", "coordinates": [ 74.121923961733728, 39.39981476269304 ] } },
{ "type": "Feature", "properties": { "ID": 221, "FEATUREID": "OFBB099C1AJ430010020001869", "CHFCAC": "001869", "CHFCEC": "断层辅助点", "CHFCED": "", "point_type": 1, "symbol_no": 1894, "height": 2.25, "width": 1.5, "spacing": null, "angle": 181.3553466796875, "_src_file": "LDZOFBB099.WT", "_src_id": 1868, "sub_no_raw": 1894.0, "angle_raw": 181.3553466796875, "kind": "symbol", "sub_no": 1894.0, "fault_id": "F029", "dip": 65.0, "seg_idx": 170.0, "dist_m": 251.7, "arc_s": 15738.0, "side": 1.0, "dperp_m": 175.7, "method": "median_pref", "in_band": null, "n_chains_band": 2.0, "dip_az": 178.6, "dist_band_ok": null, "status_note": null, "reattrib_basis": null, "status": "normal", "_theme": "fault_aux", "semantics_version": "1.1.0" }, "geometry": { "type": "Point", "coordinates": [ 74.122789866670715, 39.404152390909751 ] } },
{ "type": "Feature", "properties": { "ID": 226, "FEATUREID": "OFBB099C1AJ430010020001872", "CHFCAC": "001872", "CHFCEC": "断层辅助点", "CHFCED": "", "point_type": 1, "symbol_no": 1894, "height": 2.25, "width": 1.5, "spacing": null, "angle": 199.89070129394531, "_src_file": "LDZOFBB099.WT", "_src_id": 1871, "sub_no_raw": 1894.0, "angle_raw": 199.89070129394531, "kind": "symbol", "sub_no": 1894.0, "fault_id": "F005", "dip": 63.0, "seg_idx": 142.0, "dist_m": 271.0, "arc_s": 42979.0, "side": 1.0, "dperp_m": 275.2, "method": "chain_nearest", "in_band": null, "n_chains_band": 1.0, "dip_az": 160.1, "dist_band_ok": null, "status_note": null, "reattrib_basis": null, "status": "normal", "_theme": "fault_aux", "semantics_version": "1.1.0" }, "geometry": { "type": "Point", "coordinates": [ 74.083987233567157, 39.486640141015542 ] } },
{ "type": "Feature", "properties": { "ID": 229, "FEATUREID": "OFBB099C1AJ430010020001874", "CHFCAC": "001874", "CHFCEC": "断层辅助点", "CHFCED": "", "point_type": 1, "symbol_no": 1894, "height": 2.25, "width": 1.5, "spacing": null, "angle": 209.11479187011719, "_src_file": "LDZOFBB099.WT", "_src_id": 1873, "sub_no_raw": 1894.0, "angle_raw": 209.11479187011719, "kind": "symbol", "sub_no": 1894.0, "fault_id": "F004", "dip": null, "seg_idx": 99.0, "dist_m": 343.9, "arc_s": 12423.0, "side": -1.0, "dperp_m": 350.5, "method": "chain_nearest", "in_band": null, "n_chains_band": 1.0, "dip_az": 150.9, "dist_band_ok": null, "status_note": null, "reattrib_basis": null, "status": "normal", "_theme": "fault_aux", "semantics_version": "1.1.0" }, "geometry": { "type": "Point", "coordinates": [ 74.074515133698355, 39.573126674364389 ] } },
{ "type": "Feature", "properties": { "ID": 232, "FEATUREID": "OFBB099C1AJ430010020001876", "CHFCAC": "001876", "CHFCEC": "断层辅助点", "CHFCED": "", "point_type": 1, "symbol_no": 1894, "height": 2.25, "width": 1.5, "spacing": null, "angle": 196.37171936035159, "_src_file": "LDZOFBB099.WT", "_src_id": 1875, "sub_no_raw": 1894.0, "angle_raw": 196.37171936035156, "kind": "symbol", "sub_no": 1894.0, "fault_id": "F005", "dip": 78.0, "seg_idx": 126.0, "dist_m": 277.3, "arc_s": 38637.0, "side": 1.0, "dperp_m": 282.1, "method": "chain_nearest", "in_band": null, "n_chains_band": 1.0, "dip_az": 163.6, "dist_band_ok": null, "status_note": null, "reattrib_basis": null, "status": "normal", "_theme": "fault_aux", "semantics_version": "1.1.0" }, "geometry": { "type": "Point", "coordinates": [ 74.133476290189648, 39.502155191679272 ] } },
{ "type": "Feature", "properties": { "ID": 233, "FEATUREID": "OFBB099C1AJ430010020001877", "CHFCAC": "001877", "CHFCEC": "断层辅助点", "CHFCED": "", "point_type": 1, "symbol_no": 1894, "height": 2.25, "width": 1.5, "spacing": null, "angle": 18.590524673461918, "_src_file": "LDZOFBB099.WT", "_src_id": 1876, "sub_no_raw": 1894.0, "angle_raw": 18.590524673461914, "kind": "symbol", "sub_no": 1894.0, "fault_id": "F003", "dip": 67.0, "seg_idx": 140.0, "dist_m": 311.6, "arc_s": 61044.0, "side": -1.0, "dperp_m": 313.6, "method": "chain_nearest", "in_band": null, "n_chains_band": 1.0, "dip_az": 341.4, "dist_band_ok": null, "status_note": null, "reattrib_basis": null, "status": "normal", "_theme": "fault_aux", "semantics_version": "1.1.0" }, "geometry": { "type": "Point", "coordinates": [ 74.119165793314565, 39.462282448336943 ] } },
{ "type": "Feature", "properties": { "ID": 238, "FEATUREID": "OFBB099C1AJ430010020001880", "CHFCAC": "001880", "CHFCEC": "断层辅助点", "CHFCED": "", "point_type": 1, "symbol_no": 1894, "height": 2.25, "width": 1.5, "spacing": null, "angle": 184.50541687011719, "_src_file": "LDZOFBB099.WT", "_src_id": 1879, "sub_no_raw": 1894.0, "angle_raw": 184.50541687011719, "kind": "symbol", "sub_no": 1894.0, "fault_id": "F005", "dip": 71.0, "seg_idx": 125.0, "dist_m": 251.0, "arc_s": 14769.0, "side": 1.0, "dperp_m": 251.1, "method": "chain_nearest", "in_band": null, "n_chains_band": 1.0, "dip_az": 175.5, "dist_band_ok": null, "status_note": null, "reattrib_basis": null, "status": "normal", "_theme": "fault_aux", "semantics_version": "1.1.0" }, "geometry": { "type": "Point", "coordinates": [ 74.407928833638408, 39.598169152268767 ] } },
{ "type": "Feature", "properties": { "ID": 240, "FEATUREID": "OFBB099C1AJ430010020001881", "CHFCAC": "001881", "CHFCEC": "断层辅助点", "CHFCED": "", "point_type": 1, "symbol_no": 1894, "height": 2.25, "width": 1.5, "spacing": null, "angle": 197.48136901855469, "_src_file": "LDZOFBB099.WT", "_src_id": 1880, "sub_no_raw": 1894.0, "angle_raw": 197.48136901855469, "kind": "symbol", "sub_no": 1894.0, "fault_id": "F005", "dip": 80.0, "seg_idx": 126.0, "dist_m": 278.1, "arc_s": 17434.0, "side": 1.0, "dperp_m": 278.6, "method": "chain_nearest", "in_band": null, "n_chains_band": 1.0, "dip_az": 162.5, "dist_band_ok": null, "status_note": null, "reattrib_basis": null, "status": "normal", "_theme": "fault_aux", "semantics_version": "1.1.0" }, "geometry": { "type": "Point", "coordinates": [ 74.350694930795001, 39.588200091650748 ] } },
{ "type": "Feature", "properties": { "ID": 245, "FEATUREID": "OFBB099C1AJ430010020001884", "CHFCAC": "001884", "CHFCEC": "断层辅助点", "CHFCED": "", "point_type": 1, "symbol_no": 1894, "height": 2.25, "width": 1.5, "spacing": null, "angle": 188.243408203125, "_src_file": "LDZOFBB099.WT", "_src_id": 1883, "sub_no_raw": 1894.0, "angle_raw": 188.243408203125, "kind": "symbol", "sub_no": 1894.0, "fault_id": "F001", "dip": 65.0, "seg_idx": 181.0, "dist_m": 299.9, "arc_s": 74982.0, "side": -1.0, "dperp_m": 301.4, "method": "chain_nearest", "in_band": null, "n_chains_band": 1.0, "dip_az": 171.8, "dist_band_ok": null, "status_note": null, "reattrib_basis": null, "status": "normal", "_theme": "fault_aux", "semantics_version": "1.1.0" }, "geometry": { "type": "Point", "coordinates": [ 74.482585265920648, 39.389004978689826 ] } },
{ "type": "Feature", "properties": { "ID": 297, "FEATUREID": "OFBB099C1AJ430010020001885", "CHFCAC": "001885", "CHFCEC": "断层辅助点", "CHFCED": "", "point_type": 1, "symbol_no": 1894, "height": 2.25, "width": 1.5, "spacing": null, "angle": 227.50596618652344, "_src_file": "LDZOFBB099.WT", "_src_id": 1884, "sub_no_raw": 1894.0, "angle_raw": 227.50596618652344, "kind": "symbol", "sub_no": 1894.0, "fault_id": "F063", "dip": 52.0, "seg_idx": 118.0, "dist_m": 253.0, "arc_s": 3621.0, "side": 1.0, "dperp_m": 261.3, "method": "chain_nearest", "in_band": null, "n_chains_band": 1.0, "dip_az": 132.5, "dist_band_ok": null, "status_note": null, "reattrib_basis": null, "status": "normal", "_theme": "fault_aux", "semantics_version": "1.1.0" }, "geometry": { "type": "Point", "coordinates": [ 74.040251836307846, 39.624482507192035 ] } },
{ "type": "Feature", "properties": { "ID": 325, "FEATUREID": "OFBB099C1AJ430010020001897", "CHFCAC": "001897", "CHFCEC": "断层辅助点", "CHFCED": "", "point_type": 1, "symbol_no": 1894, "height": 2.25, "width": 1.5, "spacing": null, "angle": 215.14463806152344, "_src_file": "LDZOFBB099.WT", "_src_id": 1896, "sub_no_raw": 1894.0, "angle_raw": 215.14463806152344, "kind": "symbol", "sub_no": 1894.0, "fault_id": "F004", "dip": null, "seg_idx": 99.0, "dist_m": 342.6, "arc_s": 23785.0, "side": -1.0, "dperp_m": 347.8, "method": "chain_nearest", "in_band": null, "n_chains_band": 1.0, "dip_az": 144.9, "dist_band_ok": null, "status_note": null, "reattrib_basis": null, "status": "normal", "_theme": "fault_aux", "semantics_version": "1.1.0" }, "geometry": { "type": "Point", "coordinates": [ 74.184605513770634, 39.627553858666801 ] } },
{ "type": "Feature", "properties": { "ID": 379, "FEATUREID": "OFBB099C1AJ430010020001901", "CHFCAC": "001901", "CHFCEC": "断层辅助点", "CHFCED": "", "point_type": 1, "symbol_no": 1894, "height": 2.25, "width": 1.5, "spacing": null, "angle": 176.82232666015625, "_src_file": "LDZOFBB099.WT", "_src_id": 1900, "sub_no_raw": 1894.0, "angle_raw": 176.82232666015625, "kind": "symbol", "sub_no": 1894.0, "fault_id": "F008", "dip": 55.0, "seg_idx": 189.0, "dist_m": 275.3, "arc_s": 4342.0, "side": -1.0, "dperp_m": 276.1, "method": "chain_nearest", "in_band": null, "n_chains_band": 1.0, "dip_az": 183.2, "dist_band_ok": null, "status_note": null, "reattrib_basis": null, "status": "normal", "_theme": "fault_aux", "semantics_version": "1.1.0" }, "geometry": { "type": "Point", "coordinates": [ 74.073849615050705, 39.360018140276928 ] } },
{ "type": "Feature", "properties": { "ID": 384, "FEATUREID": "OFBB099C1AJ430010020001905", "CHFCAC": "001905", "CHFCEC": "断层辅助点", "CHFCED": "", "point_type": 1, "symbol_no": 1894, "height": 2.25, "width": 1.5, "spacing": null, "angle": 329.691650390625, "_src_file": "LDZOFBB099.WT", "_src_id": 1904, "sub_no_raw": 1894.0, "angle_raw": 329.691650390625, "kind": "symbol", "sub_no": 1894.0, "fault_id": "F117", "dip": 50.0, "seg_idx": 203.0, "dist_m": 297.3, "arc_s": 1506.0, "side": 1.0, "dperp_m": 302.9, "method": "chain_nearest", "in_band": null, "n_chains_band": 1.0, "dip_az": 30.3, "dist_band_ok": null, "status_note": null, "reattrib_basis": null, "status": "normal", "_theme": "fault_aux", "semantics_version": "1.1.0" }, "geometry": { "type": "Point", "coordinates": [ 74.075595844466108, 39.344505050544704 ] } },
{ "type": "Feature", "properties": { "ID": 375, "FEATUREID": "OFBB099C1AJ430010020001915", "CHFCAC": "001915", "CHFCEC": "断层辅助点", "CHFCED": "", "point_type": 1, "symbol_no": 1894, "height": 2.25, "width": 1.5, "spacing": null, "angle": 138.33740234375, "_src_file": "LDZOFBB099.WT", "_src_id": 1914, "sub_no_raw": 1894.0, "angle_raw": 138.33740234375, "kind": "symbol", "sub_no": 1894.0, "fault_id": "F001", "dip": null, "seg_idx": 176.0, "dist_m": 206.5, "arc_s": 60544.0, "side": -1.0, "dperp_m": 213.3, "method": "chain_nearest", "in_band": null, "n_chains_band": 1.0, "dip_az": 221.7, "dist_band_ok": null, "status_note": null, "reattrib_basis": null, "status": "normal", "_theme": "fault_aux", "semantics_version": "1.1.0" }, "geometry": { "type": "Point", "coordinates": [ 74.339361251932417, 39.391432819367907 ] } },
{ "type": "Feature", "properties": { "ID": 6, "FEATUREID": "OFBB099C1AJ430010020001920", "CHFCAC": "001920", "CHFCEC": "断层辅助点", "CHFCED": "", "point_type": 1, "symbol_no": 1894, "height": 2.25, "width": 1.15, "spacing": null, "angle": 329.29379272460938, "_src_file": "LDZOFBB099.WT", "_src_id": 1919, "sub_no_raw": 1894.0, "angle_raw": 329.29379272460938, "kind": "symbol", "sub_no": 1894.0, "fault_id": "F060", "dip": 85.0, "seg_idx": 263.0, "dist_m": 253.2, "arc_s": 2244.0, "side": 1.0, "dperp_m": 257.6, "method": "chain_nearest", "in_band": null, "n_chains_band": 1.0, "dip_az": 30.7, "dist_band_ok": null, "status_note": null, "reattrib_basis": null, "status": "normal", "_theme": "fault_aux", "semantics_version": "1.1.0" }, "geometry": { "type": "Point", "coordinates": [ 74.052765319795398, 39.199351162200287 ] } },
{ "type": "Feature", "properties": { "ID": 121, "FEATUREID": "OFBB099C1AJ430010020001924", "CHFCAC": "001924", "CHFCEC": "断层辅助点", "CHFCED": "", "point_type": 1, "symbol_no": 1894, "height": 2.25, "width": 1.15, "spacing": null, "angle": 301.539794921875, "_src_file": "LDZOFBB099.WT", "_src_id": 1923, "sub_no_raw": 1894.0, "angle_raw": 301.539794921875, "kind": "symbol", "sub_no": 1894.0, "fault_id": "F114", "dip": null, "seg_idx": 300.0, "dist_m": 189.1, "arc_s": 2078.0, "side": 1.0, "dperp_m": 198.4, "method": "chain_nearest", "in_band": null, "n_chains_band": 1.0, "dip_az": 58.5, "dist_band_ok": null, "status_note": null, "reattrib_basis": null, "status": "normal", "_theme": "fault_aux", "semantics_version": "1.1.0" }, "geometry": { "type": "Point", "coordinates": [ 74.988343421627903, 39.059195651664417 ] } },
{ "type": "Feature", "properties": { "ID": 123, "FEATUREID": "OFBB099C1AJ430010020001925", "CHFCAC": "001925", "CHFCEC": "断层辅助点", "CHFCED": "", "point_type": 1, "symbol_no": 1894, "height": 1.5, "width": 1.5, "spacing": null, "angle": 295.2188720703125, "_src_file": "LDZOFBB099.WT", "_src_id": 1924, "sub_no_raw": 1894.0, "angle_raw": 295.2188720703125, "kind": "symbol", "sub_no": 1894.0, "fault_id": "F114", "dip": 25.0, "seg_idx": 298.0, "dist_m": 185.8, "arc_s": 95.0, "side": 1.0, "dperp_m": 195.3, "method": "chain_nearest", "in_band": null, "n_chains_band": 1.0, "dip_az": 64.8, "dist_band_ok": null, "status_note": null, "reattrib_basis": null, "status": "normal", "_theme": "fault_aux", "semantics_version": "1.1.0" }, "geometry": { "type": "Point", "coordinates": [ 74.962391428079755, 39.075891492042835 ] } },
{ "type": "Feature", "properties": { "ID": 125, "FEATUREID": "OFBB099C1AJ430010020001926", "CHFCAC": "001926", "CHFCEC": "断层辅助点", "CHFCED": "", "point_type": 1, "symbol_no": 1894, "height": 1.5, "width": 1.5, "spacing": null, "angle": 356.45111083984369, "_src_file": "LDZOFBB099.WT", "_src_id": 1925, "sub_no_raw": 1894.0, "angle_raw": 356.45111083984375, "kind": "symbol", "sub_no": 1894.0, "fault_id": "F112", "dip": 26.0, "seg_idx": 291.0, "dist_m": 338.9, "arc_s": 2880.0, "side": 1.0, "dperp_m": 340.9, "method": "chain_nearest", "in_band": null, "n_chains_band": 1.0, "dip_az": 3.5, "dist_band_ok": null, "status_note": null, "reattrib_basis": null, "status": "normal", "_theme": "fault_aux", "semantics_version": "1.1.0" }, "geometry": { "type": "Point", "coordinates": [ 74.942747161417969, 39.083498534216957 ] } },
{ "type": "Feature", "properties": { "ID": 118, "FEATUREID": "OFBB099C1AJ430010020001927", "CHFCAC": "001927", "CHFCEC": "断层辅助点", "CHFCED": "", "point_type": 1, "symbol_no": 1894, "height": 1.5, "width": 1.5, "spacing": null, "angle": 192.05133056640625, "_src_file": "LDZOFBB099.WT", "_src_id": 1926, "sub_no_raw": 1894.0, "angle_raw": 192.05133056640625, "kind": "symbol", "sub_no": 1894.0, "fault_id": "F014", "dip": null, "seg_idx": 307.0, "dist_m": 225.3, "arc_s": 28079.0, "side": -1.0, "dperp_m": 225.8, "method": "chain_nearest", "in_band": null, "n_chains_band": 1.0, "dip_az": 167.9, "dist_band_ok": null, "status_note": null, "reattrib_basis": null, "status": "normal", "_theme": "fault_aux", "semantics_version": "1.1.0" }, "geometry": { "type": "Point", "coordinates": [ 74.939397672104533, 39.002096063422186 ] } },
{ "type": "Feature", "properties": { "ID": 116, "FEATUREID": "OFBB099C1AJ430010020001928", "CHFCAC": "001928", "CHFCEC": "断层辅助点", "CHFCED": "", "point_type": 1, "symbol_no": 1894, "height": 2.25, "width": 1.15, "spacing": null, "angle": 316.40087890625, "_src_file": "LDZOFBB099.WT", "_src_id": 1927, "sub_no_raw": 1894.0, "angle_raw": 316.40087890625, "kind": "symbol", "sub_no": 1894.0, "fault_id": "F013", "dip": null, "seg_idx": 286.0, "dist_m": 295.6, "arc_s": 33823.0, "side": 1.0, "dperp_m": 303.6, "method": "chain_nearest", "in_band": null, "n_chains_band": 1.0, "dip_az": 43.6, "dist_band_ok": null, "status_note": null, "reattrib_basis": null, "status": "normal", "_theme": "fault_aux", "semantics_version": "1.1.0" }, "geometry": { "type": "Point", "coordinates": [ 74.90147804657056, 39.102122792442792 ] } },
{ "type": "Feature", "properties": { "ID": 198, "FEATUREID": "OFBB099C1AJ430010020001930", "CHFCAC": "001930", "CHFCEC": "断层辅助点", "CHFCED": "", "point_type": 1, "symbol_no": 1894, "height": 2.25, "width": 1.15, "spacing": null, "angle": 231.35650634765625, "_src_file": "LDZOFBB099.WT", "_src_id": 1929, "sub_no_raw": 1894.0, "angle_raw": 231.35650634765625, "kind": "symbol", "sub_no": 1894.0, "fault_id": "F011", "dip": 46.0, "seg_idx": 239.0, "dist_m": 277.0, "arc_s": 26262.0, "side": -1.0, "dperp_m": 288.7, "method": "chain_nearest", "in_band": null, "n_chains_band": 1.0, "dip_az": 128.6, "dist_band_ok": null, "status_note": null, "reattrib_basis": null, "status": "normal", "_theme": "fault_aux", "semantics_version": "1.1.0" }, "geometry": { "type": "Point", "coordinates": [ 74.712294749506071, 39.296566566617706 ] } },
{ "type": "Feature", "properties": { "ID": 203, "FEATUREID": "OFBB099C1AJ430010020001931", "CHFCAC": "001931", "CHFCEC": "断层辅助点", "CHFCED": "", "point_type": 1, "symbol_no": 1894, "height": 1.5, "width": 1.5, "spacing": null, "angle": 145.92794799804688, "_src_file": "LDZOFBB099.WT", "_src_id": 1930, "sub_no_raw": 1894.0, "angle_raw": 145.92794799804688, "kind": "symbol", "sub_no": 1894.0, "fault_id": "F008", "dip": 45.0, "seg_idx": 233.0, "dist_m": 201.0, "arc_s": 47121.0, "side": -1.0, "dperp_m": 202.2, "method": "chain_nearest", "in_band": null, "n_chains_band": 1.0, "dip_az": 214.1, "dist_band_ok": null, "status_note": null, "reattrib_basis": null, "status": "normal", "_theme": "fault_aux", "semantics_version": "1.1.0" }, "geometry": { "type": "Point", "coordinates": [ 74.59395925901201, 39.283802693981727 ] } },
{ "type": "Feature", "properties": { "ID": 210, "FEATUREID": "OFBB099C1AJ430010020001934", "CHFCAC": "001934", "CHFCEC": "断层辅助点", "CHFCED": "", "point_type": 1, "symbol_no": 1894, "height": 2.25, "width": 1.15, "spacing": null, "angle": 179.19024658203125, "_src_file": "LDZOFBB099.WT", "_src_id": 1933, "sub_no_raw": 1894.0, "angle_raw": 179.19024658203125, "kind": "symbol", "sub_no": 1894.0, "fault_id": "F011", "dip": 78.0, "seg_idx": 235.0, "dist_m": 288.1, "arc_s": 14752.0, "side": -1.0, "dperp_m": 289.7, "method": "chain_nearest", "in_band": null, "n_chains_band": 1.0, "dip_az": 180.8, "dist_band_ok": null, "status_note": null, "reattrib_basis": null, "status": "normal", "_theme": "fault_aux", "semantics_version": "1.1.0" }, "geometry": { "type": "Point", "coordinates": [ 74.565110749083843, 39.277700758225265 ] } },
{ "type": "Feature", "properties": { "ID": 221, "FEATUREID": "OFBB099C1AJ430010020001936", "CHFCAC": "001936", "CHFCEC": "断层辅助点", "CHFCED": "", "point_type": 1, "symbol_no": 1894, "height": 2.25, "width": 1.15, "spacing": null, "angle": 309.93820190429688, "_src_file": "LDZOFBB099.WT", "_src_id": 1935, "sub_no_raw": 1894.0, "angle_raw": 309.93820190429688, "kind": "symbol", "sub_no": 1894.0, "fault_id": "F042", "dip": 69.0, "seg_idx": 303.0, "dist_m": 242.3, "arc_s": 12319.0, "side": 1.0, "dperp_m": 250.5, "method": "chain_nearest", "in_band": null, "n_chains_band": 1.0, "dip_az": 50.1, "dist_band_ok": null, "status_note": null, "reattrib_basis": null, "status": "normal", "_theme": "fault_aux", "semantics_version": "1.1.0" }, "geometry": { "type": "Point", "coordinates": [ 74.728546636867136, 39.041605226517611 ] } },
{ "type": "Feature", "properties": { "ID": 68, "FEATUREID": "OFBB099C1AJ430010020001943", "CHFCAC": "001943", "CHFCEC": "断层辅助点", "CHFCED": "", "point_type": 1, "symbol_no": 1894, "height": 2.25, "width": 1.5, "spacing": null, "angle": 62.611900329589837, "_src_file": "LDZOFBB099.WT", "_src_id": 1942, "sub_no_raw": 1894.0, "angle_raw": 62.611900329589844, "kind": "symbol", "sub_no": 1894.0, "fault_id": "F023", "dip": 70.0, "seg_idx": 47.0, "dist_m": 227.1, "arc_s": 21447.0, "side": 1.0, "dperp_m": 232.1, "method": "chain_nearest", "in_band": null, "n_chains_band": 1.0, "dip_az": 297.4, "dist_band_ok": null, "status_note": null, "reattrib_basis": null, "status": "normal", "_theme": "fault_aux", "semantics_version": "1.1.0" }, "geometry": { "type": "Point", "coordinates": [ 73.914522842408843, 39.865313611835958 ] } },
{ "type": "Feature", "properties": { "ID": 70, "FEATUREID": "OFBB099C1AJ430010020001944", "CHFCAC": "001944", "CHFCEC": "断层辅助点", "CHFCED": "", "point_type": 1, "symbol_no": 1894, "height": 2.25, "width": 1.5, "spacing": null, "angle": 83.25238037109375, "_src_file": "LDZOFBB099.WT", "_src_id": 1943, "sub_no_raw": 1894.0, "angle_raw": 83.25238037109375, "kind": "symbol", "sub_no": 1894.0, "fault_id": "F023", "dip": 40.0, "seg_idx": 47.0, "dist_m": 278.1, "arc_s": 2590.0, "side": 1.0, "dperp_m": 285.2, "method": "chain_nearest", "in_band": null, "n_chains_band": 1.0, "dip_az": 276.7, "dist_band_ok": null, "status_note": null, "reattrib_basis": null, "status": "normal", "_theme": "fault_aux", "semantics_version": "1.1.0" }, "geometry": { "type": "Point", "coordinates": [ 73.868065075118736, 39.779162507336231 ] } },
{ "type": "Feature", "properties": { "ID": 72, "FEATUREID": "OFBB099C1AJ430010020001945", "CHFCAC": "001945", "CHFCEC": "断层辅助点", "CHFCED": "", "point_type": 1, "symbol_no": 1894, "height": 1.5, "width": 1.5, "spacing": null, "angle": 246.52017211914065, "_src_file": "LDZOFBB099.WT", "_src_id": 1944, "sub_no_raw": 1894.0, "angle_raw": 246.52017211914062, "kind": "symbol", "sub_no": 1894.0, "fault_id": "F023", "dip": null, "seg_idx": 47.0, "dist_m": 243.7, "arc_s": 6104.0, "side": 1.0, "dperp_m": 245.2, "method": "chain_nearest", "in_band": null, "n_chains_band": 1.0, "dip_az": 113.5, "dist_band_ok": null, "status_note": null, "reattrib_basis": null, "status": "normal", "_theme": "fault_aux", "semantics_version": "1.1.0" }, "geometry": { "type": "Point", "coordinates": [ 73.876113430027999, 39.779196808377705 ] } },
{ "type": "Feature", "properties": { "ID": 73, "FEATUREID": "OFBB099C1AJ430010020001946", "CHFCAC": "001946", "CHFCEC": "断层辅助点", "CHFCED": "", "point_type": 1, "symbol_no": 1894, "height": 1.5, "width": 1.5, "spacing": null, "angle": 89.156600952148438, "_src_file": "LDZOFBB099.WT", "_src_id": 1945, "sub_no_raw": 1894.0, "angle_raw": 89.156600952148438, "kind": "symbol", "sub_no": 1894.0, "fault_id": "F023", "dip": null, "seg_idx": 47.0, "dist_m": 193.5, "arc_s": 8987.0, "side": 1.0, "dperp_m": 194.6, "method": "chain_nearest", "in_band": null, "n_chains_band": 1.0, "dip_az": 270.8, "dist_band_ok": null, "status_note": null, "reattrib_basis": null, "status": "normal", "_theme": "fault_aux", "semantics_version": "1.1.0" }, "geometry": { "type": "Point", "coordinates": [ 73.876775041574774, 39.767241768347752 ] } },
{ "type": "Feature", "properties": { "ID": 76, "FEATUREID": "OFBB099C1AJ430010020001947", "CHFCAC": "001947", "CHFCEC": "断层辅助点", "CHFCED": "", "point_type": 1, "symbol_no": 1894, "height": 2.25, "width": 1.5, "spacing": null, "angle": 57.377323150634766, "_src_file": "LDZOFBB099.WT", "_src_id": 1946, "sub_no_raw": 1894.0, "angle_raw": 57.377323150634766, "kind": "symbol", "sub_no": 1894.0, "fault_id": "F038", "dip": 57.0, "seg_idx": 88.0, "dist_m": 283.4, "arc_s": 16496.0, "side": -1.0, "dperp_m": 293.0, "method": "chain_nearest", "in_band": null, "n_chains_band": 2.0, "dip_az": 302.6, "dist_band_ok": null, "status_note": null, "reattrib_basis": null, "status": "normal", "_theme": "fault_aux", "semantics_version": "1.1.0" }, "geometry": { "type": "Point", "coordinates": [ 73.936383515314446, 39.751312765976401 ] } },
{ "type": "Feature", "properties": { "ID": 77, "FEATUREID": "OFBB099C1AJ430010020001948", "CHFCAC": "001948", "CHFCEC": "断层辅助点", "CHFCED": "", "point_type": 1, "symbol_no": 1894, "height": 2.25, "width": 1.5, "spacing": null, "angle": 88.900833129882812, "_src_file": "LDZOFBB099.WT", "_src_id": 1947, "sub_no_raw": 1894.0, "angle_raw": 88.900833129882812, "kind": "symbol", "sub_no": 1894.0, "fault_id": "F104", "dip": 69.0, "seg_idx": 61.0, "dist_m": 220.9, "arc_s": 2643.0, "side": 1.0, "dperp_m": 220.9, "method": "chain_nearest", "in_band": null, "n_chains_band": 1.0, "dip_az": 271.1, "dist_band_ok": null, "status_note": null, "reattrib_basis": null, "status": "normal", "_theme": "fault_aux", "semantics_version": "1.1.0" }, "geometry": { "type": "Point", "coordinates": [ 73.957210084611816, 39.856926724756441 ] } },
{ "type": "Feature", "properties": { "ID": 79, "FEATUREID": "OFBB099C1AJ430010020001949", "CHFCAC": "001949", "CHFCEC": "断层辅助点", "CHFCED": "", "point_type": 1, "symbol_no": 1894, "height": 2.25, "width": 1.5, "spacing": null, "angle": 69.610183715820312, "_src_file": "LDZOFBB099.WT", "_src_id": 1948, "sub_no_raw": 1894.0, "angle_raw": 69.610183715820312, "kind": "symbol", "sub_no": 1894.0, "fault_id": "F038", "dip": 80.0, "seg_idx": 43.0, "dist_m": 244.2, "arc_s": 7549.0, "side": -1.0, "dperp_m": 246.3, "method": "chain_nearest", "in_band": null, "n_chains_band": 1.0, "dip_az": 290.4, "dist_band_ok": null, "status_note": null, "reattrib_basis": null, "status": "normal", "_theme": "fault_aux", "semantics_version": "1.1.0" }, "geometry": { "type": "Point", "coordinates": [ 73.970175516608066, 39.850100798556269 ] } },
{ "type": "Feature", "properties": { "ID": 81, "FEATUREID": "OFBB099C1AJ430010020001950", "CHFCAC": "001950", "CHFCEC": "断层辅助点", "CHFCED": "", "point_type": 1, "symbol_no": 1894, "height": 2.25, "width": 1.5, "spacing": null, "angle": 63.455818176269531, "_src_file": "LDZOFBB099.WT", "_src_id": 1949, "sub_no_raw": 1894.0, "angle_raw": 63.455818176269531, "kind": "symbol", "sub_no": 1894.0, "fault_id": "F065", "dip": 72.0, "seg_idx": 0.0, "dist_m": 240.8, "arc_s": 4138.0, "side": 1.0, "dperp_m": 248.9, "method": "chain_nearest", "in_band": null, "n_chains_band": 1.0, "dip_az": 296.5, "dist_band_ok": null, "status_note": null, "reattrib_basis": null, "status": "normal", "_theme": "fault_aux", "semantics_version": "1.1.0" }, "geometry": { "type": "Point", "coordinates": [ 73.930421986601019, 39.946065546731532 ] } },
{ "type": "Feature", "properties": { "ID": 82, "FEATUREID": "OFBB099C1AJ430010020001951", "CHFCAC": "001951", "CHFCEC": "断层辅助点", "CHFCED": "", "point_type": 1, "symbol_no": 1894, "height": 2.25, "width": 1.5, "spacing": null, "angle": 56.830059051513672, "_src_file": "LDZOFBB099.WT", "_src_id": 1950, "sub_no_raw": 1894.0, "angle_raw": 56.830059051513672, "kind": "symbol", "sub_no": 1894.0, "fault_id": "F061", "dip": 69.0, "seg_idx": 1.0, "dist_m": 309.9, "arc_s": 5703.0, "side": 1.0, "dperp_m": 214.2, "method": "median_pref", "in_band": null, "n_chains_band": 2.0, "dip_az": 303.2, "dist_band_ok": null, "status_note": null, "reattrib_basis": null, "status": "normal", "_theme": "fault_aux", "semantics_version": "1.1.0" }, "geometry": { "type": "Point", "coordinates": [ 73.946203830314332, 39.955635397616938 ] } },
{ "type": "Feature", "properties": { "ID": 133, "FEATUREID": "OFBB099C1AJ430010020001957", "CHFCAC": "001957", "CHFCEC": "断层辅助点", "CHFCED": "", "point_type": 1, "symbol_no": 1894, "height": 2.25, "width": 1.5, "spacing": null, "angle": 68.177764892578125, "_src_file": "LDZOFBB099.WT", "_src_id": 1956, "sub_no_raw": 1894.0, "angle_raw": 68.177764892578125, "kind": "symbol", "sub_no": 1894.0, "fault_id": "F058", "dip": 65.0, "seg_idx": 102.0, "dist_m": 221.6, "arc_s": 9356.0, "side": -1.0, "dperp_m": 225.9, "method": "chain_nearest", "in_band": null, "n_chains_band": 1.0, "dip_az": 291.8, "dist_band_ok": null, "status_note": null, "reattrib_basis": null, "status": "normal", "_theme": "fault_aux", "semantics_version": "1.1.0" }, "geometry": { "type": "Point", "coordinates": [ 73.990913436973628, 39.691119426077613 ] } },
{ "type": "Feature", "properties": { "ID": 122, "FEATUREID": "OFBB099C1AJ430010020001963", "CHFCAC": "001963", "CHFCEC": "断层辅助点", "CHFCED": "", "point_type": 1, "symbol_no": 1894, "height": 2.25, "width": 1.5, "spacing": null, "angle": 0.49797877669334412, "_src_file": "LDZOFBB099.WT", "_src_id": 1962, "sub_no_raw": 1894.0, "angle_raw": 0.49797877669334412, "kind": "symbol", "sub_no": 1894.0, "fault_id": "F126", "dip": 80.0, "seg_idx": 110.0, "dist_m": 287.3, "arc_s": 2064.0, "side": 1.0, "dperp_m": 287.4, "method": "chain_nearest", "in_band": null, "n_chains_band": 2.0, "dip_az": 359.5, "dist_band_ok": null, "status_note": null, "reattrib_basis": null, "status": "normal", "_theme": "fault_aux", "semantics_version": "1.1.0" }, "geometry": { "type": "Point", "coordinates": [ 73.989219654431821, 39.67196536310189 ] } }
]
}
