{
"type": "FeatureCollection",
"name": "fossil",
"crs": { "type": "name", "properties": { "name": "urn:ogc:def:crs:OGC:1.3:CRS84" } },
"xy_coordinate_resolution": 1e-15,
"features": [
{ "type": "Feature", "properties": { "ID": 820, "FEATUREID": "OFBB099C1AJ430010020001969", "CHFCAC": "001969", "CHFCEC": "化石", "CHFCED": "", "point_type": 1, "symbol_no": 1445, "height": 2.0001395, "width": 1.9886099, "spacing": null, "angle": 0.442940354347229, "_src_file": "LDZOFBB099.WT", "_src_id": 1968, "status": "normal", "sem_type": "动物化石", "verdict": "verified", "host_code": "→S↓3-4→t", "confidence": "0.8249", "conf_breakdown": { "S": 0.85, "I": 1.0, "F": 0.970470643043518, "C": 0.8249, "band": "consistent", "source_tier": "verified", "independence": "multi_root", "counterexample_open": false, "adjudicated": false, "evaluated": true, "fit_note": "res=0.44° tol=15.0°", "reasons": [ "checks=3类" ] }, "conf_band": "consistent", "_theme": "fossil", "semantics_version": "1.1.0" }, "geometry": { "type": "Point", "coordinates": [ 74.101695004946521, 39.836897434152498 ] } },
{ "type": "Feature", "properties": { "ID": 821, "FEATUREID": "OFBB099C1AJ430010020001970", "CHFCAC": "001970", "CHFCEC": "化石", "CHFCED": "", "point_type": 1, "symbol_no": 1445, "height": 2.0001395, "width": 1.9886099, "spacing": null, "angle": 0.44238409399986267, "_src_file": "LDZOFBB099.WT", "_src_id": 1969, "status": "normal", "sem_type": "动物化石", "verdict": "verified", "host_code": "→S↓3-4→t", "confidence": "0.8249", "conf_breakdown": { "S": 0.85, "I": 1.0, "F": 0.9705077270666759, "C": 0.8249, "band": "consistent", "source_tier": "verified", "independence": "multi_root", "counterexample_open": false, "adjudicated": false, "evaluated": true, "fit_note": "res=0.44° tol=15.0°", "reasons": [ "checks=3类" ] }, "conf_band": "consistent", "_theme": "fossil", "semantics_version": "1.1.0" }, "geometry": { "type": "Point", "coordinates": [ 74.102837127575484, 39.840123382562375 ] } },
{ "type": "Feature", "properties": { "ID": 822, "FEATUREID": "OFBB099C1AJ430010020001971", "CHFCAC": "001971", "CHFCEC": "化石", "CHFCED": "", "point_type": 1, "symbol_no": 1445, "height": 2.0001395, "width": 1.9886099, "spacing": null, "angle": 0.43167278170585632, "_src_file": "LDZOFBB099.WT", "_src_id": 1970, "status": "normal", "sem_type": "动物化石", "verdict": "verified", "host_code": "→S↓3-4→t", "confidence": "0.8255", "conf_breakdown": { "S": 0.85, "I": 1.0, "F": 0.9712218145529429, "C": 0.8255, "band": "consistent", "source_tier": "verified", "independence": "multi_root", "counterexample_open": false, "adjudicated": false, "evaluated": true, "fit_note": "res=0.43° tol=15.0°", "reasons": [ "checks=3类" ] }, "conf_band": "consistent", "_theme": "fossil", "semantics_version": "1.1.0" }, "geometry": { "type": "Point", "coordinates": [ 74.124662707474002, 39.865745818759699 ] } },
{ "type": "Feature", "properties": { "ID": 769, "FEATUREID": "OFBB099C1AJ430010020001972", "CHFCAC": "001972", "CHFCEC": "化石", "CHFCED": "", "point_type": 1, "symbol_no": 1445, "height": 2.0, "width": 2.0, "spacing": null, "angle": 0.026633556932210922, "_src_file": "LDZOFBB099.WT", "_src_id": 1971, "status": "normal", "sem_type": "动物化石", "verdict": "verified", "host_code": "→J↓1→k", "confidence": "0.8485", "conf_breakdown": { "S": 0.85, "I": 1.0, "F": 0.9982244295378526, "C": 0.8485, "band": "consistent", "source_tier": "verified", "independence": "multi_root", "counterexample_open": false, "adjudicated": false, "evaluated": true, "fit_note": "res=0.03° tol=15.0°", "reasons": [ "checks=3类" ] }, "conf_band": "consistent", "_theme": "fossil", "semantics_version": "1.1.0" }, "geometry": { "type": "Point", "coordinates": [ 74.944601886110888, 39.808428349594593 ] } },
{ "type": "Feature", "properties": { "ID": 770, "FEATUREID": "OFBB099C1AJ430010020001973", "CHFCAC": "001973", "CHFCEC": "化石", "CHFCED": "", "point_type": 1, "symbol_no": 1445, "height": 2.0, "width": 2.0, "spacing": null, "angle": 0.02612781710922718, "_src_file": "LDZOFBB099.WT", "_src_id": 1972, "status": "normal", "sem_type": "动物化石", "verdict": "verified", "host_code": "→J↓1→k", "confidence": "0.8485", "conf_breakdown": { "S": 0.85, "I": 1.0, "F": 0.9982581455260515, "C": 0.8485, "band": "consistent", "source_tier": "verified", "independence": "multi_root", "counterexample_open": false, "adjudicated": false, "evaluated": true, "fit_note": "res=0.03° tol=15.0°", "reasons": [ "checks=3类" ] }, "conf_band": "consistent", "_theme": "fossil", "semantics_version": "1.1.0" }, "geometry": { "type": "Point", "coordinates": [ 74.945623841054726, 39.804291645323744 ] } },
{ "type": "Feature", "properties": { "ID": 771, "FEATUREID": "OFBB099C1AJ430010020001974", "CHFCAC": "001974", "CHFCEC": "化石", "CHFCED": "", "point_type": 1, "symbol_no": 1445, "height": 2.0, "width": 2.0, "spacing": null, "angle": 0.027228858321905136, "_src_file": "LDZOFBB099.WT", "_src_id": 1973, "status": "normal", "sem_type": "动物化石", "verdict": "verified", "host_code": "→J↓1→k", "confidence": "0.8485", "conf_breakdown": { "S": 0.85, "I": 1.0, "F": 0.9981847427785396, "C": 0.8485, "band": "consistent", "source_tier": "verified", "independence": "multi_root", "counterexample_open": false, "adjudicated": false, "evaluated": true, "fit_note": "res=0.03° tol=15.0°", "reasons": [ "checks=3类" ] }, "conf_band": "consistent", "_theme": "fossil", "semantics_version": "1.1.0" }, "geometry": { "type": "Point", "coordinates": [ 74.943398227749626, 39.814503033148355 ] } },
{ "type": "Feature", "properties": { "ID": 772, "FEATUREID": "OFBB099C1AJ430010020001975", "CHFCAC": "001975", "CHFCEC": "化石", "CHFCED": "", "point_type": 1, "symbol_no": 1415, "height": 2.0, "width": 2.0, "spacing": null, "angle": 0.024426745250821114, "_src_file": "LDZOFBB099.WT", "_src_id": 1974, "status": "normal", "sem_type": "植物化石", "verdict": "verified", "host_code": "→J↓2→y", "confidence": "0.8486", "conf_breakdown": { "S": 0.85, "I": 1.0, "F": 0.998371550316612, "C": 0.8486, "band": "consistent", "source_tier": "verified", "independence": "multi_root", "counterexample_open": false, "adjudicated": false, "evaluated": true, "fit_note": "res=0.02° tol=15.0°", "reasons": [ "checks=3类" ] }, "conf_band": "consistent", "_theme": "fossil", "semantics_version": "1.1.0" }, "geometry": { "type": "Point", "coordinates": [ 74.949068136052304, 39.797820098556677 ] } },
{ "type": "Feature", "properties": { "ID": 836, "FEATUREID": "OFBB099C1AJ430010020001976", "CHFCAC": "001976", "CHFCEC": "化石", "CHFCED": "", "point_type": 1, "symbol_no": 1445, "height": 2.0, "width": 2.0, "spacing": null, "angle": 0.22882887721061707, "_src_file": "LDZOFBB099.WT", "_src_id": 1975, "status": "normal", "sem_type": "动物化石", "verdict": "verified", "host_code": "→EK", "confidence": "0.5", "conf_breakdown": { "S": 0.85, "I": 1.0, "F": 0.9847447415192921, "C": 0.5, "band": "suspect", "source_tier": "verified", "independence": "multi_root", "counterexample_open": true, "adjudicated": false, "evaluated": true, "fit_note": "res=0.23° tol=15.0°", "reasons": [ "checks=3类" ] }, "conf_band": "suspect", "_theme": "fossil", "semantics_version": "1.1.0" }, "geometry": { "type": "Point", "coordinates": [ 74.535229978664276, 39.848722086145202 ] } },
{ "type": "Feature", "properties": { "ID": 837, "FEATUREID": "OFBB099C1AJ430010020001977", "CHFCAC": "001977", "CHFCEC": "化石", "CHFCED": "", "point_type": 1, "symbol_no": 1445, "height": 2.0, "width": 2.0, "spacing": null, "angle": 0.18651250004768372, "_src_file": "LDZOFBB099.WT", "_src_id": 1976, "status": "normal", "sem_type": "动物化石", "verdict": "verified", "host_code": "→EK", "confidence": "0.5", "conf_breakdown": { "S": 0.85, "I": 1.0, "F": 0.9875658333301545, "C": 0.5, "band": "suspect", "source_tier": "verified", "independence": "multi_root", "counterexample_open": true, "adjudicated": false, "evaluated": true, "fit_note": "res=0.19° tol=15.0°", "reasons": [ "checks=3类" ] }, "conf_band": "suspect", "_theme": "fossil", "semantics_version": "1.1.0" }, "geometry": { "type": "Point", "coordinates": [ 74.620723082104547, 39.771008463230601 ] } },
{ "type": "Feature", "properties": { "ID": 400, "FEATUREID": "OFBB099C1AJ430010020001978", "CHFCAC": "001978", "CHFCEC": "化石", "CHFCED": "", "point_type": 1, "symbol_no": 1445, "height": 2.0, "width": 2.0, "spacing": null, "angle": 356.76626586914062, "_src_file": "LDZOFBB099.WT", "_src_id": 1977, "status": "normal", "sem_type": "动物化石", "verdict": "verified", "host_code": "→EK", "confidence": "0.6668", "conf_breakdown": { "S": 0.85, "I": 1.0, "F": 0.784417724609375, "C": 0.6668, "band": "consistent", "source_tier": "verified", "independence": "multi_root", "counterexample_open": false, "adjudicated": false, "evaluated": true, "fit_note": "res=3.23° tol=15.0°", "reasons": [ "checks=3类" ] }, "conf_band": "consistent", "_theme": "fossil", "semantics_version": "1.1.0" }, "geometry": { "type": "Point", "coordinates": [ 74.304053442031062, 39.652862746768363 ] } },
{ "type": "Feature", "properties": { "ID": 402, "FEATUREID": "OFBB099C1AJ430010020001979", "CHFCAC": "001979", "CHFCEC": "化石", "CHFCED": "", "point_type": 1, "symbol_no": 1445, "height": 2.0, "width": 2.0, "spacing": null, "angle": 357.33401489257812, "_src_file": "LDZOFBB099.WT", "_src_id": 1978, "status": "normal", "sem_type": "动物化石", "verdict": "verified", "host_code": "→EK", "confidence": "0.6989", "conf_breakdown": { "S": 0.85, "I": 1.0, "F": 0.8222676595052083, "C": 0.6989, "band": "consistent", "source_tier": "verified", "independence": "multi_root", "counterexample_open": false, "adjudicated": false, "evaluated": true, "fit_note": "res=2.67° tol=15.0°", "reasons": [ "checks=3类" ] }, "conf_band": "consistent", "_theme": "fossil", "semantics_version": "1.1.0" }, "geometry": { "type": "Point", "coordinates": [ 74.295463474316591, 39.639313691496348 ] } },
{ "type": "Feature", "properties": { "ID": 401, "FEATUREID": "OFBB099C1AJ430010020001980", "CHFCAC": "001980", "CHFCEC": "化石", "CHFCED": "", "point_type": 1, "symbol_no": 1445, "height": 2.0, "width": 2.0, "spacing": null, "angle": 0.48648923635482788, "_src_file": "LDZOFBB099.WT", "_src_id": 1979, "status": "normal", "sem_type": "动物化石", "verdict": "verified", "host_code": "→EK", "confidence": "0.5", "conf_breakdown": { "S": 0.85, "I": 1.0, "F": 0.9675673842430115, "C": 0.5, "band": "suspect", "source_tier": "verified", "independence": "multi_root", "counterexample_open": true, "adjudicated": false, "evaluated": true, "fit_note": "res=0.49° tol=15.0°", "reasons": [ "checks=3类" ] }, "conf_band": "suspect", "_theme": "fossil", "semantics_version": "1.1.0" }, "geometry": { "type": "Point", "coordinates": [ 74.011061723396878, 39.449885010059553 ] } },
{ "type": "Feature", "properties": { "ID": 127, "FEATUREID": "OFBB099C1AJ430010020001981", "CHFCAC": "001981", "CHFCEC": "化石", "CHFCED": "", "point_type": 1, "symbol_no": 1445, "height": 2.0, "width": 2.0, "spacing": null, "angle": 357.15188598632812, "_src_file": "LDZOFBB099.WT", "_src_id": 1980, "status": "normal", "sem_type": "动物化石", "verdict": "verified", "host_code": "→EK", "confidence": "0.6886", "conf_breakdown": { "S": 0.85, "I": 1.0, "F": 0.810125732421875, "C": 0.6886, "band": "consistent", "source_tier": "verified", "independence": "multi_root", "counterexample_open": false, "adjudicated": false, "evaluated": true, "fit_note": "res=2.85° tol=15.0°", "reasons": [ "checks=3类" ] }, "conf_band": "consistent", "_theme": "fossil", "semantics_version": "1.1.0" }, "geometry": { "type": "Point", "coordinates": [ 73.948312383101822, 39.72352097275742 ] } },
{ "type": "Feature", "properties": { "ID": 128, "FEATUREID": "OFBB099C1AJ430010020001982", "CHFCAC": "001982", "CHFCEC": "化石", "CHFCED": "", "point_type": 1, "symbol_no": 1445, "height": 2.0, "width": 2.0, "spacing": null, "angle": 357.1864013671875, "_src_file": "LDZOFBB099.WT", "_src_id": 1981, "status": "normal", "sem_type": "动物化石", "verdict": "verified", "host_code": "→D↓2→t", "confidence": "0.6906", "conf_breakdown": { "S": 0.85, "I": 1.0, "F": 0.8124267578125, "C": 0.6906, "band": "consistent", "source_tier": "verified", "independence": "multi_root", "counterexample_open": false, "adjudicated": false, "evaluated": true, "fit_note": "res=2.81° tol=15.0°", "reasons": [ "checks=3类" ] }, "conf_band": "consistent", "_theme": "fossil", "semantics_version": "1.1.0" }, "geometry": { "type": "Point", "coordinates": [ 73.878808112385457, 39.782205436854667 ] } },
{ "type": "Feature", "properties": { "ID": 128, "FEATUREID": "OFBB099C1AJ430010020001983", "CHFCAC": "001983", "CHFCEC": "化石", "CHFCED": "", "point_type": 1, "symbol_no": 1445, "height": 2.0, "width": 2.0, "spacing": null, "angle": 358.301513671875, "_src_file": "LDZOFBB099.WT", "_src_id": 1982, "status": "normal", "sem_type": "动物化石", "verdict": "verified", "host_code": "→EK", "confidence": "0.7538", "conf_breakdown": { "S": 0.85, "I": 1.0, "F": 0.886767578125, "C": 0.7538, "band": "consistent", "source_tier": "verified", "independence": "multi_root", "counterexample_open": false, "adjudicated": false, "evaluated": true, "fit_note": "res=1.70° tol=15.0°", "reasons": [ "checks=3类" ] }, "conf_band": "consistent", "_theme": "fossil", "semantics_version": "1.1.0" }, "geometry": { "type": "Point", "coordinates": [ 73.977249587813375, 39.742871150756002 ] } },
{ "type": "Feature", "properties": { "ID": 129, "FEATUREID": "OFBB099C1AJ430010020001984", "CHFCAC": "001984", "CHFCEC": "化石", "CHFCED": "", "point_type": 1, "symbol_no": 1445, "height": 2.0, "width": 2.0, "spacing": null, "angle": 2.1855635643005371, "_src_file": "LDZOFBB099.WT", "_src_id": 1983, "status": "normal", "sem_type": "动物化石", "verdict": "verified", "host_code": "→EK", "confidence": "0.7262", "conf_breakdown": { "S": 0.85, "I": 1.0, "F": 0.8542957623799642, "C": 0.7262, "band": "consistent", "source_tier": "verified", "independence": "multi_root", "counterexample_open": false, "adjudicated": false, "evaluated": true, "fit_note": "res=2.19° tol=15.0°", "reasons": [ "checks=3类" ] }, "conf_band": "consistent", "_theme": "fossil", "semantics_version": "1.1.0" }, "geometry": { "type": "Point", "coordinates": [ 73.983787455074449, 39.740714737281927 ] } },
{ "type": "Feature", "properties": { "ID": 130, "FEATUREID": "OFBB099C1AJ430010020001985", "CHFCAC": "001985", "CHFCEC": "化石", "CHFCED": "", "point_type": 1, "symbol_no": 1445, "height": 2.0, "width": 2.0, "spacing": null, "angle": 357.93121337890625, "_src_file": "LDZOFBB099.WT", "_src_id": 1984, "status": "normal", "sem_type": "动物化石", "verdict": "verified", "host_code": "→D↓2→t", "confidence": "0.5", "conf_breakdown": { "S": 0.85, "I": 1.0, "F": 0.8620808919270834, "C": 0.5, "band": "suspect", "source_tier": "verified", "independence": "multi_root", "counterexample_open": true, "adjudicated": false, "evaluated": true, "fit_note": "res=2.07° tol=15.0°", "reasons": [ "checks=3类" ] }, "conf_band": "suspect", "_theme": "fossil", "semantics_version": "1.1.0" }, "geometry": { "type": "Point", "coordinates": [ 73.917195013295043, 39.875833925195714 ] } },
{ "type": "Feature", "properties": { "ID": 772, "FEATUREID": "OFBB099C1AJ430010020001986", "CHFCAC": "001986", "CHFCEC": "化石", "CHFCED": "", "point_type": 1, "symbol_no": 1415, "height": 2.0, "width": 2.0, "spacing": null, "angle": 0.056520521640777588, "_src_file": "LDZOFBB099.WT", "_src_id": 1985, "status": "normal", "sem_type": "植物化石", "verdict": "verified", "host_code": "→J↓1→k", "confidence": "0.8468", "conf_breakdown": { "S": 0.85, "I": 1.0, "F": 0.9962319652239482, "C": 0.8468, "band": "consistent", "source_tier": "verified", "independence": "multi_root", "counterexample_open": false, "adjudicated": false, "evaluated": true, "fit_note": "res=0.06° tol=15.0°", "reasons": [ "checks=3类" ] }, "conf_band": "consistent", "_theme": "fossil", "semantics_version": "1.1.0" }, "geometry": { "type": "Point", "coordinates": [ 74.884149868025119, 39.920460191126821 ] } },
{ "type": "Feature", "properties": { "ID": 772, "FEATUREID": "OFBB099C1AJ430010020001987", "CHFCAC": "001987", "CHFCEC": "化石", "CHFCED": "", "point_type": 1, "symbol_no": 1415, "height": 2.0, "width": 2.0, "spacing": null, "angle": 0.012846576981246471, "_src_file": "LDZOFBB099.WT", "_src_id": 1986, "status": "normal", "sem_type": "植物化石", "verdict": "verified", "host_code": "→J↓1→sh", "confidence": "0.8493", "conf_breakdown": { "S": 0.85, "I": 1.0, "F": 0.9991435615345836, "C": 0.8493, "band": "consistent", "source_tier": "verified", "independence": "multi_root", "counterexample_open": false, "adjudicated": false, "evaluated": true, "fit_note": "res=0.01° tol=15.0°", "reasons": [ "checks=3类" ] }, "conf_band": "consistent", "_theme": "fossil", "semantics_version": "1.1.0" }, "geometry": { "type": "Point", "coordinates": [ 74.97253443165512, 39.883472607390104 ] } },
{ "type": "Feature", "properties": { "ID": 772, "FEATUREID": "OFBB099C1AJ430010020001988", "CHFCAC": "001988", "CHFCEC": "化石", "CHFCED": "", "point_type": 1, "symbol_no": 1415, "height": 2.0, "width": 2.0, "spacing": null, "angle": 0.0071209785528481007, "_src_file": "LDZOFBB099.WT", "_src_id": 1987, "status": "normal", "sem_type": "植物化石", "verdict": "verified", "host_code": "→J↓1→k", "confidence": "0.8496", "conf_breakdown": { "S": 0.85, "I": 1.0, "F": 0.9995252680964768, "C": 0.8496, "band": "consistent", "source_tier": "verified", "independence": "multi_root", "counterexample_open": false, "adjudicated": false, "evaluated": true, "fit_note": "res=0.01° tol=15.0°", "reasons": [ "checks=3类" ] }, "conf_band": "consistent", "_theme": "fossil", "semantics_version": "1.1.0" }, "geometry": { "type": "Point", "coordinates": [ 74.984123643190117, 39.896873044146417 ] } },
{ "type": "Feature", "properties": { "ID": 461, "FEATUREID": "OFBB099C1AJ430010020002010", "CHFCAC": "002010", "CHFCEC": "化石", "CHFCED": "", "point_type": 1, "symbol_no": 1415, "height": 3.0, "width": 3.0, "spacing": null, "angle": 0.018290368840098381, "_src_file": "LDZOFBB099.WT", "_src_id": 2009, "status": "normal", "sem_type": "植物化石", "verdict": "违反（待裁定）", "host_code": "→γπT↓3", "confidence": "0.0", "conf_breakdown": { "S": 0.85, "I": 0.6, "F": 0.0, "C": 0.0, "band": "conflict", "source_tier": "verified", "independence": "single", "counterexample_open": false, "adjudicated": false, "evaluated": true, "fit_note": "", "reasons": [ "违反", "植物化石" ] }, "conf_band": "conflict", "_theme": "fossil", "semantics_version": "1.1.0" }, "geometry": { "type": "Point", "coordinates": [ 74.96137978019577, 39.282490787377036 ] } },
{ "type": "Feature", "properties": { "ID": 462, "FEATUREID": "OFBB099C1AJ430010020002011", "CHFCAC": "002011", "CHFCEC": "化石", "CHFCED": "", "point_type": 1, "symbol_no": 1415, "height": 3.0, "width": 3.0, "spacing": null, "angle": 0.0076884087175130844, "_src_file": "LDZOFBB099.WT", "_src_id": 2010, "status": "normal", "sem_type": "植物化石", "verdict": "verified", "host_code": "→P↓2→q", "confidence": "0.8496", "conf_breakdown": { "S": 0.85, "I": 1.0, "F": 0.9994874394188324, "C": 0.8496, "band": "consistent", "source_tier": "verified", "independence": "multi_root", "counterexample_open": false, "adjudicated": false, "evaluated": true, "fit_note": "res=0.01° tol=15.0°", "reasons": [ "checks=3类" ] }, "conf_band": "consistent", "_theme": "fossil", "semantics_version": "1.1.0" }, "geometry": { "type": "Point", "coordinates": [ 74.982923994519524, 39.269653614200244 ] } },
{ "type": "Feature", "properties": { "ID": 463, "FEATUREID": "OFBB099C1AJ430010020002012", "CHFCAC": "002012", "CHFCEC": "化石", "CHFCED": "", "point_type": 1, "symbol_no": 1415, "height": 3.0, "width": 3.0, "spacing": null, "angle": 0.012052605859935284, "_src_file": "LDZOFBB099.WT", "_src_id": 2011, "status": "normal", "sem_type": "植物化石", "verdict": "verified", "host_code": "→P↓2→q", "confidence": "0.8493", "conf_breakdown": { "S": 0.85, "I": 1.0, "F": 0.999196492942671, "C": 0.8493, "band": "consistent", "source_tier": "verified", "independence": "multi_root", "counterexample_open": false, "adjudicated": false, "evaluated": true, "fit_note": "res=0.01° tol=15.0°", "reasons": [ "checks=3类" ] }, "conf_band": "consistent", "_theme": "fossil", "semantics_version": "1.1.0" }, "geometry": { "type": "Point", "coordinates": [ 74.974053585532573, 39.261226977002423 ] } },
{ "type": "Feature", "properties": { "ID": 822, "FEATUREID": "OFBB099C1AJ430010020002013", "CHFCAC": "002013", "CHFCEC": "化石", "CHFCED": "", "point_type": 1, "symbol_no": 1445, "height": 2.0001395, "width": 1.9886099, "spacing": null, "angle": 0.32239922881126404, "_src_file": "LDZOFBB099.WT", "_src_id": 2012, "status": "normal", "sem_type": "动物化石", "verdict": "verified", "host_code": "→EK", "confidence": "0.8317", "conf_breakdown": { "S": 0.85, "I": 1.0, "F": 0.978506718079249, "C": 0.8317, "band": "consistent", "source_tier": "verified", "independence": "multi_root", "counterexample_open": false, "adjudicated": false, "evaluated": true, "fit_note": "res=0.32° tol=15.0°", "reasons": [ "checks=3类" ] }, "conf_band": "consistent", "_theme": "fossil", "semantics_version": "1.1.0" }, "geometry": { "type": "Point", "coordinates": [ 74.345896744480498, 39.875199042559473 ] } },
{ "type": "Feature", "properties": { "ID": 822, "FEATUREID": "OFBB099C1AJ430010020002014", "CHFCAC": "002014", "CHFCEC": "化石", "CHFCED": "", "point_type": 1, "symbol_no": 1445, "height": 2.0001395, "width": 1.9886099, "spacing": null, "angle": 0.30595842003822327, "_src_file": "LDZOFBB099.WT", "_src_id": 2013, "status": "normal", "sem_type": "动物化石", "verdict": "verified", "host_code": "→K↓2→Y", "confidence": "0.8327", "conf_breakdown": { "S": 0.85, "I": 1.0, "F": 0.9796027719974518, "C": 0.8327, "band": "consistent", "source_tier": "verified", "independence": "multi_root", "counterexample_open": false, "adjudicated": false, "evaluated": true, "fit_note": "res=0.31° tol=15.0°", "reasons": [ "checks=3类" ] }, "conf_band": "consistent", "_theme": "fossil", "semantics_version": "1.1.0" }, "geometry": { "type": "Point", "coordinates": [ 74.379151655936184, 39.869252619928751 ] } },
{ "type": "Feature", "properties": { "ID": 822, "FEATUREID": "OFBB099C1AJ430010020002015", "CHFCAC": "002015", "CHFCEC": "化石", "CHFCED": "", "point_type": 1, "symbol_no": 1445, "height": 2.00014, "width": 1.98861, "spacing": null, "angle": 0.48928341269493103, "_src_file": "LDZOFBB099.WT", "_src_id": 2014, "status": "normal", "sem_type": "动物化石", "verdict": "verified", "host_code": "→K↓2→Y", "confidence": "0.8223", "conf_breakdown": { "S": 0.85, "I": 1.0, "F": 0.967381105820338, "C": 0.8223, "band": "consistent", "source_tier": "verified", "independence": "multi_root", "counterexample_open": false, "adjudicated": false, "evaluated": true, "fit_note": "res=0.49° tol=15.0°", "reasons": [ "checks=3类" ] }, "conf_band": "consistent", "_theme": "fossil", "semantics_version": "1.1.0" }, "geometry": { "type": "Point", "coordinates": [ 74.00742621041617, 39.764588371055815 ] } },
{ "type": "Feature", "properties": { "ID": 822, "FEATUREID": "OFBB099C1AJ430010020002016", "CHFCAC": "002016", "CHFCEC": "化石", "CHFCED": "", "point_type": 1, "symbol_no": 1445, "height": 2.0001395, "width": 1.9886099, "spacing": null, "angle": 0.014577982947230339, "_src_file": "LDZOFBB099.WT", "_src_id": 2015, "status": "normal", "sem_type": "动物化石", "verdict": "verified", "host_code": "→EK", "confidence": "0.8492", "conf_breakdown": { "S": 0.85, "I": 1.0, "F": 0.9990281344701847, "C": 0.8492, "band": "consistent", "source_tier": "verified", "independence": "multi_root", "counterexample_open": false, "adjudicated": false, "evaluated": true, "fit_note": "res=0.01° tol=15.0°", "reasons": [ "checks=3类" ] }, "conf_band": "consistent", "_theme": "fossil", "semantics_version": "1.1.0" }, "geometry": { "type": "Point", "coordinates": [ 74.969007454282647, 39.748693389975443 ] } }
]
}
