{
"type": "FeatureCollection",
"name": "mudvolcano",
"crs": { "type": "name", "properties": { "name": "urn:ogc:def:crs:OGC:1.3:CRS84" } },
"xy_coordinate_resolution": 1e-15,
"features": [
{ "type": "Feature", "properties": { "ID": 1, "FEATUREID": "OFBB099C1AJ430010020001989", "CHFCAC": "001989", "CHFCEC": "泥火山", "CHFCED": "", "point_type": 1, "symbol_no": 1304, "height": 2.0, "width": 2.0, "spacing": null, "angle": 0.30322039127349854, "_src_file": "LDZOFBB099.WT", "_src_id": 1988, "status": "normal", "sem_type": "泥火山", "verdict": "verified", "host_code": "→Qh↑vl→-Qh↑ch", "confidence": "0.8328", "conf_breakdown": { "S": 0.85, "I": 1.0, "F": 0.9797853072484334, "C": 0.8328, "band": "consistent", "source_tier": "verified", "independence": "multi_root", "counterexample_open": false, "adjudicated": false, "evaluated": true, "fit_note": "res=0.30° tol=15.0°", "reasons": [ "checks=3类" ] }, "conf_band": "consistent", "_theme": "mudvolcano", "semantics_version": "1.1.0" }, "geometry": { "type": "Point", "coordinates": [ 74.381563491639312, 39.104581986361083 ] } },
{ "type": "Feature", "properties": { "ID": 2, "FEATUREID": "OFBB099C1AJ430010020001990", "CHFCAC": "001990", "CHFCEC": "泥火山", "CHFCED": "", "point_type": 1, "symbol_no": 1304, "height": 2.0, "width": 2.0, "spacing": null, "angle": 0.2995334267616272, "_src_file": "LDZOFBB099.WT", "_src_id": 1989, "status": "normal", "sem_type": "泥火山", "verdict": "verified", "host_code": "→Qh↑vl→-Qh↑ch", "confidence": "0.833", "conf_breakdown": { "S": 0.85, "I": 1.0, "F": 0.9800311048825582, "C": 0.833, "band": "consistent", "source_tier": "verified", "independence": "multi_root", "counterexample_open": false, "adjudicated": false, "evaluated": true, "fit_note": "res=0.30° tol=15.0°", "reasons": [ "checks=3类" ] }, "conf_band": "consistent", "_theme": "mudvolcano", "semantics_version": "1.1.0" }, "geometry": { "type": "Point", "coordinates": [ 74.389048231572986, 39.100207840935333 ] } },
{ "type": "Feature", "properties": { "ID": 3, "FEATUREID": "OFBB099C1AJ430010020001991", "CHFCAC": "001991", "CHFCEC": "泥火山", "CHFCED": "", "point_type": 1, "symbol_no": 1304, "height": 2.0, "width": 2.0, "spacing": null, "angle": 0.30732327699661255, "_src_file": "LDZOFBB099.WT", "_src_id": 1990, "status": "normal", "sem_type": "泥火山", "verdict": "verified", "host_code": "→Qh↑vl→-Qh↑ch", "confidence": "0.8326", "conf_breakdown": { "S": 0.85, "I": 1.0, "F": 0.9795117815335591, "C": 0.8326, "band": "consistent", "source_tier": "verified", "independence": "multi_root", "counterexample_open": false, "adjudicated": false, "evaluated": true, "fit_note": "res=0.31° tol=15.0°", "reasons": [ "checks=3类" ] }, "conf_band": "consistent", "_theme": "mudvolcano", "semantics_version": "1.1.0" }, "geometry": { "type": "Point", "coordinates": [ 74.37321981130232, 39.105546254177405 ] } },
{ "type": "Feature", "properties": { "ID": 4, "FEATUREID": "OFBB099C1AJ430010020001992", "CHFCAC": "001992", "CHFCEC": "泥火山", "CHFCED": "", "point_type": 1, "symbol_no": 1304, "height": 2.0, "width": 2.0, "spacing": null, "angle": 0.33011704683303833, "_src_file": "LDZOFBB099.WT", "_src_id": 1991, "status": "normal", "sem_type": "泥火山", "verdict": "verified", "host_code": "→Qh↑vl→-Qh↑ch", "confidence": "0.8313", "conf_breakdown": { "S": 0.85, "I": 1.0, "F": 0.9779921968777975, "C": 0.8313, "band": "consistent", "source_tier": "verified", "independence": "multi_root", "counterexample_open": false, "adjudicated": false, "evaluated": true, "fit_note": "res=0.33° tol=15.0°", "reasons": [ "checks=3类" ] }, "conf_band": "consistent", "_theme": "mudvolcano", "semantics_version": "1.1.0" }, "geometry": { "type": "Point", "coordinates": [ 74.326733613429667, 39.082633680311105 ] } },
{ "type": "Feature", "properties": { "ID": 5, "FEATUREID": "OFBB099C1AJ430010020001993", "CHFCAC": "001993", "CHFCEC": "泥火山", "CHFCED": "", "point_type": 1, "symbol_no": 1304, "height": 2.0, "width": 2.0, "spacing": null, "angle": 0.30469512939453125, "_src_file": "LDZOFBB099.WT", "_src_id": 1992, "status": "normal", "sem_type": "泥火山", "verdict": "verified", "host_code": "→Qh↑vl→-Qh↑ch", "confidence": "0.8327", "conf_breakdown": { "S": 0.85, "I": 1.0, "F": 0.979686991373698, "C": 0.8327, "band": "consistent", "source_tier": "verified", "independence": "multi_root", "counterexample_open": false, "adjudicated": false, "evaluated": true, "fit_note": "res=0.30° tol=15.0°", "reasons": [ "checks=3类" ] }, "conf_band": "consistent", "_theme": "mudvolcano", "semantics_version": "1.1.0" }, "geometry": { "type": "Point", "coordinates": [ 74.378412550869072, 39.070262176471928 ] } },
{ "type": "Feature", "properties": { "ID": 8, "FEATUREID": "OFBB099C1AJ430010020001994", "CHFCAC": "001994", "CHFCEC": "泥火山", "CHFCED": "", "point_type": 1, "symbol_no": 1304, "height": 2.0, "width": 2.0, "spacing": null, "angle": 0.3034091591835022, "_src_file": "LDZOFBB099.WT", "_src_id": 1993, "status": "normal", "sem_type": "泥火山", "verdict": "verified", "host_code": "→Qh↑vl→-Qh↑ch", "confidence": "0.8328", "conf_breakdown": { "S": 0.85, "I": 1.0, "F": 0.9797727227210998, "C": 0.8328, "band": "consistent", "source_tier": "verified", "independence": "multi_root", "counterexample_open": false, "adjudicated": false, "evaluated": true, "fit_note": "res=0.30° tol=15.0°", "reasons": [ "checks=3类" ] }, "conf_band": "consistent", "_theme": "mudvolcano", "semantics_version": "1.1.0" }, "geometry": { "type": "Point", "coordinates": [ 74.381013564627821, 39.067076102826164 ] } },
{ "type": "Feature", "properties": { "ID": 9, "FEATUREID": "OFBB099C1AJ430010020001995", "CHFCAC": "001995", "CHFCEC": "泥火山", "CHFCED": "", "point_type": 1, "symbol_no": 1304, "height": 2.0, "width": 2.0, "spacing": null, "angle": 0.30083930492401123, "_src_file": "LDZOFBB099.WT", "_src_id": 1994, "status": "normal", "sem_type": "泥火山", "verdict": "verified", "host_code": "→Qh↑vl→-Qh↑ch", "confidence": "0.833", "conf_breakdown": { "S": 0.85, "I": 1.0, "F": 0.9799440463383993, "C": 0.833, "band": "consistent", "source_tier": "verified", "independence": "multi_root", "counterexample_open": false, "adjudicated": false, "evaluated": true, "fit_note": "res=0.30° tol=15.0°", "reasons": [ "checks=3类" ] }, "conf_band": "consistent", "_theme": "mudvolcano", "semantics_version": "1.1.0" }, "geometry": { "type": "Point", "coordinates": [ 74.386241940235195, 39.066433521764033 ] } },
{ "type": "Feature", "properties": { "ID": 10, "FEATUREID": "OFBB099C1AJ430010020001996", "CHFCAC": "001996", "CHFCEC": "泥火山", "CHFCED": "", "point_type": 1, "symbol_no": 1304, "height": 2.0, "width": 2.0, "spacing": null, "angle": 0.29790741205215454, "_src_file": "LDZOFBB099.WT", "_src_id": 1995, "status": "normal", "sem_type": "泥火山", "verdict": "verified", "host_code": "→Qh↑vl→-Qh↑ch", "confidence": "0.8331", "conf_breakdown": { "S": 0.85, "I": 1.0, "F": 0.9801395058631897, "C": 0.8331, "band": "consistent", "source_tier": "verified", "independence": "multi_root", "counterexample_open": false, "adjudicated": false, "evaluated": true, "fit_note": "res=0.30° tol=15.0°", "reasons": [ "checks=3类" ] }, "conf_band": "consistent", "_theme": "mudvolcano", "semantics_version": "1.1.0" }, "geometry": { "type": "Point", "coordinates": [ 74.392191775764573, 39.0624653980638 ] } },
{ "type": "Feature", "properties": { "ID": 17, "FEATUREID": "OFBB099C1AJ430010020001997", "CHFCAC": "001997", "CHFCEC": "泥火山", "CHFCED": "", "point_type": 1, "symbol_no": 1304, "height": 2.0, "width": 2.0, "spacing": null, "angle": 0.29462966322898865, "_src_file": "LDZOFBB099.WT", "_src_id": 1996, "status": "normal", "sem_type": "泥火山", "verdict": "verified", "host_code": "→Qp↓2↑l", "confidence": "0.8333", "conf_breakdown": { "S": 0.85, "I": 1.0, "F": 0.9803580224514008, "C": 0.8333, "band": "consistent", "source_tier": "verified", "independence": "multi_root", "counterexample_open": false, "adjudicated": false, "evaluated": true, "fit_note": "res=0.29° tol=15.0°", "reasons": [ "checks=3类" ] }, "conf_band": "consistent", "_theme": "mudvolcano", "semantics_version": "1.1.0" }, "geometry": { "type": "Point", "coordinates": [ 74.398842887553513, 39.057581822470823 ] } },
{ "type": "Feature", "properties": { "ID": 22, "FEATUREID": "OFBB099C1AJ430010020001998", "CHFCAC": "001998", "CHFCEC": "泥火山", "CHFCED": "", "point_type": 1, "symbol_no": 1304, "height": 2.0, "width": 2.0, "spacing": null, "angle": 0.29236266016960144, "_src_file": "LDZOFBB099.WT", "_src_id": 1997, "status": "normal", "sem_type": "泥火山", "verdict": "verified", "host_code": "→Qh↑fl", "confidence": "0.8334", "conf_breakdown": { "S": 0.85, "I": 1.0, "F": 0.9805091559886933, "C": 0.8334, "band": "consistent", "source_tier": "verified", "independence": "multi_root", "counterexample_open": false, "adjudicated": false, "evaluated": true, "fit_note": "res=0.29° tol=15.0°", "reasons": [ "checks=3类" ] }, "conf_band": "consistent", "_theme": "mudvolcano", "semantics_version": "1.1.0" }, "geometry": { "type": "Point", "coordinates": [ 74.403449644846901, 39.056308418083468 ] } },
{ "type": "Feature", "properties": { "ID": 23, "FEATUREID": "OFBB099C1AJ430010020001999", "CHFCAC": "001999", "CHFCEC": "泥火山", "CHFCED": "", "point_type": 1, "symbol_no": 1304, "height": 2.0, "width": 2.0, "spacing": null, "angle": 0.2572198212146759, "_src_file": "LDZOFBB099.WT", "_src_id": 1998, "status": "normal", "sem_type": "泥火山", "verdict": "verified", "host_code": "→Qh↑vl→-Qh↑ch", "confidence": "0.8354", "conf_breakdown": { "S": 0.85, "I": 1.0, "F": 0.9828520119190216, "C": 0.8354, "band": "consistent", "source_tier": "verified", "independence": "multi_root", "counterexample_open": false, "adjudicated": false, "evaluated": true, "fit_note": "res=0.26° tol=15.0°", "reasons": [ "checks=3类" ] }, "conf_band": "consistent", "_theme": "mudvolcano", "semantics_version": "1.1.0" }, "geometry": { "type": "Point", "coordinates": [ 74.474990910659713, 39.058742080709777 ] } },
{ "type": "Feature", "properties": { "ID": 25, "FEATUREID": "OFBB099C1AJ430010020002000", "CHFCAC": "002000", "CHFCEC": "泥火山", "CHFCED": "", "point_type": 1, "symbol_no": 1304, "height": 2.0, "width": 2.0, "spacing": null, "angle": 0.25691089034080505, "_src_file": "LDZOFBB099.WT", "_src_id": 1999, "status": "normal", "sem_type": "泥火山", "verdict": "verified", "host_code": "→Qh↑vl→-Qh↑ch", "confidence": "0.8354", "conf_breakdown": { "S": 0.85, "I": 1.0, "F": 0.982872607310613, "C": 0.8354, "band": "consistent", "source_tier": "verified", "independence": "multi_root", "counterexample_open": false, "adjudicated": false, "evaluated": true, "fit_note": "res=0.26° tol=15.0°", "reasons": [ "checks=3类" ] }, "conf_band": "consistent", "_theme": "mudvolcano", "semantics_version": "1.1.0" }, "geometry": { "type": "Point", "coordinates": [ 74.475552942514341, 39.041016220499984 ] } },
{ "type": "Feature", "properties": { "ID": 27, "FEATUREID": "OFBB099C1AJ430010020002001", "CHFCAC": "002001", "CHFCEC": "泥火山", "CHFCED": "", "point_type": 1, "symbol_no": 1304, "height": 2.0, "width": 2.0, "spacing": null, "angle": 0.25451210141181946, "_src_file": "LDZOFBB099.WT", "_src_id": 2000, "status": "normal", "sem_type": "泥火山", "verdict": "verified", "host_code": "→Qh↑vl→-Qh↑ch", "confidence": "0.8356", "conf_breakdown": { "S": 0.85, "I": 1.0, "F": 0.9830325265725454, "C": 0.8356, "band": "consistent", "source_tier": "verified", "independence": "multi_root", "counterexample_open": false, "adjudicated": false, "evaluated": true, "fit_note": "res=0.25° tol=15.0°", "reasons": [ "checks=3类" ] }, "conf_band": "consistent", "_theme": "mudvolcano", "semantics_version": "1.1.0" }, "geometry": { "type": "Point", "coordinates": [ 74.480439671008085, 39.041985615431592 ] } },
{ "type": "Feature", "properties": { "ID": 28, "FEATUREID": "OFBB099C1AJ430010020002002", "CHFCAC": "002002", "CHFCEC": "泥火山", "CHFCED": "", "point_type": 1, "symbol_no": 1304, "height": 2.0, "width": 2.0, "spacing": null, "angle": 0.25262215733528137, "_src_file": "LDZOFBB099.WT", "_src_id": 2001, "status": "normal", "sem_type": "泥火山", "verdict": "verified", "host_code": "→Qh↑vl→-Qh↑ch", "confidence": "0.8357", "conf_breakdown": { "S": 0.85, "I": 1.0, "F": 0.9831585228443146, "C": 0.8357, "band": "consistent", "source_tier": "verified", "independence": "multi_root", "counterexample_open": false, "adjudicated": false, "evaluated": true, "fit_note": "res=0.25° tol=15.0°", "reasons": [ "checks=3类" ] }, "conf_band": "consistent", "_theme": "mudvolcano", "semantics_version": "1.1.0" }, "geometry": { "type": "Point", "coordinates": [ 74.484270984549156, 39.037688043816658 ] } },
{ "type": "Feature", "properties": { "ID": 31, "FEATUREID": "OFBB099C1AJ430010020002003", "CHFCAC": "002003", "CHFCEC": "泥火山", "CHFCED": "", "point_type": 1, "symbol_no": 1304, "height": 2.0, "width": 2.0, "spacing": null, "angle": 0.24883334338665009, "_src_file": "LDZOFBB099.WT", "_src_id": 2002, "status": "normal", "sem_type": "泥火山", "verdict": "verified", "host_code": "→Qh↑vl→-Qh↑ch", "confidence": "0.8359", "conf_breakdown": { "S": 0.85, "I": 1.0, "F": 0.98341111044089, "C": 0.8359, "band": "consistent", "source_tier": "verified", "independence": "multi_root", "counterexample_open": false, "adjudicated": false, "evaluated": true, "fit_note": "res=0.25° tol=15.0°", "reasons": [ "checks=3类" ] }, "conf_band": "consistent", "_theme": "mudvolcano", "semantics_version": "1.1.0" }, "geometry": { "type": "Point", "coordinates": [ 74.491980754023402, 39.036830133766458 ] } },
{ "type": "Feature", "properties": { "ID": 33, "FEATUREID": "OFBB099C1AJ430010020002004", "CHFCAC": "002004", "CHFCEC": "泥火山", "CHFCED": "", "point_type": 1, "symbol_no": 1304, "height": 2.0, "width": 2.0, "spacing": null, "angle": 0.25649890303611755, "_src_file": "LDZOFBB099.WT", "_src_id": 2003, "status": "normal", "sem_type": "泥火山", "verdict": "verified", "host_code": "→Qh↑vl→-Qh↑ch", "confidence": "0.8355", "conf_breakdown": { "S": 0.85, "I": 1.0, "F": 0.9829000731309255, "C": 0.8355, "band": "consistent", "source_tier": "verified", "independence": "multi_root", "counterexample_open": false, "adjudicated": false, "evaluated": true, "fit_note": "res=0.26° tol=15.0°", "reasons": [ "checks=3类" ] }, "conf_band": "consistent", "_theme": "mudvolcano", "semantics_version": "1.1.0" }, "geometry": { "type": "Point", "coordinates": [ 74.476401656192863, 39.044219432717533 ] } },
{ "type": "Feature", "properties": { "ID": 35, "FEATUREID": "OFBB099C1AJ430010020002005", "CHFCAC": "002005", "CHFCEC": "泥火山", "CHFCED": "", "point_type": 1, "symbol_no": 1304, "height": 2.0, "width": 2.0, "spacing": null, "angle": 0.25892257690429688, "_src_file": "LDZOFBB099.WT", "_src_id": 2004, "status": "normal", "sem_type": "泥火山", "verdict": "verified", "host_code": "→Qh↑vl→-Qh↑ch", "confidence": "0.8353", "conf_breakdown": { "S": 0.85, "I": 1.0, "F": 0.9827384948730469, "C": 0.8353, "band": "consistent", "source_tier": "verified", "independence": "multi_root", "counterexample_open": false, "adjudicated": false, "evaluated": true, "fit_note": "res=0.26° tol=15.0°", "reasons": [ "checks=3类" ] }, "conf_band": "consistent", "_theme": "mudvolcano", "semantics_version": "1.1.0" }, "geometry": { "type": "Point", "coordinates": [ 74.471489015924107, 39.049484644045179 ] } },
{ "type": "Feature", "properties": { "ID": 38, "FEATUREID": "OFBB099C1AJ430010020002006", "CHFCAC": "002006", "CHFCEC": "泥火山", "CHFCED": "", "point_type": 1, "symbol_no": 1304, "height": 2.0, "width": 2.0, "spacing": null, "angle": 0.25974366068840027, "_src_file": "LDZOFBB099.WT", "_src_id": 2005, "status": "normal", "sem_type": "泥火山", "verdict": "verified", "host_code": "→Qh↑vl→-Qh↑ch", "confidence": "0.8353", "conf_breakdown": { "S": 0.85, "I": 1.0, "F": 0.9826837559541066, "C": 0.8353, "band": "consistent", "source_tier": "verified", "independence": "multi_root", "counterexample_open": false, "adjudicated": false, "evaluated": true, "fit_note": "res=0.26° tol=15.0°", "reasons": [ "checks=3类" ] }, "conf_band": "consistent", "_theme": "mudvolcano", "semantics_version": "1.1.0" }, "geometry": { "type": "Point", "coordinates": [ 74.469833015153569, 39.053260248150764 ] } },
{ "type": "Feature", "properties": { "ID": 41, "FEATUREID": "OFBB099C1AJ430010020002007", "CHFCAC": "002007", "CHFCEC": "泥火山", "CHFCED": "", "point_type": 1, "symbol_no": 1304, "height": 2.0, "width": 2.0, "spacing": null, "angle": 0.26696538925170898, "_src_file": "LDZOFBB099.WT", "_src_id": 2006, "status": "normal", "sem_type": "泥火山", "verdict": "verified", "host_code": "→Qh↑vl→-Qh↑ch", "confidence": "0.8349", "conf_breakdown": { "S": 0.85, "I": 1.0, "F": 0.9822023073832195, "C": 0.8349, "band": "consistent", "source_tier": "verified", "independence": "multi_root", "counterexample_open": false, "adjudicated": false, "evaluated": true, "fit_note": "res=0.27° tol=15.0°", "reasons": [ "checks=3类" ] }, "conf_band": "consistent", "_theme": "mudvolcano", "semantics_version": "1.1.0" }, "geometry": { "type": "Point", "coordinates": [ 74.455203249773646, 39.071649039628142 ] } },
{ "type": "Feature", "properties": { "ID": 44, "FEATUREID": "OFBB099C1AJ430010020002008", "CHFCAC": "002008", "CHFCEC": "泥火山", "CHFCED": "", "point_type": 1, "symbol_no": 1304, "height": 2.0, "width": 2.0, "spacing": null, "angle": 0.24509017169475555, "_src_file": "LDZOFBB099.WT", "_src_id": 2007, "status": "normal", "sem_type": "泥火山", "verdict": "verified", "host_code": "→Qh↑vl→-Qh↑ch", "confidence": "0.8361", "conf_breakdown": { "S": 0.85, "I": 1.0, "F": 0.9836606552203496, "C": 0.8361, "band": "consistent", "source_tier": "verified", "independence": "multi_root", "counterexample_open": false, "adjudicated": false, "evaluated": true, "fit_note": "res=0.25° tol=15.0°", "reasons": [ "checks=3类" ] }, "conf_band": "consistent", "_theme": "mudvolcano", "semantics_version": "1.1.0" }, "geometry": { "type": "Point", "coordinates": [ 74.499471614655391, 39.001336957817323 ] } },
{ "type": "Feature", "properties": { "ID": 44, "FEATUREID": "OFBB099C1AJ430010020002009", "CHFCAC": "002009", "CHFCEC": "泥火山", "CHFCED": "", "point_type": 1, "symbol_no": 1304, "height": 2.0, "width": 2.0, "spacing": null, "angle": 0.23951798677444458, "_src_file": "LDZOFBB099.WT", "_src_id": 2008, "status": "normal", "sem_type": "泥火山", "verdict": "verified", "host_code": "→Qh↑vl→-Qh↑ch", "confidence": "0.8364", "conf_breakdown": { "S": 0.85, "I": 1.0, "F": 0.984032134215037, "C": 0.8364, "band": "consistent", "source_tier": "verified", "independence": "multi_root", "counterexample_open": false, "adjudicated": false, "evaluated": true, "fit_note": "res=0.24° tol=15.0°", "reasons": [ "checks=3类" ] }, "conf_band": "consistent", "_theme": "mudvolcano", "semantics_version": "1.1.0" }, "geometry": { "type": "Point", "coordinates": [ 74.510819775127899, 39.001552166314383 ] } }
]
}
