{"type": "FeatureCollection", "name": "FaultAttitudePointView", "features": [{"type": "Feature", "id": "https://geosciml4china.example.org/J43C001002/mappedfeature/fp.F065.1", "geometry": {"type": "Point", "coordinates": [73.93210217455965, 39.944243651212915]}, "properties": {"@featureType": "FaultAttitudePointView", "identifier": {"value": "https://geosciml4china.example.org/J43C001002/mappedfeature/fp.1949", "@codeSpace": "http://www.ietf.org/rfc/rfc2616"}, "observationName": "fault attitude measurement point", "label": "296.5°∠72°", "description": "倾向-倾角产状点（无运动指示）", "observedProperty": "planar orientation", "observedValue": "72", "observedValueUom": "deg", "propertyType_uri": "http://resource.geosciml.org/classifier/cgi/planarorientationtype/planar_orientation", "symbolRotation": 296, "genericSymbolizer": "fault_attitude_point", "featureOfInterest": "F065", "featureOfInterest_uri": "https://geosciml4china.example.org/J43C001002/fault/F065.1"}}, {"type": "Feature", "id": "https://geosciml4china.example.org/J43C001002/mappedfeature/fp.F061.1", "geometry": {"type": "Point", "coordinates": [73.94850174635135, 39.95336906485574]}, "properties": {"@featureType": "FaultAttitudePointView", "identifier": {"value": "https://geosciml4china.example.org/J43C001002/mappedfeature/fp.1950", "@codeSpace": "http://www.ietf.org/rfc/rfc2616"}, "observationName": "fault attitude measurement point", "label": "303.2°∠69°", "description": "倾向-倾角产状点（无运动指示）", "observedProperty": "planar orientation", "observedValue": "69", "observedValueUom": "deg", "propertyType_uri": "http://resource.geosciml.org/classifier/cgi/planarorientationtype/planar_orientation", "symbolRotation": 303, "genericSymbolizer": "fault_attitude_point", "featureOfInterest": "F061", "featureOfInterest_uri": "https://geosciml4china.example.org/J43C001002/fault/F061.1"}}, {"type": "Feature", "id": "https://geosciml4china.example.org/J43C001002/mappedfeature/fp.F044.1", "geometry": {"type": "Point", "coordinates": [74.02130110990808, 39.91999891625489]}, "properties": {"@featureType": "FaultAttitudePointView", "identifier": {"value": "https://geosciml4china.example.org/J43C001002/mappedfeature/fp.1715", "@codeSpace": "http://www.ietf.org/rfc/rfc2616"}, "observationName": "fault attitude measurement point", "label": "288.8°∠73°", "description": "a-b-a·逆断层产状点", "observedProperty": "planar orientation", "observedValue": "73", "observedValueUom": "deg", "propertyType_uri": "http://resource.geosciml.org/classifier/cgi/planarorientationtype/planar_orientation", "symbolRotation": 289, "genericSymbolizer": "fault_attitude_point", "featureOfInterest": "F044", "featureOfInterest_uri": "https://geosciml4china.example.org/J43C001002/fault/F044.1"}}, {"type": "Feature", "id": "https://geosciml4china.example.org/J43C001002/mappedfeature/fp.F044.2", "geometry": {"type": "Point", "coordinates": [74.04728504335638, 39.963367996860775]}, "properties": {"@featureType": "FaultAttitudePointView", "identifier": {"value": "https://geosciml4china.example.org/J43C001002/mappedfeature/fp.1756", "@codeSpace": "http://www.ietf.org/rfc/rfc2616"}, "observationName": "fault attitude measurement point", "label": "300.9°∠73°", "description": "a-b-a·逆断层产状点", "observedProperty": "planar orientation", "observedValue": "73", "observedValueUom": "deg", "propertyType_uri": "http://resource.geosciml.org/classifier/cgi/planarorientationtype/planar_orientation", "symbolRotation": 301, "genericSymbolizer": "fault_attitude_point", "featureOfInterest": "F044", "featureOfInterest_uri": "https://geosciml4china.example.org/J43C001002/fault/F044.1"}}, {"type": "Feature", "id": "https://geosciml4china.example.org/J43C001002/mappedfeature/fp.F028.1", "geometry": {"type": "Point", "coordinates": [74.09981911716353, 39.961560619656005]}, "properties": {"@featureType": "FaultAttitudePointView", "identifier": {"value": "https://geosciml4china.example.org/J43C001002/mappedfeature/fp.1720", "@codeSpace": "http://www.ietf.org/rfc/rfc2616"}, "observationName": "fault attitude measurement point", "label": "295.7°∠75°", "description": "a-b-a·逆断层产状点", "observedProperty": "planar orientation", "observedValue": "75", "observedValueUom": "deg", "propertyType_uri": "http://resource.geosciml.org/classifier/cgi/planarorientationtype/planar_orientation", "symbolRotation": 296, "genericSymbolizer": "fault_attitude_point", "featureOfInterest": "F028", "featureOfInterest_uri": "https://geosciml4china.example.org/J43C001002/fault/F028.1"}}, {"type": "Feature", "id": "https://geosciml4china.example.org/J43C001002/mappedfeature/fp.F052.1", "geometry": {"type": "Point", "coordinates": [74.24329341165847, 39.98155533867365]}, "properties": {"@featureType": "FaultAttitudePointView", "identifier": {"value": "https://geosciml4china.example.org/J43C001002/mappedfeature/fp.1743", "@codeSpace": "http://www.ietf.org/rfc/rfc2616"}, "observationName": "fault attitude measurement point", "label": "306.3°∠70°", "description": "a-b-a·逆断层产状点", "observedProperty": "planar orientation", "observedValue": "70", "observedValueUom": "deg", "propertyType_uri": "http://resource.geosciml.org/classifier/cgi/planarorientationtype/planar_orientation", "symbolRotation": 306, "genericSymbolizer": "fault_attitude_point", "featureOfInterest": "F052", "featureOfInterest_uri": "https://geosciml4china.example.org/J43C001002/fault/F052.1"}}, {"type": "Feature", "id": "https://geosciml4china.example.org/J43C001002/mappedfeature/fp.F071.1", "geometry": {"type": "Point", "coordinates": [74.23471152091284, 39.96298993062183]}, "properties": {"@featureType": "FaultAttitudePointView", "identifier": {"value": "https://geosciml4china.example.org/J43C001002/mappedfeature/fp.1718", "@codeSpace": "http://www.ietf.org/rfc/rfc2616"}, "observationName": "fault attitude measurement point", "label": "303.8°∠75°", "description": "a-b-a·逆断层产状点", "observedProperty": "planar orientation", "observedValue": "75", "observedValueUom": "deg", "propertyType_uri": "http://resource.geosciml.org/classifier/cgi/planarorientationtype/planar_orientation", "symbolRotation": 304, "genericSymbolizer": "fault_attitude_point", "featureOfInterest": "F071", "featureOfInterest_uri": "https://geosciml4china.example.org/J43C001002/fault/F071.1"}}, {"type": "Feature", "id": "https://geosciml4china.example.org/J43C001002/mappedfeature/fp.F094.1", "geometry": {"type": "Point", "coordinates": [74.5334133285121, 39.9940850687829]}, "properties": {"@featureType": "FaultAttitudePointView", "identifier": {"value": "https://geosciml4china.example.org/J43C001002/mappedfeature/fp.1765", "@codeSpace": "http://www.ietf.org/rfc/rfc2616"}, "observationName": "fault attitude measurement point", "label": "179°∠76°", "description": "a-b·逆断层产状点", "observedProperty": "planar orientation", "observedValue": "76", "observedValueUom": "deg", "propertyType_uri": "http://resource.geosciml.org/classifier/cgi/planarorientationtype/planar_orientation", "symbolRotation": 179, "genericSymbolizer": "fault_attitude_point", "featureOfInterest": "F094", "featureOfInterest_uri": "https://geosciml4china.example.org/J43C001002/fault/F094.1"}}, {"type": "Feature", "id": "https://geosciml4china.example.org/J43C001002/mappedfeature/fp.F053.1", "geometry": {"type": "Point", "coordinates": [74.86360638194839, 39.96161182689737]}, "properties": {"@featureType": "FaultAttitudePointView", "identifier": {"value": "https://geosciml4china.example.org/J43C001002/mappedfeature/fp.1763", "@codeSpace": "http://www.ietf.org/rfc/rfc2616"}, "observationName": "fault attitude measurement point", "label": "69.6°∠53°", "description": "倾向-倾角产状点（无运动指示）", "observedProperty": "planar orientation", "observedValue": "53", "observedValueUom": "deg", "propertyType_uri": "http://resource.geosciml.org/classifier/cgi/planarorientationtype/planar_orientation", "symbolRotation": 70, "genericSymbolizer": "fault_attitude_point", "featureOfInterest": "F053", "featureOfInterest_uri": "https://geosciml4china.example.org/J43C001002/fault/F053.1"}}, {"type": "Feature", "id": "https://geosciml4china.example.org/J43C001002/mappedfeature/fp.F017.2", "geometry": {"type": "Point", "coordinates": [74.56725718896891, 39.9655478976867]}, "properties": {"@featureType": "FaultAttitudePointView", "identifier": {"value": "https://geosciml4china.example.org/J43C001002/mappedfeature/fp.1767", "@codeSpace": "http://www.ietf.org/rfc/rfc2616"}, "observationName": "fault attitude measurement point", "label": "155.9°∠50°", "description": "a-b-a·逆断层产状点", "observedProperty": "planar orientation", "observedValue": "50", "observedValueUom": "deg", "propertyType_uri": "http://resource.geosciml.org/classifier/cgi/planarorientationtype/planar_orientation", "symbolRotation": 156, "genericSymbolizer": "fault_attitude_point", "featureOfInterest": "F017", "featureOfInterest_uri": "https://geosciml4china.example.org/J43C001002/fault/F017.2"}}, {"type": "Feature", "id": "https://geosciml4china.example.org/J43C001002/mappedfeature/fp.F017.3", "geometry": {"type": "Point", "coordinates": [74.5301410320269, 39.95061129002457]}, "properties": {"@featureType": "FaultAttitudePointView", "identifier": {"value": "https://geosciml4china.example.org/J43C001002/mappedfeature/fp.1769", "@codeSpace": "http://www.ietf.org/rfc/rfc2616"}, "observationName": "fault attitude measurement point", "label": "124.9°∠52°", "description": "倾向-倾角产状点（无运动指示）", "observedProperty": "planar orientation", "observedValue": "52", "observedValueUom": "deg", "propertyType_uri": "http://resource.geosciml.org/classifier/cgi/planarorientationtype/planar_orientation", "symbolRotation": 125, "genericSymbolizer": "fault_attitude_point", "featureOfInterest": "F017", "featureOfInterest_uri": "https://geosciml4china.example.org/J43C001002/fault/F017.2"}}, {"type": "Feature", "id": "https://geosciml4china.example.org/J43C001002/mappedfeature/fp.F017.1", "geometry": {"type": "Point", "coordinates": [74.64541689222543, 39.98122023439809]}, "properties": {"@featureType": "FaultAttitudePointView", "identifier": {"value": "https://geosciml4china.example.org/J43C001002/mappedfeature/fp.1799", "@codeSpace": "http://www.ietf.org/rfc/rfc2616"}, "observationName": "fault attitude measurement point", "label": "182.8°∠50°", "description": "倾向-倾角产状点（无运动指示）", "observedProperty": "planar orientation", "observedValue": "50", "observedValueUom": "deg", "propertyType_uri": "http://resource.geosciml.org/classifier/cgi/planarorientationtype/planar_orientation", "symbolRotation": 183, "genericSymbolizer": "fault_attitude_point", "featureOfInterest": "F017", "featureOfInterest_uri": "https://geosciml4china.example.org/J43C001002/fault/F017.2"}}, {"type": "Feature", "id": "https://geosciml4china.example.org/J43C001002/mappedfeature/fp.F085.1", "geometry": {"type": "Point", "coordinates": [74.49379669249092, 39.94536445109676]}, "properties": {"@featureType": "FaultAttitudePointView", "identifier": {"value": "https://geosciml4china.example.org/J43C001002/mappedfeature/fp.1778", "@codeSpace": "http://www.ietf.org/rfc/rfc2616"}, "observationName": "fault attitude measurement point", "label": "74.8°∠48°", "description": "a-b-a·逆断层产状点", "observedProperty": "planar orientation", "observedValue": "48", "observedValueUom": "deg", "propertyType_uri": "http://resource.geosciml.org/classifier/cgi/planarorientationtype/planar_orientation", "symbolRotation": 75, "genericSymbolizer": "fault_attitude_point", "featureOfInterest": "F085", "featureOfInterest_uri": "https://geosciml4china.example.org/J43C001002/fault/F085.1"}}, {"type": "Feature", "id": "https://geosciml4china.example.org/J43C001002/mappedfeature/fp.F075.1", "geometry": {"type": "Point", "coordinates": [74.51866904199453, 39.95058906766711]}, "properties": {"@featureType": "FaultAttitudePointView", "identifier": {"value": "https://geosciml4china.example.org/J43C001002/mappedfeature/fp.1777", "@codeSpace": "http://www.ietf.org/rfc/rfc2616"}, "observationName": "fault attitude measurement point", "label": "85.1°∠70°", "description": "a-b-a·逆断层产状点", "observedProperty": "planar orientation", "observedValue": "70", "observedValueUom": "deg", "propertyType_uri": "http://resource.geosciml.org/classifier/cgi/planarorientationtype/planar_orientation", "symbolRotation": 85, "genericSymbolizer": "fault_attitude_point", "featureOfInterest": "F075", "featureOfInterest_uri": "https://geosciml4china.example.org/J43C001002/fault/F075.1"}}, {"type": "Feature", "id": "https://geosciml4china.example.org/J43C001002/mappedfeature/fp.F113.1", "geometry": {"type": "Point", "coordinates": [74.50367806178927, 39.944311437707064]}, "properties": {"@featureType": "FaultAttitudePointView", "identifier": {"value": "https://geosciml4china.example.org/J43C001002/mappedfeature/fp.1699", "@codeSpace": "http://www.ietf.org/rfc/rfc2616"}, "observationName": "fault attitude measurement point", "label": "255.8°（仅倾向）", "description": "a-b-a·逆断层产状点", "observedProperty": "planar orientation", "observedValue": "unknown", "observedValueUom": "deg", "propertyType_uri": "http://resource.geosciml.org/classifier/cgi/planarorientationtype/planar_orientation", "symbolRotation": 256, "genericSymbolizer": "fault_attitude_point", "featureOfInterest": "F113", "featureOfInterest_uri": "https://geosciml4china.example.org/J43C001002/fault/F113.1"}}, {"type": "Feature", "id": "https://geosciml4china.example.org/J43C001002/mappedfeature/fp.F110.1", "geometry": {"type": "Point", "coordinates": [74.6124532280219, 39.941493218505045]}, "properties": {"@featureType": "FaultAttitudePointView", "identifier": {"value": "https://geosciml4china.example.org/J43C001002/mappedfeature/fp.1793", "@codeSpace": "http://www.ietf.org/rfc/rfc2616"}, "observationName": "fault attitude measurement point", "label": "87.6°∠68°", "description": "倾向-倾角产状点（无运动指示）", "observedProperty": "planar orientation", "observedValue": "68", "observedValueUom": "deg", "propertyType_uri": "http://resource.geosciml.org/classifier/cgi/planarorientationtype/planar_orientation", "symbolRotation": 88, "genericSymbolizer": "fault_attitude_point", "featureOfInterest": "F110", "featureOfInterest_uri": "https://geosciml4china.example.org/J43C001002/fault/F110.1"}}, {"type": "Feature", "id": "https://geosciml4china.example.org/J43C001002/mappedfeature/fp.F131.1", "geometry": {"type": "Point", "coordinates": [74.30697133305624, 39.93991345862387]}, "properties": {"@featureType": "FaultAttitudePointView", "identifier": {"value": "https://geosciml4china.example.org/J43C001002/mappedfeature/fp.1672", "@codeSpace": "http://www.ietf.org/rfc/rfc2616"}, "observationName": "fault attitude measurement point", "label": "301.1°（仅倾向）", "description": "a-b-a·逆断层产状点", "observedProperty": "planar orientation", "observedValue": "unknown", "observedValueUom": "deg", "propertyType_uri": "http://resource.geosciml.org/classifier/cgi/planarorientationtype/planar_orientation", "symbolRotation": 301, "genericSymbolizer": "fault_attitude_point", "featureOfInterest": "F131", "featureOfInterest_uri": "https://geosciml4china.example.org/J43C001002/fault/F131.1"}}, {"type": "Feature", "id": "https://geosciml4china.example.org/J43C001002/mappedfeature/fp.F128.1", "geometry": {"type": "Point", "coordinates": [74.32565029234947, 39.927124753451956]}, "properties": {"@featureType": "FaultAttitudePointView", "identifier": {"value": "https://geosciml4china.example.org/J43C001002/mappedfeature/fp.1719", "@codeSpace": "http://www.ietf.org/rfc/rfc2616"}, "observationName": "fault attitude measurement point", "label": "309°∠41°", "description": "倾向-倾角产状点（无运动指示）", "observedProperty": "planar orientation", "observedValue": "41", "observedValueUom": "deg", "propertyType_uri": "http://resource.geosciml.org/classifier/cgi/planarorientationtype/planar_orientation", "symbolRotation": 309, "genericSymbolizer": "fault_attitude_point", "featureOfInterest": "F128", "featureOfInterest_uri": "https://geosciml4china.example.org/J43C001002/fault/F128.1"}}, {"type": "Feature", "id": "https://geosciml4china.example.org/J43C001002/mappedfeature/fp.F127.1", "geometry": {"type": "Point", "coordinates": [74.94983721478035, 39.932693961240716]}, "properties": {"@featureType": "FaultAttitudePointView", "identifier": {"value": "https://geosciml4china.example.org/J43C001002/mappedfeature/fp.1761", "@codeSpace": "http://www.ietf.org/rfc/rfc2616"}, "observationName": "fault attitude measurement point", "label": "34.3°∠65°", "description": "a-b-a·逆断层产状点", "observedProperty": "planar orientation", "observedValue": "65", "observedValueUom": "deg", "propertyType_uri": "http://resource.geosciml.org/classifier/cgi/planarorientationtype/planar_orientation", "symbolRotation": 34, "genericSymbolizer": "fault_attitude_point", "featureOfInterest": "F127", "featureOfInterest_uri": "https://geosciml4china.example.org/J43C001002/fault/F127.1"}}, {"type": "Feature", "id": "https://geosciml4china.example.org/J43C001002/mappedfeature/fp.F051.1", "geometry": {"type": "Point", "coordinates": [74.89481647609547, 39.90347841081133]}, "properties": {"@featureType": "FaultAttitudePointView", "identifier": {"value": "https://geosciml4china.example.org/J43C001002/mappedfeature/fp.1787", "@codeSpace": "http://www.ietf.org/rfc/rfc2616"}, "observationName": "fault attitude measurement point", "label": "49.2°∠50°", "description": "倾向-倾角产状点（无运动指示）", "observedProperty": "planar orientation", "observedValue": "50", "observedValueUom": "deg", "propertyType_uri": "http://resource.geosciml.org/classifier/cgi/planarorientationtype/planar_orientation", "symbolRotation": 49, "genericSymbolizer": "fault_attitude_point", "featureOfInterest": "F051", "featureOfInterest_uri": "https://geosciml4china.example.org/J43C001002/fault/F051.1"}}, {"type": "Feature", "id": "https://geosciml4china.example.org/J43C001002/mappedfeature/fp.F047.1", "geometry": {"type": "Point", "coordinates": [74.27428848643277, 39.91588401264164]}, "properties": {"@featureType": "FaultAttitudePointView", "identifier": {"value": "https://geosciml4china.example.org/J43C001002/mappedfeature/fp.1671", "@codeSpace": "http://www.ietf.org/rfc/rfc2616"}, "observationName": "fault attitude measurement point", "label": "303.2°∠60°", "description": "a-b-a·逆断层产状点", "observedProperty": "planar orientation", "observedValue": "60", "observedValueUom": "deg", "propertyType_uri": "http://resource.geosciml.org/classifier/cgi/planarorientationtype/planar_orientation", "symbolRotation": 303, "genericSymbolizer": "fault_attitude_point", "featureOfInterest": "F047", "featureOfInterest_uri": "https://geosciml4china.example.org/J43C001002/fault/F047.3"}}, {"type": "Feature", "id": "https://geosciml4china.example.org/J43C001002/mappedfeature/fp.F048.1", "geometry": {"type": "Point", "coordinates": [74.8802567831704, 39.89746397623352]}, "properties": {"@featureType": "FaultAttitudePointView", "identifier": {"value": "https://geosciml4china.example.org/J43C001002/mappedfeature/fp.1790", "@codeSpace": "http://www.ietf.org/rfc/rfc2616"}, "observationName": "fault attitude measurement point", "label": "31.9°∠50°", "description": "a-b-a·逆断层产状点", "observedProperty": "planar orientation", "observedValue": "50", "observedValueUom": "deg", "propertyType_uri": "http://resource.geosciml.org/classifier/cgi/planarorientationtype/planar_orientation", "symbolRotation": 32, "genericSymbolizer": "fault_attitude_point", "featureOfInterest": "F048", "featureOfInterest_uri": "https://geosciml4china.example.org/J43C001002/fault/F048.1"}}, {"type": "Feature", "id": "https://geosciml4china.example.org/J43C001002/mappedfeature/fp.F038.1", "geometry": {"type": "Point", "coordinates": [73.97288078260797, 39.84936643365576]}, "properties": {"@featureType": "FaultAttitudePointView", "identifier": {"value": "https://geosciml4china.example.org/J43C001002/mappedfeature/fp.1948", "@codeSpace": "http://www.ietf.org/rfc/rfc2616"}, "observationName": "fault attitude measurement point", "label": "290.4°∠80°", "description": "倾向-倾角产状点（无运动指示）", "observedProperty": "planar orientation", "observedValue": "80", "observedValueUom": "deg", "propertyType_uri": "http://resource.geosciml.org/classifier/cgi/planarorientationtype/planar_orientation", "symbolRotation": 290, "genericSymbolizer": "fault_attitude_point", "featureOfInterest": "F038", "featureOfInterest_uri": "https://geosciml4china.example.org/J43C001002/fault/F038.1"}}, {"type": "Feature", "id": "https://geosciml4china.example.org/J43C001002/mappedfeature/fp.F023.4", "geometry": {"type": "Point", "coordinates": [73.9167853249694, 39.86417444839006]}, "properties": {"@featureType": "FaultAttitudePointView", "identifier": {"value": "https://geosciml4china.example.org/J43C001002/mappedfeature/fp.1942", "@codeSpace": "http://www.ietf.org/rfc/rfc2616"}, "observationName": "fault attitude measurement point", "label": "297.4°∠70°", "description": "倾向-倾角产状点（无运动指示）", "observedProperty": "planar orientation", "observedValue": "70", "observedValueUom": "deg", "propertyType_uri": "http://resource.geosciml.org/classifier/cgi/planarorientationtype/planar_orientation", "symbolRotation": 297, "genericSymbolizer": "fault_attitude_point", "featureOfInterest": "F023", "featureOfInterest_uri": "https://geosciml4china.example.org/J43C001002/fault/F023.1"}}, {"type": "Feature", "id": "https://geosciml4china.example.org/J43C001002/mappedfeature/fp.F023.1", "geometry": {"type": "Point", "coordinates": [73.87071438752776, 39.777618276989614]}, "properties": {"@featureType": "FaultAttitudePointView", "identifier": {"value": "https://geosciml4china.example.org/J43C001002/mappedfeature/fp.1943", "@codeSpace": "http://www.ietf.org/rfc/rfc2616"}, "observationName": "fault attitude measurement point", "label": "276.7°∠40°", "description": "倾向-倾角产状点（无运动指示）", "observedProperty": "planar orientation", "observedValue": "40", "observedValueUom": "deg", "propertyType_uri": "http://resource.geosciml.org/classifier/cgi/planarorientationtype/planar_orientation", "symbolRotation": 277, "genericSymbolizer": "fault_attitude_point", "featureOfInterest": "F023", "featureOfInterest_uri": "https://geosciml4china.example.org/J43C001002/fault/F023.1"}}, {"type": "Feature", "id": "https://geosciml4china.example.org/J43C001002/mappedfeature/fp.F023.2", "geometry": {"type": "Point", "coordinates": [73.87337054011815, 39.779805830352544]}, "properties": {"@featureType": "FaultAttitudePointView", "identifier": {"value": "https://geosciml4china.example.org/J43C001002/mappedfeature/fp.1944", "@codeSpace": "http://www.ietf.org/rfc/rfc2616"}, "observationName": "fault attitude measurement point", "label": "113.5°（仅倾向）", "description": "倾向产状点（仅倾向，无倾角无运动指示）", "observedProperty": "planar orientation", "observedValue": "unknown", "observedValueUom": "deg", "propertyType_uri": "http://resource.geosciml.org/classifier/cgi/planarorientationtype/planar_orientation", "symbolRotation": 114, "genericSymbolizer": "fault_attitude_point", "featureOfInterest": "F023", "featureOfInterest_uri": "https://geosciml4china.example.org/J43C001002/fault/F023.1"}}, {"type": "Feature", "id": "https://geosciml4china.example.org/J43C001002/mappedfeature/fp.F023.3", "geometry": {"type": "Point", "coordinates": [73.8789595691825, 39.767706592176175]}, "properties": {"@featureType": "FaultAttitudePointView", "identifier": {"value": "https://geosciml4china.example.org/J43C001002/mappedfeature/fp.1945", "@codeSpace": "http://www.ietf.org/rfc/rfc2616"}, "observationName": "fault attitude measurement point", "label": "270.8°（仅倾向）", "description": "倾向产状点（仅倾向，无倾角无运动指示）", "observedProperty": "planar orientation", "observedValue": "unknown", "observedValueUom": "deg", "propertyType_uri": "http://resource.geosciml.org/classifier/cgi/planarorientationtype/planar_orientation", "symbolRotation": 271, "genericSymbolizer": "fault_attitude_point", "featureOfInterest": "F023", "featureOfInterest_uri": "https://geosciml4china.example.org/J43C001002/fault/F023.1"}}, {"type": "Feature", "id": "https://geosciml4china.example.org/J43C001002/mappedfeature/fp.F129.1", "geometry": {"type": "Point", "coordinates": [74.21241613027932, 39.901360590473004]}, "properties": {"@featureType": "FaultAttitudePointView", "identifier": {"value": "https://geosciml4china.example.org/J43C001002/mappedfeature/fp.1745", "@codeSpace": "http://www.ietf.org/rfc/rfc2616"}, "observationName": "fault attitude measurement point", "label": "258.3°∠54°", "description": "a-b-a·逆断层产状点", "observedProperty": "planar orientation", "observedValue": "54", "observedValueUom": "deg", "propertyType_uri": "http://resource.geosciml.org/classifier/cgi/planarorientationtype/planar_orientation", "symbolRotation": 258, "genericSymbolizer": "fault_attitude_point", "featureOfInterest": "F129", "featureOfInterest_uri": "https://geosciml4china.example.org/J43C001002/fault/F129.1"}}, {"type": "Feature", "id": "https://geosciml4china.example.org/J43C001002/mappedfeature/fp.F053.2", "geometry": {"type": "Point", "coordinates": [74.93424035418636, 39.87918174197526]}, "properties": {"@featureType": "FaultAttitudePointView", "identifier": {"value": "https://geosciml4china.example.org/J43C001002/mappedfeature/fp.1786", "@codeSpace": "http://www.ietf.org/rfc/rfc2616"}, "observationName": "fault attitude measurement point", "label": "43.5°∠73°", "description": "倾向-倾角产状点（无运动指示）", "observedProperty": "planar orientation", "observedValue": "73", "observedValueUom": "deg", "propertyType_uri": "http://resource.geosciml.org/classifier/cgi/planarorientationtype/planar_orientation", "symbolRotation": 44, "genericSymbolizer": "fault_attitude_point", "featureOfInterest": "F053", "featureOfInterest_uri": "https://geosciml4china.example.org/J43C001002/fault/F053.4"}}, {"type": "Feature", "id": "https://geosciml4china.example.org/J43C001002/mappedfeature/fp.F104.1", "geometry": {"type": "Point", "coordinates": [73.95977747109528, 39.85703718537874]}, "properties": {"@featureType": "FaultAttitudePointView", "identifier": {"value": "https://geosciml4china.example.org/J43C001002/mappedfeature/fp.1947", "@codeSpace": "http://www.ietf.org/rfc/rfc2616"}, "observationName": "fault attitude measurement point", "label": "271.1°∠69°", "description": "a-b-a·逆断层产状点", "observedProperty": "planar orientation", "observedValue": "69", "observedValueUom": "deg", "propertyType_uri": "http://resource.geosciml.org/classifier/cgi/planarorientationtype/planar_orientation", "symbolRotation": 271, "genericSymbolizer": "fault_attitude_point", "featureOfInterest": "F104", "featureOfInterest_uri": "https://geosciml4china.example.org/J43C001002/fault/F104.1"}}, {"type": "Feature", "id": "https://geosciml4china.example.org/J43C001002/mappedfeature/fp.F030.2", "geometry": {"type": "Point", "coordinates": [74.43808146618798, 39.83549158808351]}, "properties": {"@featureType": "FaultAttitudePointView", "identifier": {"value": "https://geosciml4china.example.org/J43C001002/mappedfeature/fp.1733", "@codeSpace": "http://www.ietf.org/rfc/rfc2616"}, "observationName": "fault attitude measurement point", "label": "319.7°∠67°", "description": "a-b-a·逆断层产状点", "observedProperty": "planar orientation", "observedValue": "67", "observedValueUom": "deg", "propertyType_uri": "http://resource.geosciml.org/classifier/cgi/planarorientationtype/planar_orientation", "symbolRotation": 320, "genericSymbolizer": "fault_attitude_point", "featureOfInterest": "F030", "featureOfInterest_uri": "https://geosciml4china.example.org/J43C001002/fault/F030.1"}}, {"type": "Feature", "id": "https://geosciml4china.example.org/J43C001002/mappedfeature/fp.F030.1", "geometry": {"type": "Point", "coordinates": [74.51098292821979, 39.85337192078149]}, "properties": {"@featureType": "FaultAttitudePointView", "identifier": {"value": "https://geosciml4china.example.org/J43C001002/mappedfeature/fp.1812", "@codeSpace": "http://www.ietf.org/rfc/rfc2616"}, "observationName": "fault attitude measurement point", "label": "349.7°∠60°", "description": "a-b-a·逆断层产状点", "observedProperty": "planar orientation", "observedValue": "60", "observedValueUom": "deg", "propertyType_uri": "http://resource.geosciml.org/classifier/cgi/planarorientationtype/planar_orientation", "symbolRotation": 350, "genericSymbolizer": "fault_attitude_point", "featureOfInterest": "F030", "featureOfInterest_uri": "https://geosciml4china.example.org/J43C001002/fault/F030.1"}}, {"type": "Feature", "id": "https://geosciml4china.example.org/J43C001002/mappedfeature/fp.F070.1", "geometry": {"type": "Point", "coordinates": [74.44619163869854, 39.82616084684516]}, "properties": {"@featureType": "FaultAttitudePointView", "identifier": {"value": "https://geosciml4china.example.org/J43C001002/mappedfeature/fp.1702", "@codeSpace": "http://www.ietf.org/rfc/rfc2616"}, "observationName": "fault attitude measurement point", "label": "139.9°∠64°", "description": "a-b-a·逆断层产状点", "observedProperty": "planar orientation", "observedValue": "64", "observedValueUom": "deg", "propertyType_uri": "http://resource.geosciml.org/classifier/cgi/planarorientationtype/planar_orientation", "symbolRotation": 140, "genericSymbolizer": "fault_attitude_point", "featureOfInterest": "F070", "featureOfInterest_uri": "https://geosciml4china.example.org/J43C001002/fault/F070.1"}}, {"type": "Feature", "id": "https://geosciml4china.example.org/J43C001002/mappedfeature/fp.F012.1", "geometry": {"type": "Point", "coordinates": [74.80094898106371, 39.81698273388588]}, "properties": {"@featureType": "FaultAttitudePointView", "identifier": {"value": "https://geosciml4china.example.org/J43C001002/mappedfeature/fp.1781", "@codeSpace": "http://www.ietf.org/rfc/rfc2616"}, "observationName": "fault attitude measurement point", "label": "1.5°（仅倾向）", "description": "a-b-a·逆断层产状点", "observedProperty": "planar orientation", "observedValue": "unknown", "observedValueUom": "deg", "propertyType_uri": "http://resource.geosciml.org/classifier/cgi/planarorientationtype/planar_orientation", "symbolRotation": 2, "genericSymbolizer": "fault_attitude_point", "featureOfInterest": "F012", "featureOfInterest_uri": "https://geosciml4china.example.org/J43C001002/fault/F012.7"}}, {"type": "Feature", "id": "https://geosciml4china.example.org/J43C001002/mappedfeature/fp.F018.1", "geometry": {"type": "Point", "coordinates": [74.20283099685582, 39.745848377168166]}, "properties": {"@featureType": "FaultAttitudePointView", "identifier": {"value": "https://geosciml4china.example.org/J43C001002/mappedfeature/fp.1724", "@codeSpace": "http://www.ietf.org/rfc/rfc2616"}, "observationName": "fault attitude measurement point", "label": "323.2°∠56°", "description": "a-b-a·逆断层产状点", "observedProperty": "planar orientation", "observedValue": "56", "observedValueUom": "deg", "propertyType_uri": "http://resource.geosciml.org/classifier/cgi/planarorientationtype/planar_orientation", "symbolRotation": 323, "genericSymbolizer": "fault_attitude_point", "featureOfInterest": "F018", "featureOfInterest_uri": "https://geosciml4china.example.org/J43C001002/fault/F018.1"}}, {"type": "Feature", "id": "https://geosciml4china.example.org/J43C001002/mappedfeature/fp.F018.2", "geometry": {"type": "Point", "coordinates": [74.31477108562791, 39.794595560153994]}, "properties": {"@featureType": "FaultAttitudePointView", "identifier": {"value": "https://geosciml4china.example.org/J43C001002/mappedfeature/fp.1727", "@codeSpace": "http://www.ietf.org/rfc/rfc2616"}, "observationName": "fault attitude measurement point", "label": "136.8°∠52°", "description": "倾向-倾角产状点（无运动指示）", "observedProperty": "planar orientation", "observedValue": "52", "observedValueUom": "deg", "propertyType_uri": "http://resource.geosciml.org/classifier/cgi/planarorientationtype/planar_orientation", "symbolRotation": 137, "genericSymbolizer": "fault_attitude_point", "featureOfInterest": "F018", "featureOfInterest_uri": "https://geosciml4china.example.org/J43C001002/fault/F018.1"}}, {"type": "Feature", "id": "https://geosciml4china.example.org/J43C001002/mappedfeature/fp.F036.1", "geometry": {"type": "Point", "coordinates": [74.95653140190791, 39.793526712584615]}, "properties": {"@featureType": "FaultAttitudePointView", "identifier": {"value": "https://geosciml4china.example.org/J43C001002/mappedfeature/fp.1803", "@codeSpace": "http://www.ietf.org/rfc/rfc2616"}, "observationName": "fault attitude measurement point", "label": "34.1°∠55°", "description": "a-b-a·逆断层产状点", "observedProperty": "planar orientation", "observedValue": "55", "observedValueUom": "deg", "propertyType_uri": "http://resource.geosciml.org/classifier/cgi/planarorientationtype/planar_orientation", "symbolRotation": 34, "genericSymbolizer": "fault_attitude_point", "featureOfInterest": "F036", "featureOfInterest_uri": "https://geosciml4china.example.org/J43C001002/fault/F036.3"}}, {"type": "Feature", "id": "https://geosciml4china.example.org/J43C001002/mappedfeature/fp.F021.1", "geometry": {"type": "Point", "coordinates": [74.61249205408058, 39.78787423448407]}, "properties": {"@featureType": "FaultAttitudePointView", "identifier": {"value": "https://geosciml4china.example.org/J43C001002/mappedfeature/fp.1783", "@codeSpace": "http://www.ietf.org/rfc/rfc2616"}, "observationName": "fault attitude measurement point", "label": "221.4°∠63°", "description": "a-b-a·逆断层产状点", "observedProperty": "planar orientation", "observedValue": "63", "observedValueUom": "deg", "propertyType_uri": "http://resource.geosciml.org/classifier/cgi/planarorientationtype/planar_orientation", "symbolRotation": 221, "genericSymbolizer": "fault_attitude_point", "featureOfInterest": "F021", "featureOfInterest_uri": "https://geosciml4china.example.org/J43C001002/fault/F021.1"}}, {"type": "Feature", "id": "https://geosciml4china.example.org/J43C001002/mappedfeature/fp.F056.1", "geometry": {"type": "Point", "coordinates": [74.47798666371412, 39.7820027382777]}, "properties": {"@featureType": "FaultAttitudePointView", "identifier": {"value": "https://geosciml4china.example.org/J43C001002/mappedfeature/fp.1706", "@codeSpace": "http://www.ietf.org/rfc/rfc2616"}, "observationName": "fault attitude measurement point", "label": "151.6°（仅倾向）", "description": "a-b-a·逆断层产状点", "observedProperty": "planar orientation", "observedValue": "unknown", "observedValueUom": "deg", "propertyType_uri": "http://resource.geosciml.org/classifier/cgi/planarorientationtype/planar_orientation", "symbolRotation": 152, "genericSymbolizer": "fault_attitude_point", "featureOfInterest": "F056", "featureOfInterest_uri": "https://geosciml4china.example.org/J43C001002/fault/F056.1"}}, {"type": "Feature", "id": "https://geosciml4china.example.org/J43C001002/mappedfeature/fp.F093.1", "geometry": {"type": "Point", "coordinates": [74.50313539143076, 39.79917859376101]}, "properties": {"@featureType": "FaultAttitudePointView", "identifier": {"value": "https://geosciml4china.example.org/J43C001002/mappedfeature/fp.1705", "@codeSpace": "http://www.ietf.org/rfc/rfc2616"}, "observationName": "fault attitude measurement point", "label": "169.6°∠70°", "description": "a-b-a·逆断层产状点", "observedProperty": "planar orientation", "observedValue": "70", "observedValueUom": "deg", "propertyType_uri": "http://resource.geosciml.org/classifier/cgi/planarorientationtype/planar_orientation", "symbolRotation": 170, "genericSymbolizer": "fault_attitude_point", "featureOfInterest": "F093", "featureOfInterest_uri": "https://geosciml4china.example.org/J43C001002/fault/F093.1"}}, {"type": "Feature", "id": "https://geosciml4china.example.org/J43C001002/mappedfeature/fp.F038.2", "geometry": {"type": "Point", "coordinates": [73.93841684675836, 39.749199328352425]}, "properties": {"@featureType": "FaultAttitudePointView", "identifier": {"value": "https://geosciml4china.example.org/J43C001002/mappedfeature/fp.1946", "@codeSpace": "http://www.ietf.org/rfc/rfc2616"}, "observationName": "fault attitude measurement point", "label": "302.6°∠57°", "description": "a-b-a·逆断层产状点", "observedProperty": "planar orientation", "observedValue": "57", "observedValueUom": "deg", "propertyType_uri": "http://resource.geosciml.org/classifier/cgi/planarorientationtype/planar_orientation", "symbolRotation": 303, "genericSymbolizer": "fault_attitude_point", "featureOfInterest": "F038", "featureOfInterest_uri": "https://geosciml4china.example.org/J43C001002/fault/F038.3"}}, {"type": "Feature", "id": "https://geosciml4china.example.org/J43C001002/mappedfeature/fp.F006.2", "geometry": {"type": "Point", "coordinates": [74.25669592316201, 39.695118025707835]}, "properties": {"@featureType": "FaultAttitudePointView", "identifier": {"value": "https://geosciml4china.example.org/J43C001002/mappedfeature/fp.1710", "@codeSpace": "http://www.ietf.org/rfc/rfc2616"}, "observationName": "fault attitude measurement point", "label": "24.7°∠51°", "description": "a-b-a·逆断层产状点", "observedProperty": "planar orientation", "observedValue": "51", "observedValueUom": "deg", "propertyType_uri": "http://resource.geosciml.org/classifier/cgi/planarorientationtype/planar_orientation", "symbolRotation": 25, "genericSymbolizer": "fault_attitude_point", "featureOfInterest": "F006", "featureOfInterest_uri": "https://geosciml4china.example.org/J43C001002/fault/F006.3"}}, {"type": "Feature", "id": "https://geosciml4china.example.org/J43C001002/mappedfeature/fp.F006.3", "geometry": {"type": "Point", "coordinates": [74.19520823854813, 39.6765850649571]}, "properties": {"@featureType": "FaultAttitudePointView", "identifier": {"value": "https://geosciml4china.example.org/J43C001002/mappedfeature/fp.1712", "@codeSpace": "http://www.ietf.org/rfc/rfc2616"}, "observationName": "fault attitude measurement point", "label": "321.2°∠67°", "description": "a-b-a·逆断层产状点", "observedProperty": "planar orientation", "observedValue": "67", "observedValueUom": "deg", "propertyType_uri": "http://resource.geosciml.org/classifier/cgi/planarorientationtype/planar_orientation", "symbolRotation": 321, "genericSymbolizer": "fault_attitude_point", "featureOfInterest": "F006", "featureOfInterest_uri": "https://geosciml4china.example.org/J43C001002/fault/F006.3"}}, {"type": "Feature", "id": "https://geosciml4china.example.org/J43C001002/mappedfeature/fp.F006.1", "geometry": {"type": "Point", "coordinates": [74.31951084958258, 39.71921082560375]}, "properties": {"@featureType": "FaultAttitudePointView", "identifier": {"value": "https://geosciml4china.example.org/J43C001002/mappedfeature/fp.1751", "@codeSpace": "http://www.ietf.org/rfc/rfc2616"}, "observationName": "fault attitude measurement point", "label": "324.3°∠65°", "description": "a-b-a·逆断层产状点", "observedProperty": "planar orientation", "observedValue": "65", "observedValueUom": "deg", "propertyType_uri": "http://resource.geosciml.org/classifier/cgi/planarorientationtype/planar_orientation", "symbolRotation": 324, "genericSymbolizer": "fault_attitude_point", "featureOfInterest": "F006", "featureOfInterest_uri": "https://geosciml4china.example.org/J43C001002/fault/F006.3"}}, {"type": "Feature", "id": "https://geosciml4china.example.org/J43C001002/mappedfeature/fp.F032.1", "geometry": {"type": "Point", "coordinates": [74.06979321000385, 39.732069983579784]}, "properties": {"@featureType": "FaultAttitudePointView", "identifier": {"value": "https://geosciml4china.example.org/J43C001002/mappedfeature/fp.1714", "@codeSpace": "http://www.ietf.org/rfc/rfc2616"}, "observationName": "fault attitude measurement point", "label": "109.8°∠51°", "description": "a-b-a·正断层产状点", "observedProperty": "planar orientation", "observedValue": "51", "observedValueUom": "deg", "propertyType_uri": "http://resource.geosciml.org/classifier/cgi/planarorientationtype/planar_orientation", "symbolRotation": 110, "genericSymbolizer": "fault_attitude_point", "featureOfInterest": "F032", "featureOfInterest_uri": "https://geosciml4china.example.org/J43C001002/fault/F032.3"}}, {"type": "Feature", "id": "https://geosciml4china.example.org/J43C001002/mappedfeature/fp.F019.1", "geometry": {"type": "Point", "coordinates": [74.04873331255791, 39.71244083996058]}, "properties": {"@featureType": "FaultAttitudePointView", "identifier": {"value": "https://geosciml4china.example.org/J43C001002/mappedfeature/fp.1713", "@codeSpace": "http://www.ietf.org/rfc/rfc2616"}, "observationName": "fault attitude measurement point", "label": "287.7°（仅倾向）", "description": "a-b-a·正断层产状点", "observedProperty": "planar orientation", "observedValue": "unknown", "observedValueUom": "deg", "propertyType_uri": "http://resource.geosciml.org/classifier/cgi/planarorientationtype/planar_orientation", "symbolRotation": 288, "genericSymbolizer": "fault_attitude_point", "featureOfInterest": "F019", "featureOfInterest_uri": "https://geosciml4china.example.org/J43C001002/fault/F019.1"}}, {"type": "Feature", "id": "https://geosciml4china.example.org/J43C001002/mappedfeature/fp.F144.1", "geometry": {"type": "Point", "coordinates": [74.04389295341993, 39.734049286980905]}, "properties": {"@featureType": "FaultAttitudePointView", "identifier": {"value": "https://geosciml4china.example.org/J43C001002/mappedfeature/fp.1722", "@codeSpace": "http://www.ietf.org/rfc/rfc2616"}, "observationName": "fault attitude measurement point", "label": "312°（仅倾向）", "description": "a-b-a·逆断层产状点", "observedProperty": "planar orientation", "observedValue": "unknown", "observedValueUom": "deg", "propertyType_uri": "http://resource.geosciml.org/classifier/cgi/planarorientationtype/planar_orientation", "symbolRotation": 312, "genericSymbolizer": "fault_attitude_point", "featureOfInterest": "F144", "featureOfInterest_uri": "https://geosciml4china.example.org/J43C001002/fault/F144.1"}}, {"type": "Feature", "id": "https://geosciml4china.example.org/J43C001002/mappedfeature/fp.F004.3", "geometry": {"type": "Point", "coordinates": [74.34560850874603, 39.68123173904189]}, "properties": {"@featureType": "FaultAttitudePointView", "identifier": {"value": "https://geosciml4china.example.org/J43C001002/mappedfeature/fp.1707", "@codeSpace": "http://www.ietf.org/rfc/rfc2616"}, "observationName": "fault attitude measurement point", "label": "163.9°∠71°", "description": "a-b-a·逆断层产状点", "observedProperty": "planar orientation", "observedValue": "71", "observedValueUom": "deg", "propertyType_uri": "http://resource.geosciml.org/classifier/cgi/planarorientationtype/planar_orientation", "symbolRotation": 164, "genericSymbolizer": "fault_attitude_point", "featureOfInterest": "F9", "featureOfInterest_uri": "https://geosciml4china.example.org/J43C001002/fault/F004.1"}}, {"type": "Feature", "id": "https://geosciml4china.example.org/J43C001002/mappedfeature/fp.F004.1", "geometry": {"type": "Point", "coordinates": [74.07317520197849, 39.57610019489722]}, "properties": {"@featureType": "FaultAttitudePointView", "identifier": {"value": "https://geosciml4china.example.org/J43C001002/mappedfeature/fp.1873", "@codeSpace": "http://www.ietf.org/rfc/rfc2616"}, "observationName": "fault attitude measurement point", "label": "150.9°（仅倾向）", "description": "a-b-a·逆断层产状点", "observedProperty": "planar orientation", "observedValue": "unknown", "observedValueUom": "deg", "propertyType_uri": "http://resource.geosciml.org/classifier/cgi/planarorientationtype/planar_orientation", "symbolRotation": 151, "genericSymbolizer": "fault_attitude_point", "featureOfInterest": "F9", "featureOfInterest_uri": "https://geosciml4china.example.org/J43C001002/fault/F004.1"}}, {"type": "Feature", "id": "https://geosciml4china.example.org/J43C001002/mappedfeature/fp.F004.2", "geometry": {"type": "Point", "coordinates": [74.18346749097911, 39.63055191299192]}, "properties": {"@featureType": "FaultAttitudePointView", "identifier": {"value": "https://geosciml4china.example.org/J43C001002/mappedfeature/fp.1896", "@codeSpace": "http://www.ietf.org/rfc/rfc2616"}, "observationName": "fault attitude measurement point", "label": "144.9°（仅倾向）", "description": "a-b-a·逆断层产状点", "observedProperty": "planar orientation", "observedValue": "unknown", "observedValueUom": "deg", "propertyType_uri": "http://resource.geosciml.org/classifier/cgi/planarorientationtype/planar_orientation", "symbolRotation": 145, "genericSymbolizer": "fault_attitude_point", "featureOfInterest": "F9", "featureOfInterest_uri": "https://geosciml4china.example.org/J43C001002/fault/F004.1"}}, {"type": "Feature", "id": "https://geosciml4china.example.org/J43C001002/mappedfeature/fp.F058.1", "geometry": {"type": "Point", "coordinates": [73.9931792227189, 39.690088747779704]}, "properties": {"@featureType": "FaultAttitudePointView", "identifier": {"value": "https://geosciml4china.example.org/J43C001002/mappedfeature/fp.1956", "@codeSpace": "http://www.ietf.org/rfc/rfc2616"}, "observationName": "fault attitude measurement point", "label": "291.8°∠65°", "description": "a-b-a·逆断层产状点", "observedProperty": "planar orientation", "observedValue": "65", "observedValueUom": "deg", "propertyType_uri": "http://resource.geosciml.org/classifier/cgi/planarorientationtype/planar_orientation", "symbolRotation": 292, "genericSymbolizer": "fault_attitude_point", "featureOfInterest": "F058", "featureOfInterest_uri": "https://geosciml4china.example.org/J43C001002/fault/F058.3"}}, {"type": "Feature", "id": "https://geosciml4china.example.org/J43C001002/mappedfeature/fp.F089.1", "geometry": {"type": "Point", "coordinates": [74.18575166916433, 39.66980956912168]}, "properties": {"@featureType": "FaultAttitudePointView", "identifier": {"value": "https://geosciml4china.example.org/J43C001002/mappedfeature/fp.1711", "@codeSpace": "http://www.ietf.org/rfc/rfc2616"}, "observationName": "fault attitude measurement point", "label": "320.8°∠42°", "description": "a-b-a·逆断层产状点", "observedProperty": "planar orientation", "observedValue": "42", "observedValueUom": "deg", "propertyType_uri": "http://resource.geosciml.org/classifier/cgi/planarorientationtype/planar_orientation", "symbolRotation": 321, "genericSymbolizer": "fault_attitude_point", "featureOfInterest": "F089", "featureOfInterest_uri": "https://geosciml4china.example.org/J43C001002/fault/F089.1"}}, {"type": "Feature", "id": "https://geosciml4china.example.org/J43C001002/mappedfeature/fp.F057.1", "geometry": {"type": "Point", "coordinates": [74.68137511152887, 39.672754921710855]}, "properties": {"@featureType": "FaultAttitudePointView", "identifier": {"value": "https://geosciml4china.example.org/J43C001002/mappedfeature/fp.1796", "@codeSpace": "http://www.ietf.org/rfc/rfc2616"}, "observationName": "fault attitude measurement point", "label": "201°∠70°", "description": "倾向-倾角产状点（无运动指示）", "observedProperty": "planar orientation", "observedValue": "70", "observedValueUom": "deg", "propertyType_uri": "http://resource.geosciml.org/classifier/cgi/planarorientationtype/planar_orientation", "symbolRotation": 201, "genericSymbolizer": "fault_attitude_point", "featureOfInterest": "F057", "featureOfInterest_uri": "https://geosciml4china.example.org/J43C001002/fault/F057.1"}}, {"type": "Feature", "id": "https://geosciml4china.example.org/J43C001002/mappedfeature/fp.F031.1", "geometry": {"type": "Point", "coordinates": [74.95711782766129, 39.683980476623326]}, "properties": {"@featureType": "FaultAttitudePointView", "identifier": {"value": "https://geosciml4china.example.org/J43C001002/mappedfeature/fp.1780", "@codeSpace": "http://www.ietf.org/rfc/rfc2616"}, "observationName": "fault attitude measurement point", "label": "333.8°∠55°", "description": "a-b-a·逆断层产状点", "observedProperty": "planar orientation", "observedValue": "55", "observedValueUom": "deg", "propertyType_uri": "http://resource.geosciml.org/classifier/cgi/planarorientationtype/planar_orientation", "symbolRotation": 334, "genericSymbolizer": "fault_attitude_point", "featureOfInterest": "F031", "featureOfInterest_uri": "https://geosciml4china.example.org/J43C001002/fault/F031.1"}}, {"type": "Feature", "id": "https://geosciml4china.example.org/J43C001002/mappedfeature/fp.F022.1", "geometry": {"type": "Point", "coordinates": [74.54517284773057, 39.65598696413912]}, "properties": {"@featureType": "FaultAttitudePointView", "identifier": {"value": "https://geosciml4china.example.org/J43C001002/mappedfeature/fp.1833", "@codeSpace": "http://www.ietf.org/rfc/rfc2616"}, "observationName": "fault attitude measurement point", "label": "218.6°∠72°", "description": "a-b-a·逆断层产状点", "observedProperty": "planar orientation", "observedValue": "72", "observedValueUom": "deg", "propertyType_uri": "http://resource.geosciml.org/classifier/cgi/planarorientationtype/planar_orientation", "symbolRotation": 219, "genericSymbolizer": "fault_attitude_point", "featureOfInterest": "F022", "featureOfInterest_uri": "https://geosciml4china.example.org/J43C001002/fault/F022.1"}}, {"type": "Feature", "id": "https://geosciml4china.example.org/J43C001002/mappedfeature/fp.F126.1", "geometry": {"type": "Point", "coordinates": [73.98937419163471, 39.6693862219588]}, "properties": {"@featureType": "FaultAttitudePointView", "identifier": {"value": "https://geosciml4china.example.org/J43C001002/mappedfeature/fp.1962", "@codeSpace": "http://www.ietf.org/rfc/rfc2616"}, "observationName": "fault attitude measurement point", "label": "359.5°∠80°", "description": "倾向-倾角产状点（无运动指示）", "observedProperty": "planar orientation", "observedValue": "80", "observedValueUom": "deg", "propertyType_uri": "http://resource.geosciml.org/classifier/cgi/planarorientationtype/planar_orientation", "symbolRotation": 0, "genericSymbolizer": "fault_attitude_point", "featureOfInterest": "F126", "featureOfInterest_uri": "https://geosciml4china.example.org/J43C001002/fault/F126.1"}}, {"type": "Feature", "id": "https://geosciml4china.example.org/J43C001002/mappedfeature/fp.F099.1", "geometry": {"type": "Point", "coordinates": [73.96878158266286, 39.64945964699546]}, "properties": {"@featureType": "FaultAttitudePointView", "identifier": {"value": "https://geosciml4china.example.org/J43C001002/mappedfeature/fp.1847", "@codeSpace": "http://www.ietf.org/rfc/rfc2616"}, "observationName": "fault attitude measurement point", "label": "310.7°∠70°", "description": "a-b-a·逆断层产状点", "observedProperty": "planar orientation", "observedValue": "70", "observedValueUom": "deg", "propertyType_uri": "http://resource.geosciml.org/classifier/cgi/planarorientationtype/planar_orientation", "symbolRotation": 311, "genericSymbolizer": "fault_attitude_point", "featureOfInterest": "F099", "featureOfInterest_uri": "https://geosciml4china.example.org/J43C001002/fault/F099.1"}}, {"type": "Feature", "id": "https://geosciml4china.example.org/J43C001002/mappedfeature/fp.F063.1", "geometry": {"type": "Point", "coordinates": [74.03819044740605, 39.62620873327582]}, "properties": {"@featureType": "FaultAttitudePointView", "identifier": {"value": "https://geosciml4china.example.org/J43C001002/mappedfeature/fp.1884", "@codeSpace": "http://www.ietf.org/rfc/rfc2616"}, "observationName": "fault attitude measurement point", "label": "132.5°∠52°", "description": "a-b-a·正断层产状点", "observedProperty": "planar orientation", "observedValue": "52", "observedValueUom": "deg", "propertyType_uri": "http://resource.geosciml.org/classifier/cgi/planarorientationtype/planar_orientation", "symbolRotation": 132, "genericSymbolizer": "fault_attitude_point", "featureOfInterest": "F063", "featureOfInterest_uri": "https://geosciml4china.example.org/J43C001002/fault/F063.3"}}, {"type": "Feature", "id": "https://geosciml4china.example.org/J43C001002/mappedfeature/fp.F079.1", "geometry": {"type": "Point", "coordinates": [74.69258908022782, 39.62026303163796]}, "properties": {"@featureType": "FaultAttitudePointView", "identifier": {"value": "https://geosciml4china.example.org/J43C001002/mappedfeature/fp.1826", "@codeSpace": "http://www.ietf.org/rfc/rfc2616"}, "observationName": "fault attitude measurement point", "label": "189.7°∠50°", "description": "a-b-a·逆断层产状点", "observedProperty": "planar orientation", "observedValue": "50", "observedValueUom": "deg", "propertyType_uri": "http://resource.geosciml.org/classifier/cgi/planarorientationtype/planar_orientation", "symbolRotation": 190, "genericSymbolizer": "fault_attitude_point", "featureOfInterest": "F079", "featureOfInterest_uri": "https://geosciml4china.example.org/J43C001002/fault/F079.1"}}, {"type": "Feature", "id": "https://geosciml4china.example.org/J43C001002/mappedfeature/fp.F005.1", "geometry": {"type": "Point", "coordinates": [74.40783222050455, 39.60042314849082]}, "properties": {"@featureType": "FaultAttitudePointView", "identifier": {"value": "https://geosciml4china.example.org/J43C001002/mappedfeature/fp.1879", "@codeSpace": "http://www.ietf.org/rfc/rfc2616"}, "observationName": "fault attitude measurement point", "label": "175.5°∠71°", "description": "倾向-倾角产状点（无运动指示）", "observedProperty": "planar orientation", "observedValue": "71", "observedValueUom": "deg", "propertyType_uri": "http://resource.geosciml.org/classifier/cgi/planarorientationtype/planar_orientation", "symbolRotation": 176, "genericSymbolizer": "fault_attitude_point", "featureOfInterest": "F005", "featureOfInterest_uri": "https://geosciml4china.example.org/J43C001002/fault/F005.4"}}, {"type": "Feature", "id": "https://geosciml4china.example.org/J43C001002/mappedfeature/fp.F005.3", "geometry": {"type": "Point", "coordinates": [74.13247852122733, 39.50456911980617]}, "properties": {"@featureType": "FaultAttitudePointView", "identifier": {"value": "https://geosciml4china.example.org/J43C001002/mappedfeature/fp.1875", "@codeSpace": "http://www.ietf.org/rfc/rfc2616"}, "observationName": "fault attitude measurement point", "label": "163.6°∠78°", "description": "a-b-a·逆断层产状点", "observedProperty": "planar orientation", "observedValue": "78", "observedValueUom": "deg", "propertyType_uri": "http://resource.geosciml.org/classifier/cgi/planarorientationtype/planar_orientation", "symbolRotation": 164, "genericSymbolizer": "fault_attitude_point", "featureOfInterest": "F005", "featureOfInterest_uri": "https://geosciml4china.example.org/J43C001002/fault/F005.5"}}, {"type": "Feature", "id": "https://geosciml4china.example.org/J43C001002/mappedfeature/fp.F005.2", "geometry": {"type": "Point", "coordinates": [74.35039878114422, 39.59069235663012]}, "properties": {"@featureType": "FaultAttitudePointView", "identifier": {"value": "https://geosciml4china.example.org/J43C001002/mappedfeature/fp.1880", "@codeSpace": "http://www.ietf.org/rfc/rfc2616"}, "observationName": "fault attitude measurement point", "label": "162.5°∠80°", "description": "a-b-a·逆断层产状点", "observedProperty": "planar orientation", "observedValue": "80", "observedValueUom": "deg", "propertyType_uri": "http://resource.geosciml.org/classifier/cgi/planarorientationtype/planar_orientation", "symbolRotation": 162, "genericSymbolizer": "fault_attitude_point", "featureOfInterest": "F005", "featureOfInterest_uri": "https://geosciml4china.example.org/J43C001002/fault/F005.5"}}, {"type": "Feature", "id": "https://geosciml4china.example.org/J43C001002/mappedfeature/fp.F090.1", "geometry": {"type": "Point", "coordinates": [74.95861512357195, 39.567669488282]}, "properties": {"@featureType": "FaultAttitudePointView", "identifier": {"value": "https://geosciml4china.example.org/J43C001002/mappedfeature/fp.1829", "@codeSpace": "http://www.ietf.org/rfc/rfc2616"}, "observationName": "fault attitude measurement point", "label": "90°（仅倾向）", "description": "倾向产状点（仅倾向，无倾角无运动指示）", "observedProperty": "planar orientation", "observedValue": "unknown", "observedValueUom": "deg", "propertyType_uri": "http://resource.geosciml.org/classifier/cgi/planarorientationtype/planar_orientation", "symbolRotation": 90, "genericSymbolizer": "fault_attitude_point", "featureOfInterest": "F090", "featureOfInterest_uri": "https://geosciml4china.example.org/J43C001002/fault/F090.1"}}, {"type": "Feature", "id": "https://geosciml4china.example.org/J43C001002/mappedfeature/fp.F107.1", "geometry": {"type": "Point", "coordinates": [74.85679452957109, 39.51333565001223]}, "properties": {"@featureType": "FaultAttitudePointView", "identifier": {"value": "https://geosciml4china.example.org/J43C001002/mappedfeature/fp.1824", "@codeSpace": "http://www.ietf.org/rfc/rfc2616"}, "observationName": "fault attitude measurement point", "label": "54.3°∠68°", "description": "倾向-倾角产状点（无运动指示）", "observedProperty": "planar orientation", "observedValue": "68", "observedValueUom": "deg", "propertyType_uri": "http://resource.geosciml.org/classifier/cgi/planarorientationtype/planar_orientation", "symbolRotation": 54, "genericSymbolizer": "fault_attitude_point", "featureOfInterest": "F107", "featureOfInterest_uri": "https://geosciml4china.example.org/J43C001002/fault/F107.1"}}, {"type": "Feature", "id": "https://geosciml4china.example.org/J43C001002/mappedfeature/fp.F003.2", "geometry": {"type": "Point", "coordinates": [73.98164709927678, 39.425588943349744]}, "properties": {"@featureType": "FaultAttitudePointView", "identifier": {"value": "https://geosciml4china.example.org/J43C001002/mappedfeature/fp.1853", "@codeSpace": "http://www.ietf.org/rfc/rfc2616"}, "observationName": "fault attitude measurement point", "label": "357.9°∠50°", "description": "a-b·逆断层产状点", "observedProperty": "planar orientation", "observedValue": "50", "observedValueUom": "deg", "propertyType_uri": "http://resource.geosciml.org/classifier/cgi/planarorientationtype/planar_orientation", "symbolRotation": 358, "genericSymbolizer": "fault_attitude_point", "featureOfInterest": "F003", "featureOfInterest_uri": "https://geosciml4china.example.org/J43C001002/fault/F003.4"}}, {"type": "Feature", "id": "https://geosciml4china.example.org/J43C001002/mappedfeature/fp.F003.1", "geometry": {"type": "Point", "coordinates": [74.11980637993881, 39.45950862467022]}, "properties": {"@featureType": "FaultAttitudePointView", "identifier": {"value": "https://geosciml4china.example.org/J43C001002/mappedfeature/fp.1876", "@codeSpace": "http://www.ietf.org/rfc/rfc2616"}, "observationName": "fault attitude measurement point", "label": "341.4°∠67°", "description": "a-b-a·逆断层产状点", "observedProperty": "planar orientation", "observedValue": "67", "observedValueUom": "deg", "propertyType_uri": "http://resource.geosciml.org/classifier/cgi/planarorientationtype/planar_orientation", "symbolRotation": 341, "genericSymbolizer": "fault_attitude_point", "featureOfInterest": "F003", "featureOfInterest_uri": "https://geosciml4china.example.org/J43C001002/fault/F003.4"}}, {"type": "Feature", "id": "https://geosciml4china.example.org/J43C001002/mappedfeature/fp.F010.1", "geometry": {"type": "Point", "coordinates": [73.97966741873645, 39.41401211402204]}, "properties": {"@featureType": "FaultAttitudePointView", "identifier": {"value": "https://geosciml4china.example.org/J43C001002/mappedfeature/fp.1856", "@codeSpace": "http://www.ietf.org/rfc/rfc2616"}, "observationName": "fault attitude measurement point", "label": "353.1°∠20°", "description": "倾向-倾角产状点（无运动指示）", "observedProperty": "planar orientation", "observedValue": "20", "observedValueUom": "deg", "propertyType_uri": "http://resource.geosciml.org/classifier/cgi/planarorientationtype/planar_orientation", "symbolRotation": 353, "genericSymbolizer": "fault_attitude_point", "featureOfInterest": "F010", "featureOfInterest_uri": "https://geosciml4china.example.org/J43C001002/fault/F010.1"}}, {"type": "Feature", "id": "https://geosciml4china.example.org/J43C001002/mappedfeature/fp.F005.4", "geometry": {"type": "Point", "coordinates": [74.08306998230425, 39.48900847111544]}, "properties": {"@featureType": "FaultAttitudePointView", "identifier": {"value": "https://geosciml4china.example.org/J43C001002/mappedfeature/fp.1871", "@codeSpace": "http://www.ietf.org/rfc/rfc2616"}, "observationName": "fault attitude measurement point", "label": "160.1°∠63°", "description": "a-b·逆断层产状点", "observedProperty": "planar orientation", "observedValue": "63", "observedValueUom": "deg", "propertyType_uri": "http://resource.geosciml.org/classifier/cgi/planarorientationtype/planar_orientation", "symbolRotation": 160, "genericSymbolizer": "fault_attitude_point", "featureOfInterest": "F005", "featureOfInterest_uri": "https://geosciml4china.example.org/J43C001002/fault/F005.6"}}, {"type": "Feature", "id": "https://geosciml4china.example.org/J43C001002/mappedfeature/fp.F067.1", "geometry": {"type": "Point", "coordinates": [74.82849712601346, 39.44959652104054]}, "properties": {"@featureType": "FaultAttitudePointView", "identifier": {"value": "https://geosciml4china.example.org/J43C001002/mappedfeature/fp.1830", "@codeSpace": "http://www.ietf.org/rfc/rfc2616"}, "observationName": "fault attitude measurement point", "label": "4.9°∠73°", "description": "a-b-a·正断层产状点", "observedProperty": "planar orientation", "observedValue": "73", "observedValueUom": "deg", "propertyType_uri": "http://resource.geosciml.org/classifier/cgi/planarorientationtype/planar_orientation", "symbolRotation": 5, "genericSymbolizer": "fault_attitude_point", "featureOfInterest": "F067", "featureOfInterest_uri": "https://geosciml4china.example.org/J43C001002/fault/F067.1"}}, {"type": "Feature", "id": "https://geosciml4china.example.org/J43C001002/mappedfeature/fp.F098.1", "geometry": {"type": "Point", "coordinates": [74.61590035953617, 39.438753716931686]}, "properties": {"@featureType": "FaultAttitudePointView", "identifier": {"value": "https://geosciml4china.example.org/J43C001002/mappedfeature/fp.1818", "@codeSpace": "http://www.ietf.org/rfc/rfc2616"}, "observationName": "fault attitude measurement point", "label": "353.9°∠74°", "description": "倾向-倾角产状点（无运动指示）", "observedProperty": "planar orientation", "observedValue": "74", "observedValueUom": "deg", "propertyType_uri": "http://resource.geosciml.org/classifier/cgi/planarorientationtype/planar_orientation", "symbolRotation": 354, "genericSymbolizer": "fault_attitude_point", "featureOfInterest": "F098", "featureOfInterest_uri": "https://geosciml4china.example.org/J43C001002/fault/F098.1"}}, {"type": "Feature", "id": "https://geosciml4china.example.org/J43C001002/mappedfeature/fp.F029.1", "geometry": {"type": "Point", "coordinates": [74.12294332572907, 39.40641186802484]}, "properties": {"@featureType": "FaultAttitudePointView", "identifier": {"value": "https://geosciml4china.example.org/J43C001002/mappedfeature/fp.1868", "@codeSpace": "http://www.ietf.org/rfc/rfc2616"}, "observationName": "fault attitude measurement point", "label": "178.6°∠65°", "description": "a-b-a·逆断层产状点", "observedProperty": "planar orientation", "observedValue": "65", "observedValueUom": "deg", "propertyType_uri": "http://resource.geosciml.org/classifier/cgi/planarorientationtype/planar_orientation", "symbolRotation": 179, "genericSymbolizer": "fault_attitude_point", "featureOfInterest": "F029", "featureOfInterest_uri": "https://geosciml4china.example.org/J43C001002/fault/F029.2"}}, {"type": "Feature", "id": "https://geosciml4china.example.org/J43C001002/mappedfeature/fp.F039.1", "geometry": {"type": "Point", "coordinates": [74.1213971610582, 39.40220222080181]}, "properties": {"@featureType": "FaultAttitudePointView", "identifier": {"value": "https://geosciml4china.example.org/J43C001002/mappedfeature/fp.1867", "@codeSpace": "http://www.ietf.org/rfc/rfc2616"}, "observationName": "fault attitude measurement point", "label": "166.6°∠50°", "description": "倾向-倾角产状点（无运动指示）", "observedProperty": "planar orientation", "observedValue": "50", "observedValueUom": "deg", "propertyType_uri": "http://resource.geosciml.org/classifier/cgi/planarorientationtype/planar_orientation", "symbolRotation": 167, "genericSymbolizer": "fault_attitude_point", "featureOfInterest": "F039", "featureOfInterest_uri": "https://geosciml4china.example.org/J43C001002/fault/F039.2"}}, {"type": "Feature", "id": "https://geosciml4china.example.org/J43C001002/mappedfeature/fp.F015.1", "geometry": {"type": "Point", "coordinates": [73.96807252174379, 39.38884210561909]}, "properties": {"@featureType": "FaultAttitudePointView", "identifier": {"value": "https://geosciml4china.example.org/J43C001002/mappedfeature/fp.1857", "@codeSpace": "http://www.ietf.org/rfc/rfc2616"}, "observationName": "fault attitude measurement point", "label": "348.9°∠25°", "description": "a-b-a·逆断层产状点", "observedProperty": "planar orientation", "observedValue": "25", "observedValueUom": "deg", "propertyType_uri": "http://resource.geosciml.org/classifier/cgi/planarorientationtype/planar_orientation", "symbolRotation": 349, "genericSymbolizer": "fault_attitude_point", "featureOfInterest": "F015", "featureOfInterest_uri": "https://geosciml4china.example.org/J43C001002/fault/F015.1"}}, {"type": "Feature", "id": "https://geosciml4china.example.org/J43C001002/mappedfeature/fp.F001.1", "geometry": {"type": "Point", "coordinates": [74.34103474025919, 39.392848878146886]}, "properties": {"@featureType": "FaultAttitudePointView", "identifier": {"value": "https://geosciml4china.example.org/J43C001002/mappedfeature/fp.1914", "@codeSpace": "http://www.ietf.org/rfc/rfc2616"}, "observationName": "fault attitude measurement point", "label": "221.7°（仅倾向）", "description": "a-b-a·逆断层产状点", "observedProperty": "planar orientation", "observedValue": "unknown", "observedValueUom": "deg", "propertyType_uri": "http://resource.geosciml.org/classifier/cgi/planarorientationtype/planar_orientation", "symbolRotation": 222, "genericSymbolizer": "fault_attitude_point", "featureOfInterest": "F48", "featureOfInterest_uri": "https://geosciml4china.example.org/J43C001002/fault/F001.3"}}, {"type": "Feature", "id": "https://geosciml4china.example.org/J43C001002/mappedfeature/fp.F001.2", "geometry": {"type": "Point", "coordinates": [74.08709451394368, 39.390436669282536]}, "properties": {"@featureType": "FaultAttitudePointView", "identifier": {"value": "https://geosciml4china.example.org/J43C001002/mappedfeature/fp.1863", "@codeSpace": "http://www.ietf.org/rfc/rfc2616"}, "observationName": "fault attitude measurement point", "label": "179.6°∠58°", "description": "a-b-a·逆断层产状点", "observedProperty": "planar orientation", "observedValue": "58", "observedValueUom": "deg", "propertyType_uri": "http://resource.geosciml.org/classifier/cgi/planarorientationtype/planar_orientation", "symbolRotation": 180, "genericSymbolizer": "fault_attitude_point", "featureOfInterest": "F48", "featureOfInterest_uri": "https://geosciml4china.example.org/J43C001002/fault/F001.5"}}, {"type": "Feature", "id": "https://geosciml4china.example.org/J43C001002/mappedfeature/fp.F001.3", "geometry": {"type": "Point", "coordinates": [74.1324695343279, 39.393372402916704]}, "properties": {"@featureType": "FaultAttitudePointView", "identifier": {"value": "https://geosciml4china.example.org/J43C001002/mappedfeature/fp.1864", "@codeSpace": "http://www.ietf.org/rfc/rfc2616"}, "observationName": "fault attitude measurement point", "label": "169.6°∠57°", "description": "a-b-a·逆断层产状点", "observedProperty": "planar orientation", "observedValue": "57", "observedValueUom": "deg", "propertyType_uri": "http://resource.geosciml.org/classifier/cgi/planarorientationtype/planar_orientation", "symbolRotation": 170, "genericSymbolizer": "fault_attitude_point", "featureOfInterest": "F48", "featureOfInterest_uri": "https://geosciml4china.example.org/J43C001002/fault/F001.5"}}, {"type": "Feature", "id": "https://geosciml4china.example.org/J43C001002/mappedfeature/fp.F001.4", "geometry": {"type": "Point", "coordinates": [74.48205834022113, 39.39168146394937]}, "properties": {"@featureType": "FaultAttitudePointView", "identifier": {"value": "https://geosciml4china.example.org/J43C001002/mappedfeature/fp.1883", "@codeSpace": "http://www.ietf.org/rfc/rfc2616"}, "observationName": "fault attitude measurement point", "label": "171.8°∠65°", "description": "a-b-a·逆断层产状点", "observedProperty": "planar orientation", "observedValue": "65", "observedValueUom": "deg", "propertyType_uri": "http://resource.geosciml.org/classifier/cgi/planarorientationtype/planar_orientation", "symbolRotation": 172, "genericSymbolizer": "fault_attitude_point", "featureOfInterest": "F48", "featureOfInterest_uri": "https://geosciml4china.example.org/J43C001002/fault/F001.6"}}, {"type": "Feature", "id": "https://geosciml4china.example.org/J43C001002/mappedfeature/fp.F008.1", "geometry": {"type": "Point", "coordinates": [74.0742113904018, 39.362482399687224]}, "properties": {"@featureType": "FaultAttitudePointView", "identifier": {"value": "https://geosciml4china.example.org/J43C001002/mappedfeature/fp.1900", "@codeSpace": "http://www.ietf.org/rfc/rfc2616"}, "observationName": "fault attitude measurement point", "label": "183.2°∠55°", "description": "a-b-a·逆断层产状点", "observedProperty": "planar orientation", "observedValue": "55", "observedValueUom": "deg", "propertyType_uri": "http://resource.geosciml.org/classifier/cgi/planarorientationtype/planar_orientation", "symbolRotation": 183, "genericSymbolizer": "fault_attitude_point", "featureOfInterest": "F008", "featureOfInterest_uri": "https://geosciml4china.example.org/J43C001002/fault/F008.1"}}, {"type": "Feature", "id": "https://geosciml4china.example.org/J43C001002/mappedfeature/fp.F088.1", "geometry": {"type": "Point", "coordinates": [74.66943978798872, 39.35699657099558]}, "properties": {"@featureType": "FaultAttitudePointView", "identifier": {"value": "https://geosciml4china.example.org/J43C001002/mappedfeature/fp.1820", "@codeSpace": "http://www.ietf.org/rfc/rfc2616"}, "observationName": "fault attitude measurement point", "label": "215.5°∠78°", "description": "倾向-倾角产状点（无运动指示）", "observedProperty": "planar orientation", "observedValue": "78", "observedValueUom": "deg", "propertyType_uri": "http://resource.geosciml.org/classifier/cgi/planarorientationtype/planar_orientation", "symbolRotation": 216, "genericSymbolizer": "fault_attitude_point", "featureOfInterest": "F088", "featureOfInterest_uri": "https://geosciml4china.example.org/J43C001002/fault/F088.1"}}, {"type": "Feature", "id": "https://geosciml4china.example.org/J43C001002/mappedfeature/fp.F122.1", "geometry": {"type": "Point", "coordinates": [74.7051793696555, 39.350565513067224]}, "properties": {"@featureType": "FaultAttitudePointView", "identifier": {"value": "https://geosciml4china.example.org/J43C001002/mappedfeature/fp.1821", "@codeSpace": "http://www.ietf.org/rfc/rfc2616"}, "observationName": "fault attitude measurement point", "label": "199.3°∠68°", "description": "倾向-倾角产状点（无运动指示）", "observedProperty": "planar orientation", "observedValue": "68", "observedValueUom": "deg", "propertyType_uri": "http://resource.geosciml.org/classifier/cgi/planarorientationtype/planar_orientation", "symbolRotation": 199, "genericSymbolizer": "fault_attitude_point", "featureOfInterest": "F122", "featureOfInterest_uri": "https://geosciml4china.example.org/J43C001002/fault/F122.2"}}, {"type": "Feature", "id": "https://geosciml4china.example.org/J43C001002/mappedfeature/fp.F117.1", "geometry": {"type": "Point", "coordinates": [74.0744427354167, 39.34193362437127]}, "properties": {"@featureType": "FaultAttitudePointView", "identifier": {"value": "https://geosciml4china.example.org/J43C001002/mappedfeature/fp.1904", "@codeSpace": "http://www.ietf.org/rfc/rfc2616"}, "observationName": "fault attitude measurement point", "label": "30.3°∠50°", "description": "倾向-倾角产状点（无运动指示）", "observedProperty": "planar orientation", "observedValue": "50", "observedValueUom": "deg", "propertyType_uri": "http://resource.geosciml.org/classifier/cgi/planarorientationtype/planar_orientation", "symbolRotation": 30, "genericSymbolizer": "fault_attitude_point", "featureOfInterest": "F117", "featureOfInterest_uri": "https://geosciml4china.example.org/J43C001002/fault/F117.1"}}, {"type": "Feature", "id": "https://geosciml4china.example.org/J43C001002/mappedfeature/fp.F001.5", "geometry": {"type": "Point", "coordinates": [74.82134387089489, 39.34507431905296]}, "properties": {"@featureType": "FaultAttitudePointView", "identifier": {"value": "https://geosciml4china.example.org/J43C001002/mappedfeature/fp.1845", "@codeSpace": "http://www.ietf.org/rfc/rfc2616"}, "observationName": "fault attitude measurement point", "label": "208°∠50°", "description": "a-b-a·逆断层产状点", "observedProperty": "planar orientation", "observedValue": "50", "observedValueUom": "deg", "propertyType_uri": "http://resource.geosciml.org/classifier/cgi/planarorientationtype/planar_orientation", "symbolRotation": 208, "genericSymbolizer": "fault_attitude_point", "featureOfInterest": "F48", "featureOfInterest_uri": "https://geosciml4china.example.org/J43C001002/fault/F001.13"}}, {"type": "Feature", "id": "https://geosciml4china.example.org/J43C001002/mappedfeature/fp.F008.2", "geometry": {"type": "Point", "coordinates": [74.59435743654758, 39.285593141799644]}, "properties": {"@featureType": "FaultAttitudePointView", "identifier": {"value": "https://geosciml4china.example.org/J43C001002/mappedfeature/fp.1930", "@codeSpace": "http://www.ietf.org/rfc/rfc2616"}, "observationName": "fault attitude measurement point", "label": "214.1°∠45°", "description": "倾向-倾角产状点（无运动指示）", "observedProperty": "planar orientation", "observedValue": "45", "observedValueUom": "deg", "propertyType_uri": "http://resource.geosciml.org/classifier/cgi/planarorientationtype/planar_orientation", "symbolRotation": 214, "genericSymbolizer": "fault_attitude_point", "featureOfInterest": "F008", "featureOfInterest_uri": "https://geosciml4china.example.org/J43C001002/fault/F008.9"}}, {"type": "Feature", "id": "https://geosciml4china.example.org/J43C001002/mappedfeature/fp.F011.1", "geometry": {"type": "Point", "coordinates": [74.56565109459632, 39.28026979588207]}, "properties": {"@featureType": "FaultAttitudePointView", "identifier": {"value": "https://geosciml4china.example.org/J43C001002/mappedfeature/fp.1933", "@codeSpace": "http://www.ietf.org/rfc/rfc2616"}, "observationName": "fault attitude measurement point", "label": "180.8°∠78°", "description": "倾向-倾角产状点（无运动指示）", "observedProperty": "planar orientation", "observedValue": "78", "observedValueUom": "deg", "propertyType_uri": "http://resource.geosciml.org/classifier/cgi/planarorientationtype/planar_orientation", "symbolRotation": 181, "genericSymbolizer": "fault_attitude_point", "featureOfInterest": "F011", "featureOfInterest_uri": "https://geosciml4china.example.org/J43C001002/fault/F011.5"}}, {"type": "Feature", "id": "https://geosciml4china.example.org/J43C001002/mappedfeature/fp.F011.2", "geometry": {"type": "Point", "coordinates": [74.70998716230083, 39.29845261446001]}, "properties": {"@featureType": "FaultAttitudePointView", "identifier": {"value": "https://geosciml4china.example.org/J43C001002/mappedfeature/fp.1929", "@codeSpace": "http://www.ietf.org/rfc/rfc2616"}, "observationName": "fault attitude measurement point", "label": "128.6°∠46°", "description": "倾向-倾角产状点（无运动指示）", "observedProperty": "planar orientation", "observedValue": "46", "observedValueUom": "deg", "propertyType_uri": "http://resource.geosciml.org/classifier/cgi/planarorientationtype/planar_orientation", "symbolRotation": 129, "genericSymbolizer": "fault_attitude_point", "featureOfInterest": "F011", "featureOfInterest_uri": "https://geosciml4china.example.org/J43C001002/fault/F011.6"}}, {"type": "Feature", "id": "https://geosciml4china.example.org/J43C001002/mappedfeature/fp.F050.1", "geometry": {"type": "Point", "coordinates": [73.8330561923068, 39.195322147427795]}, "properties": {"@featureType": "FaultAttitudePointView", "identifier": {"value": "https://geosciml4china.example.org/J43C001002/mappedfeature/fp.1816", "@codeSpace": "http://www.ietf.org/rfc/rfc2616"}, "observationName": "fault attitude measurement point", "label": "220.3°∠70°", "description": "a-b-a·正断层产状点", "observedProperty": "planar orientation", "observedValue": "70", "observedValueUom": "deg", "propertyType_uri": "http://resource.geosciml.org/classifier/cgi/planarorientationtype/planar_orientation", "symbolRotation": 220, "genericSymbolizer": "fault_attitude_point", "featureOfInterest": "F050", "featureOfInterest_uri": "https://geosciml4china.example.org/J43C001002/fault/F050.2"}}, {"type": "Feature", "id": "https://geosciml4china.example.org/J43C001002/mappedfeature/fp.F060.1", "geometry": {"type": "Point", "coordinates": [74.05184712072055, 39.197148374982156]}, "properties": {"@featureType": "FaultAttitudePointView", "identifier": {"value": "https://geosciml4china.example.org/J43C001002/mappedfeature/fp.1919", "@codeSpace": "http://www.ietf.org/rfc/rfc2616"}, "observationName": "fault attitude measurement point", "label": "30.7°∠85°", "description": "a-b-a·逆断层产状点", "observedProperty": "planar orientation", "observedValue": "85", "observedValueUom": "deg", "propertyType_uri": "http://resource.geosciml.org/classifier/cgi/planarorientationtype/planar_orientation", "symbolRotation": 31, "genericSymbolizer": "fault_attitude_point", "featureOfInterest": "F060", "featureOfInterest_uri": "https://geosciml4china.example.org/J43C001002/fault/F060.1"}}, {"type": "Feature", "id": "https://geosciml4china.example.org/J43C001002/mappedfeature/fp.F013.1", "geometry": {"type": "Point", "coordinates": [74.8999729562841, 39.09965479298612]}, "properties": {"@featureType": "FaultAttitudePointView", "identifier": {"value": "https://geosciml4china.example.org/J43C001002/mappedfeature/fp.1927", "@codeSpace": "http://www.ietf.org/rfc/rfc2616"}, "observationName": "fault attitude measurement point", "label": "43.6°（仅倾向）", "description": "倾向产状点（仅倾向，无倾角无运动指示）", "observedProperty": "planar orientation", "observedValue": "unknown", "observedValueUom": "deg", "propertyType_uri": "http://resource.geosciml.org/classifier/cgi/planarorientationtype/planar_orientation", "symbolRotation": 44, "genericSymbolizer": "fault_attitude_point", "featureOfInterest": "F013", "featureOfInterest_uri": "https://geosciml4china.example.org/J43C001002/fault/F013.5"}}, {"type": "Feature", "id": "https://geosciml4china.example.org/J43C001002/mappedfeature/fp.F112.1", "geometry": {"type": "Point", "coordinates": [74.94242563533535, 39.08044616274521]}, "properties": {"@featureType": "FaultAttitudePointView", "identifier": {"value": "https://geosciml4china.example.org/J43C001002/mappedfeature/fp.1925", "@codeSpace": "http://www.ietf.org/rfc/rfc2616"}, "observationName": "fault attitude measurement point", "label": "3.5°∠26°", "description": "倾向-倾角产状点（无运动指示）", "observedProperty": "planar orientation", "observedValue": "26", "observedValueUom": "deg", "propertyType_uri": "http://resource.geosciml.org/classifier/cgi/planarorientationtype/planar_orientation", "symbolRotation": 4, "genericSymbolizer": "fault_attitude_point", "featureOfInterest": "F112", "featureOfInterest_uri": "https://geosciml4china.example.org/J43C001002/fault/F112.1"}}, {"type": "Feature", "id": "https://geosciml4china.example.org/J43C001002/mappedfeature/fp.F114.1", "geometry": {"type": "Point", "coordinates": [74.96059586890945, 39.074815328328874]}, "properties": {"@featureType": "FaultAttitudePointView", "identifier": {"value": "https://geosciml4china.example.org/J43C001002/mappedfeature/fp.1924", "@codeSpace": "http://www.ietf.org/rfc/rfc2616"}, "observationName": "fault attitude measurement point", "label": "64.8°∠25°", "description": "倾向-倾角产状点（无运动指示）", "observedProperty": "planar orientation", "observedValue": "25", "observedValueUom": "deg", "propertyType_uri": "http://resource.geosciml.org/classifier/cgi/planarorientationtype/planar_orientation", "symbolRotation": 65, "genericSymbolizer": "fault_attitude_point", "featureOfInterest": "F114", "featureOfInterest_uri": "https://geosciml4china.example.org/J43C001002/fault/F114.1"}}, {"type": "Feature", "id": "https://geosciml4china.example.org/J43C001002/mappedfeature/fp.F114.2", "geometry": {"type": "Point", "coordinates": [74.98696924252853, 39.05776293703513]}, "properties": {"@featureType": "FaultAttitudePointView", "identifier": {"value": "https://geosciml4china.example.org/J43C001002/mappedfeature/fp.1923", "@codeSpace": "http://www.ietf.org/rfc/rfc2616"}, "observationName": "fault attitude measurement point", "label": "58.5°（仅倾向）", "description": "倾向产状点（仅倾向，无倾角无运动指示）", "observedProperty": "planar orientation", "observedValue": "unknown", "observedValueUom": "deg", "propertyType_uri": "http://resource.geosciml.org/classifier/cgi/planarorientationtype/planar_orientation", "symbolRotation": 58, "genericSymbolizer": "fault_attitude_point", "featureOfInterest": "F114", "featureOfInterest_uri": "https://geosciml4china.example.org/J43C001002/fault/F114.2"}}, {"type": "Feature", "id": "https://geosciml4china.example.org/J43C001002/mappedfeature/fp.F042.1", "geometry": {"type": "Point", "coordinates": [74.72686940579538, 39.039764733122325]}, "properties": {"@featureType": "FaultAttitudePointView", "identifier": {"value": "https://geosciml4china.example.org/J43C001002/mappedfeature/fp.1935", "@codeSpace": "http://www.ietf.org/rfc/rfc2616"}, "observationName": "fault attitude measurement point", "label": "50.1°∠69°", "description": "倾向-倾角产状点（无运动指示）", "observedProperty": "planar orientation", "observedValue": "69", "observedValueUom": "deg", "propertyType_uri": "http://resource.geosciml.org/classifier/cgi/planarorientationtype/planar_orientation", "symbolRotation": 50, "genericSymbolizer": "fault_attitude_point", "featureOfInterest": "F042", "featureOfInterest_uri": "https://geosciml4china.example.org/J43C001002/fault/F042.3"}}, {"type": "Feature", "id": "https://geosciml4china.example.org/J43C001002/mappedfeature/fp.F014.1", "geometry": {"type": "Point", "coordinates": [74.93911952997831, 39.00411325093316]}, "properties": {"@featureType": "FaultAttitudePointView", "identifier": {"value": "https://geosciml4china.example.org/J43C001002/mappedfeature/fp.1926", "@codeSpace": "http://www.ietf.org/rfc/rfc2616"}, "observationName": "fault attitude measurement point", "label": "167.9°（仅倾向）", "description": "a-b-a·逆断层产状点", "observedProperty": "planar orientation", "observedValue": "unknown", "observedValueUom": "deg", "propertyType_uri": "http://resource.geosciml.org/classifier/cgi/planarorientationtype/planar_orientation", "symbolRotation": 168, "genericSymbolizer": "fault_attitude_point", "featureOfInterest": "F014", "featureOfInterest_uri": "https://geosciml4china.example.org/J43C001002/fault/F014.5"}}]}