{"type": "FeatureCollection", "name": "FoldView", "features": [{"type": "Feature", "id": "https://geosciml4china.example.org/J43C001002/fold/1", "geometry": {"type": "LineString", "coordinates": [[74.19133790992372, 39.27837168777433], [74.21779329123925, 39.27598474576787], [74.23690735822606, 39.273543899072024], [74.25895329765548, 39.27140390230402], [74.28798084933538, 39.26844672247978], [74.32288971301173, 39.26409015832872], [74.36292936665389, 39.26003659272348], [74.40739301956648, 39.253138825950685], [74.43200288321079, 39.25040842971137], [74.45772960314801, 39.24482503510158], [74.48309571392484, 39.238378417182794], [74.50219591148327, 39.23503799000228], [74.52314207438538, 39.22999016996933], [74.54517714016211, 39.22579875168407], [74.56207313291095, 39.22215454974197], [74.5763986066321, 39.21906917333616], [74.59183166503298, 39.21398879808342], [74.62233662550669, 39.20210887746152], [74.64218818815596, 39.19218584355031], [74.67380598547238, 39.17316312377472], [74.7061535088642, 39.15128049433065], [74.74030956137722, 39.12939282894417], [74.78031118938152, 39.106364958697924], [74.81807345275661, 39.08874070489356], [74.8700955627314, 39.06883840652054], [74.93233688646133, 39.04863387576775], [74.9864930248614, 39.03010728494337], [74.99892931487689, 39.02525770761914]]}, "properties": {"@featureType": "FoldView", "identifier": {"value": "https://geosciml4china.example.org/J43C001002/fold/1", "@codeSpace": "http://www.ietf.org/rfc/rfc2616"}, "label": "B8（阿克萨依背斜）", "observationName": "fold axis", "genericSymbolizer": "02", "GZCE": "02"}}, {"type": "Feature", "id": "https://geosciml4china.example.org/J43C001002/fold/2", "geometry": {"type": "LineString", "coordinates": [[73.92753796552113, 39.32492912712114], [74.02312961358945, 39.32086026683532], [74.10117551257287, 39.31494185942149], [74.14549521011038, 39.309273979115964], [74.20107963409511, 39.30039340803387], [74.24605457987256, 39.2974197071626], [74.30716774171879, 39.2950713917307], [74.36898339332839, 39.29269476585412], [74.42097519679773, 39.28860004705565], [74.50809120995707, 39.28136206753668], [74.56288191710172, 39.27612448781225], [74.60151905179806, 39.27135255962342], [74.66684840944798, 39.26173664160437], [74.73005495292192, 39.25153351804741], [74.78833668115016, 39.23965033952492]]}, "properties": {"@featureType": "FoldView", "identifier": {"value": "https://geosciml4china.example.org/J43C001002/fold/2", "@codeSpace": "http://www.ietf.org/rfc/rfc2616"}, "label": "B7（玛尔坎土山复背斜）", "observationName": "fold axis", "genericSymbolizer": "04", "GZCE": "04"}}, {"type": "Feature", "id": "https://geosciml4china.example.org/J43C001002/fold/3", "geometry": {"type": "LineString", "coordinates": [[73.75743975721352, 39.409985676356285], [73.831091891574, 39.42166080991651], [73.8809397342327, 39.42760693722664], [73.95962334847391, 39.434884402092166], [74.00878343027824, 39.44131521503967], [74.0452802053788, 39.448167598031546], [74.0943582236934, 39.462199871946204], [74.1420618256557, 39.47511015864637], [74.20241185595866, 39.491907477191795], [74.2606920958698, 39.507569176850694], [74.32254987822824, 39.51994908031843], [74.37108130441251, 39.52840561584654], [74.42174556766525, 39.53576136627366], [74.4794540511334, 39.545309155119426], [74.54635659124251, 39.552136615189056], [74.59706577834952, 39.55777939153164], [74.65061782354812, 39.56122625360935], [74.70558343273838, 39.56410645509624], [74.72955812072664, 39.56252793723293], [74.76834819230213, 39.55606462003945], [74.84170726972778, 39.53054475334422], [74.89316919082923, 39.51096196279133], [74.94459978365849, 39.495721092102784]]}, "properties": {"@featureType": "FoldView", "identifier": {"value": "https://geosciml4china.example.org/J43C001002/fold/3", "@codeSpace": "http://www.ietf.org/rfc/rfc2616"}, "label": "X15（交日铁盖铁复向斜）", "observationName": "fold axis", "genericSymbolizer": "03", "GZCE": "03"}}, {"type": "Feature", "id": "https://geosciml4china.example.org/J43C001002/fold/4", "geometry": {"type": "LineString", "coordinates": [[74.06448810536598, 39.69492499632935], [74.09991792927626, 39.73994145511845], [74.11876193116103, 39.75863518085403], [74.1404827664938, 39.774073811514015], [74.16575550971254, 39.788988396537505], [74.19109034845702, 39.79953342401882], [74.23128516273337, 39.810172339094024], [74.27433587477881, 39.8197241073855], [74.31459562114745, 39.82651565855624], [74.34147121506909, 39.82776244046353], [74.3811132829489, 39.82579842932229], [74.41439693140242, 39.822697810944945], [74.45899952099191, 39.81909541128356], [74.56654259644846, 39.81845588288018], [74.60403872007251, 39.81858990197291], [74.62384906533133, 39.81811025596769], [74.64085315993206, 39.81379959266099], [74.66638398978168, 39.800782173933506], [74.68980721175592, 39.7822977807453], [74.71606575921294, 39.75890540039718]]}, "properties": {"@featureType": "FoldView", "identifier": {"value": "https://geosciml4china.example.org/J43C001002/fold/4", "@codeSpace": "http://www.ietf.org/rfc/rfc2616"}, "label": "X8（乌鲁克恰提复向斜）", "observationName": "fold axis", "genericSymbolizer": "03", "GZCE": "03"}}]}