{"type": "FeatureCollection", "name": "GeologicSpecimenView", "features": [{"type": "Feature", "id": "https://geosciml4china.example.org/J43C001002/specimen/S3-4t.1", "geometry": {"type": "Point", "coordinates": [74.10169500494652, 39.8368974341525]}, "properties": {"@featureType": "GeologicSpecimenView", "identifier": {"value": "https://geosciml4china.example.org/J43C001002/specimen/S3-4t.1", "@codeSpace": "http://www.ietf.org/rfc/rfc2616"}, "label": "动物化石", "description": "动物化石（化石产地；宿主 塔尔特库里组；标定 verdict=verified）", "specimenType": "化石产地", "source": "LDZOFBB099.WT（1:25万建造构造图）", "specimenType_uri": "http://www.opengis.net/def/nil/OGC/0/unknown", "materialClass_uri": "http://www.opengis.net/def/nil/OGC/0/unknown", "genericSymbolizer": "1445", "symbol_no": 1445, "height": 2.0001395, "angle": 0.442940354347229}}, {"type": "Feature", "id": "https://geosciml4china.example.org/J43C001002/specimen/S3-4t.2", "geometry": {"type": "Point", "coordinates": [74.10283712757548, 39.840123382562375]}, "properties": {"@featureType": "GeologicSpecimenView", "identifier": {"value": "https://geosciml4china.example.org/J43C001002/specimen/S3-4t.2", "@codeSpace": "http://www.ietf.org/rfc/rfc2616"}, "label": "动物化石", "description": "动物化石（化石产地；宿主 塔尔特库里组；标定 verdict=verified）", "specimenType": "化石产地", "source": "LDZOFBB099.WT（1:25万建造构造图）", "specimenType_uri": "http://www.opengis.net/def/nil/OGC/0/unknown", "materialClass_uri": "http://www.opengis.net/def/nil/OGC/0/unknown", "genericSymbolizer": "1445", "symbol_no": 1445, "height": 2.0001395, "angle": 0.44238409399986267}}, {"type": "Feature", "id": "https://geosciml4china.example.org/J43C001002/specimen/S3-4t.3", "geometry": {"type": "Point", "coordinates": [74.124662707474, 39.8657458187597]}, "properties": {"@featureType": "GeologicSpecimenView", "identifier": {"value": "https://geosciml4china.example.org/J43C001002/specimen/S3-4t.3", "@codeSpace": "http://www.ietf.org/rfc/rfc2616"}, "label": "动物化石", "description": "动物化石（化石产地；宿主 塔尔特库里组；标定 verdict=verified）", "specimenType": "化石产地", "source": "LDZOFBB099.WT（1:25万建造构造图）", "specimenType_uri": "http://www.opengis.net/def/nil/OGC/0/unknown", "materialClass_uri": "http://www.opengis.net/def/nil/OGC/0/unknown", "genericSymbolizer": "1445", "symbol_no": 1445, "height": 2.0001395, "angle": 0.4316727817058563}}, {"type": "Feature", "id": "https://geosciml4china.example.org/J43C001002/specimen/J1k.1", "geometry": {"type": "Point", "coordinates": [74.94460188611089, 39.80842834959459]}, "properties": {"@featureType": "GeologicSpecimenView", "identifier": {"value": "https://geosciml4china.example.org/J43C001002/specimen/J1k.1", "@codeSpace": "http://www.ietf.org/rfc/rfc2616"}, "label": "动物化石", "description": "动物化石（化石产地；宿主 康苏组；标定 verdict=verified）", "specimenType": "化石产地", "source": "LDZOFBB099.WT（1:25万建造构造图）", "specimenType_uri": "http://www.opengis.net/def/nil/OGC/0/unknown", "materialClass_uri": "http://www.opengis.net/def/nil/OGC/0/unknown", "genericSymbolizer": "1445", "symbol_no": 1445, "height": 2.0, "angle": 0.026633556932210922}}, {"type": "Feature", "id": "https://geosciml4china.example.org/J43C001002/specimen/J1k.2", "geometry": {"type": "Point", "coordinates": [74.94562384105473, 39.804291645323744]}, "properties": {"@featureType": "GeologicSpecimenView", "identifier": {"value": "https://geosciml4china.example.org/J43C001002/specimen/J1k.2", "@codeSpace": "http://www.ietf.org/rfc/rfc2616"}, "label": "动物化石", "description": "动物化石（化石产地；宿主 康苏组；标定 verdict=verified）", "specimenType": "化石产地", "source": "LDZOFBB099.WT（1:25万建造构造图）", "specimenType_uri": "http://www.opengis.net/def/nil/OGC/0/unknown", "materialClass_uri": "http://www.opengis.net/def/nil/OGC/0/unknown", "genericSymbolizer": "1445", "symbol_no": 1445, "height": 2.0, "angle": 0.02612781710922718}}, {"type": "Feature", "id": "https://geosciml4china.example.org/J43C001002/specimen/J1k.3", "geometry": {"type": "Point", "coordinates": [74.94339822774963, 39.814503033148355]}, "properties": {"@featureType": "GeologicSpecimenView", "identifier": {"value": "https://geosciml4china.example.org/J43C001002/specimen/J1k.3", "@codeSpace": "http://www.ietf.org/rfc/rfc2616"}, "label": "动物化石", "description": "动物化石（化石产地；宿主 康苏组；标定 verdict=verified）", "specimenType": "化石产地", "source": "LDZOFBB099.WT（1:25万建造构造图）", "specimenType_uri": "http://www.opengis.net/def/nil/OGC/0/unknown", "materialClass_uri": "http://www.opengis.net/def/nil/OGC/0/unknown", "genericSymbolizer": "1445", "symbol_no": 1445, "height": 2.0, "angle": 0.027228858321905136}}, {"type": "Feature", "id": "https://geosciml4china.example.org/J43C001002/specimen/J2y.1", "geometry": {"type": "Point", "coordinates": [74.9490681360523, 39.79782009855668]}, "properties": {"@featureType": "GeologicSpecimenView", "identifier": {"value": "https://geosciml4china.example.org/J43C001002/specimen/J2y.1", "@codeSpace": "http://www.ietf.org/rfc/rfc2616"}, "label": "植物化石", "description": "植物化石（化石产地；宿主 杨叶组；标定 verdict=verified）", "specimenType": "化石产地", "source": "LDZOFBB099.WT（1:25万建造构造图）", "specimenType_uri": "http://www.opengis.net/def/nil/OGC/0/unknown", "materialClass_uri": "http://www.opengis.net/def/nil/OGC/0/unknown", "genericSymbolizer": "1415", "symbol_no": 1415, "height": 2.0, "angle": 0.024426745250821114}}, {"type": "Feature", "id": "https://geosciml4china.example.org/J43C001002/specimen/EK.1", "geometry": {"type": "Point", "coordinates": [74.53522997866428, 39.8487220861452]}, "properties": {"@featureType": "GeologicSpecimenView", "identifier": {"value": "https://geosciml4china.example.org/J43C001002/specimen/EK.1", "@codeSpace": "http://www.ietf.org/rfc/rfc2616"}, "label": "动物化石", "description": "动物化石（化石产地；宿主 喀什群；标定 verdict=verified）", "specimenType": "化石产地", "source": "LDZOFBB099.WT（1:25万建造构造图）", "specimenType_uri": "http://www.opengis.net/def/nil/OGC/0/unknown", "materialClass_uri": "http://www.opengis.net/def/nil/OGC/0/unknown", "genericSymbolizer": "1445", "symbol_no": 1445, "height": 2.0, "angle": 0.22882887721061707}}, {"type": "Feature", "id": "https://geosciml4china.example.org/J43C001002/specimen/EK.2", "geometry": {"type": "Point", "coordinates": [74.62072308210455, 39.7710084632306]}, "properties": {"@featureType": "GeologicSpecimenView", "identifier": {"value": "https://geosciml4china.example.org/J43C001002/specimen/EK.2", "@codeSpace": "http://www.ietf.org/rfc/rfc2616"}, "label": "动物化石", "description": "动物化石（化石产地；宿主 喀什群；标定 verdict=verified）", "specimenType": "化石产地", "source": "LDZOFBB099.WT（1:25万建造构造图）", "specimenType_uri": "http://www.opengis.net/def/nil/OGC/0/unknown", "materialClass_uri": "http://www.opengis.net/def/nil/OGC/0/unknown", "genericSymbolizer": "1445", "symbol_no": 1445, "height": 2.0, "angle": 0.18651250004768372}}, {"type": "Feature", "id": "https://geosciml4china.example.org/J43C001002/specimen/EK.3", "geometry": {"type": "Point", "coordinates": [74.30405344203106, 39.65286274676836]}, "properties": {"@featureType": "GeologicSpecimenView", "identifier": {"value": "https://geosciml4china.example.org/J43C001002/specimen/EK.3", "@codeSpace": "http://www.ietf.org/rfc/rfc2616"}, "label": "动物化石", "description": "动物化石（化石产地；宿主 喀什群；标定 verdict=verified）", "specimenType": "化石产地", "source": "LDZOFBB099.WT（1:25万建造构造图）", "specimenType_uri": "http://www.opengis.net/def/nil/OGC/0/unknown", "materialClass_uri": "http://www.opengis.net/def/nil/OGC/0/unknown", "genericSymbolizer": "1445", "symbol_no": 1445, "height": 2.0, "angle": 356.7662658691406}}, {"type": "Feature", "id": "https://geosciml4china.example.org/J43C001002/specimen/EK.4", "geometry": {"type": "Point", "coordinates": [74.29546347431659, 39.63931369149635]}, "properties": {"@featureType": "GeologicSpecimenView", "identifier": {"value": "https://geosciml4china.example.org/J43C001002/specimen/EK.4", "@codeSpace": "http://www.ietf.org/rfc/rfc2616"}, "label": "动物化石", "description": "动物化石（化石产地；宿主 喀什群；标定 verdict=verified）", "specimenType": "化石产地", "source": "LDZOFBB099.WT（1:25万建造构造图）", "specimenType_uri": "http://www.opengis.net/def/nil/OGC/0/unknown", "materialClass_uri": "http://www.opengis.net/def/nil/OGC/0/unknown", "genericSymbolizer": "1445", "symbol_no": 1445, "height": 2.0, "angle": 357.3340148925781}}, {"type": "Feature", "id": "https://geosciml4china.example.org/J43C001002/specimen/EK.5", "geometry": {"type": "Point", "coordinates": [74.01106172339688, 39.44988501005955]}, "properties": {"@featureType": "GeologicSpecimenView", "identifier": {"value": "https://geosciml4china.example.org/J43C001002/specimen/EK.5", "@codeSpace": "http://www.ietf.org/rfc/rfc2616"}, "label": "动物化石", "description": "动物化石（化石产地；宿主 喀什群；标定 verdict=verified）", "specimenType": "化石产地", "source": "LDZOFBB099.WT（1:25万建造构造图）", "specimenType_uri": "http://www.opengis.net/def/nil/OGC/0/unknown", "materialClass_uri": "http://www.opengis.net/def/nil/OGC/0/unknown", "genericSymbolizer": "1445", "symbol_no": 1445, "height": 2.0, "angle": 0.4864892363548279}}, {"type": "Feature", "id": "https://geosciml4china.example.org/J43C001002/specimen/EK.6", "geometry": {"type": "Point", "coordinates": [73.94831238310182, 39.72352097275742]}, "properties": {"@featureType": "GeologicSpecimenView", "identifier": {"value": "https://geosciml4china.example.org/J43C001002/specimen/EK.6", "@codeSpace": "http://www.ietf.org/rfc/rfc2616"}, "label": "动物化石", "description": "动物化石（化石产地；宿主 喀什群；标定 verdict=verified）", "specimenType": "化石产地", "source": "LDZOFBB099.WT（1:25万建造构造图）", "specimenType_uri": "http://www.opengis.net/def/nil/OGC/0/unknown", "materialClass_uri": "http://www.opengis.net/def/nil/OGC/0/unknown", "genericSymbolizer": "1445", "symbol_no": 1445, "height": 2.0, "angle": 357.1518859863281}}, {"type": "Feature", "id": "https://geosciml4china.example.org/J43C001002/specimen/D2t.1", "geometry": {"type": "Point", "coordinates": [73.87880811238546, 39.78220543685467]}, "properties": {"@featureType": "GeologicSpecimenView", "identifier": {"value": "https://geosciml4china.example.org/J43C001002/specimen/D2t.1", "@codeSpace": "http://www.ietf.org/rfc/rfc2616"}, "label": "动物化石", "description": "动物化石（化石产地；宿主 托格买提组；标定 verdict=verified）", "specimenType": "化石产地", "source": "LDZOFBB099.WT（1:25万建造构造图）", "specimenType_uri": "http://www.opengis.net/def/nil/OGC/0/unknown", "materialClass_uri": "http://www.opengis.net/def/nil/OGC/0/unknown", "genericSymbolizer": "1445", "symbol_no": 1445, "height": 2.0, "angle": 357.1864013671875}}, {"type": "Feature", "id": "https://geosciml4china.example.org/J43C001002/specimen/EK.7", "geometry": {"type": "Point", "coordinates": [73.97724958781338, 39.742871150756]}, "properties": {"@featureType": "GeologicSpecimenView", "identifier": {"value": "https://geosciml4china.example.org/J43C001002/specimen/EK.7", "@codeSpace": "http://www.ietf.org/rfc/rfc2616"}, "label": "动物化石", "description": "动物化石（化石产地；宿主 喀什群；标定 verdict=verified）", "specimenType": "化石产地", "source": "LDZOFBB099.WT（1:25万建造构造图）", "specimenType_uri": "http://www.opengis.net/def/nil/OGC/0/unknown", "materialClass_uri": "http://www.opengis.net/def/nil/OGC/0/unknown", "genericSymbolizer": "1445", "symbol_no": 1445, "height": 2.0, "angle": 358.301513671875}}, {"type": "Feature", "id": "https://geosciml4china.example.org/J43C001002/specimen/EK.8", "geometry": {"type": "Point", "coordinates": [73.98378745507445, 39.74071473728193]}, "properties": {"@featureType": "GeologicSpecimenView", "identifier": {"value": "https://geosciml4china.example.org/J43C001002/specimen/EK.8", "@codeSpace": "http://www.ietf.org/rfc/rfc2616"}, "label": "动物化石", "description": "动物化石（化石产地；宿主 喀什群；标定 verdict=verified）", "specimenType": "化石产地", "source": "LDZOFBB099.WT（1:25万建造构造图）", "specimenType_uri": "http://www.opengis.net/def/nil/OGC/0/unknown", "materialClass_uri": "http://www.opengis.net/def/nil/OGC/0/unknown", "genericSymbolizer": "1445", "symbol_no": 1445, "height": 2.0, "angle": 2.185563564300537}}, {"type": "Feature", "id": "https://geosciml4china.example.org/J43C001002/specimen/D2t.2", "geometry": {"type": "Point", "coordinates": [73.91719501329504, 39.875833925195714]}, "properties": {"@featureType": "GeologicSpecimenView", "identifier": {"value": "https://geosciml4china.example.org/J43C001002/specimen/D2t.2", "@codeSpace": "http://www.ietf.org/rfc/rfc2616"}, "label": "动物化石", "description": "动物化石（化石产地；宿主 托格买提组；标定 verdict=verified）", "specimenType": "化石产地", "source": "LDZOFBB099.WT（1:25万建造构造图）", "specimenType_uri": "http://www.opengis.net/def/nil/OGC/0/unknown", "materialClass_uri": "http://www.opengis.net/def/nil/OGC/0/unknown", "genericSymbolizer": "1445", "symbol_no": 1445, "height": 2.0, "angle": 357.93121337890625}}, {"type": "Feature", "id": "https://geosciml4china.example.org/J43C001002/specimen/J1k.4", "geometry": {"type": "Point", "coordinates": [74.88414986802512, 39.92046019112682]}, "properties": {"@featureType": "GeologicSpecimenView", "identifier": {"value": "https://geosciml4china.example.org/J43C001002/specimen/J1k.4", "@codeSpace": "http://www.ietf.org/rfc/rfc2616"}, "label": "植物化石", "description": "植物化石（化石产地；宿主 康苏组；标定 verdict=verified）", "specimenType": "化石产地", "source": "LDZOFBB099.WT（1:25万建造构造图）", "specimenType_uri": "http://www.opengis.net/def/nil/OGC/0/unknown", "materialClass_uri": "http://www.opengis.net/def/nil/OGC/0/unknown", "genericSymbolizer": "1415", "symbol_no": 1415, "height": 2.0, "angle": 0.05652052164077759}}, {"type": "Feature", "id": "https://geosciml4china.example.org/J43C001002/specimen/J1sh.1", "geometry": {"type": "Point", "coordinates": [74.97253443165512, 39.883472607390104]}, "properties": {"@featureType": "GeologicSpecimenView", "identifier": {"value": "https://geosciml4china.example.org/J43C001002/specimen/J1sh.1", "@codeSpace": "http://www.ietf.org/rfc/rfc2616"}, "label": "植物化石", "description": "植物化石（化石产地；宿主 莎里塔什组；标定 verdict=verified）", "specimenType": "化石产地", "source": "LDZOFBB099.WT（1:25万建造构造图）", "specimenType_uri": "http://www.opengis.net/def/nil/OGC/0/unknown", "materialClass_uri": "http://www.opengis.net/def/nil/OGC/0/unknown", "genericSymbolizer": "1415", "symbol_no": 1415, "height": 2.0, "angle": 0.012846576981246471}}, {"type": "Feature", "id": "https://geosciml4china.example.org/J43C001002/specimen/J1k.5", "geometry": {"type": "Point", "coordinates": [74.98412364319012, 39.89687304414642]}, "properties": {"@featureType": "GeologicSpecimenView", "identifier": {"value": "https://geosciml4china.example.org/J43C001002/specimen/J1k.5", "@codeSpace": "http://www.ietf.org/rfc/rfc2616"}, "label": "植物化石", "description": "植物化石（化石产地；宿主 康苏组；标定 verdict=verified）", "specimenType": "化石产地", "source": "LDZOFBB099.WT（1:25万建造构造图）", "specimenType_uri": "http://www.opengis.net/def/nil/OGC/0/unknown", "materialClass_uri": "http://www.opengis.net/def/nil/OGC/0/unknown", "genericSymbolizer": "1415", "symbol_no": 1415, "height": 2.0, "angle": 0.007120978552848101}}, {"type": "Feature", "id": "https://geosciml4china.example.org/J43C001002/specimen/%CE%B3%CF%80T3.1", "geometry": {"type": "Point", "coordinates": [74.96137978019577, 39.282490787377036]}, "properties": {"@featureType": "GeologicSpecimenView", "identifier": {"value": "https://geosciml4china.example.org/J43C001002/specimen/%CE%B3%CF%80T3.1", "@codeSpace": "http://www.ietf.org/rfc/rfc2616"}, "label": "植物化石", "description": "植物化石（化石产地；宿主 三叠纪花岗斑岩；标定 verdict=违反（待裁定））；标定 verdict：违反（待裁定）（已登记交人工裁定、不改码）", "specimenType": "化石产地", "source": "LDZOFBB099.WT（1:25万建造构造图）", "specimenType_uri": "http://www.opengis.net/def/nil/OGC/0/unknown", "materialClass_uri": "http://www.opengis.net/def/nil/OGC/0/unknown", "genericSymbolizer": "1415", "symbol_no": 1415, "height": 3.0, "angle": 0.01829036884009838}}, {"type": "Feature", "id": "https://geosciml4china.example.org/J43C001002/specimen/P2q.1", "geometry": {"type": "Point", "coordinates": [74.98292399451952, 39.269653614200244]}, "properties": {"@featureType": "GeologicSpecimenView", "identifier": {"value": "https://geosciml4china.example.org/J43C001002/specimen/P2q.1", "@codeSpace": "http://www.ietf.org/rfc/rfc2616"}, "label": "植物化石", "description": "植物化石（化石产地；宿主 棋盘组；标定 verdict=verified）", "specimenType": "化石产地", "source": "LDZOFBB099.WT（1:25万建造构造图）", "specimenType_uri": "http://www.opengis.net/def/nil/OGC/0/unknown", "materialClass_uri": "http://www.opengis.net/def/nil/OGC/0/unknown", "genericSymbolizer": "1415", "symbol_no": 1415, "height": 3.0, "angle": 0.007688408717513084}}, {"type": "Feature", "id": "https://geosciml4china.example.org/J43C001002/specimen/P2q.2", "geometry": {"type": "Point", "coordinates": [74.97405358553257, 39.26122697700242]}, "properties": {"@featureType": "GeologicSpecimenView", "identifier": {"value": "https://geosciml4china.example.org/J43C001002/specimen/P2q.2", "@codeSpace": "http://www.ietf.org/rfc/rfc2616"}, "label": "植物化石", "description": "植物化石（化石产地；宿主 棋盘组；标定 verdict=verified）", "specimenType": "化石产地", "source": "LDZOFBB099.WT（1:25万建造构造图）", "specimenType_uri": "http://www.opengis.net/def/nil/OGC/0/unknown", "materialClass_uri": "http://www.opengis.net/def/nil/OGC/0/unknown", "genericSymbolizer": "1415", "symbol_no": 1415, "height": 3.0, "angle": 0.012052605859935284}}, {"type": "Feature", "id": "https://geosciml4china.example.org/J43C001002/specimen/EK.9", "geometry": {"type": "Point", "coordinates": [74.3458967444805, 39.87519904255947]}, "properties": {"@featureType": "GeologicSpecimenView", "identifier": {"value": "https://geosciml4china.example.org/J43C001002/specimen/EK.9", "@codeSpace": "http://www.ietf.org/rfc/rfc2616"}, "label": "动物化石", "description": "动物化石（化石产地；宿主 喀什群；标定 verdict=verified）", "specimenType": "化石产地", "source": "LDZOFBB099.WT（1:25万建造构造图）", "specimenType_uri": "http://www.opengis.net/def/nil/OGC/0/unknown", "materialClass_uri": "http://www.opengis.net/def/nil/OGC/0/unknown", "genericSymbolizer": "1445", "symbol_no": 1445, "height": 2.0001395, "angle": 0.32239922881126404}}, {"type": "Feature", "id": "https://geosciml4china.example.org/J43C001002/specimen/K2Y.1", "geometry": {"type": "Point", "coordinates": [74.37915165593618, 39.86925261992875]}, "properties": {"@featureType": "GeologicSpecimenView", "identifier": {"value": "https://geosciml4china.example.org/J43C001002/specimen/K2Y.1", "@codeSpace": "http://www.ietf.org/rfc/rfc2616"}, "label": "动物化石", "description": "动物化石（化石产地；宿主 英吉莎群；标定 verdict=verified）", "specimenType": "化石产地", "source": "LDZOFBB099.WT（1:25万建造构造图）", "specimenType_uri": "http://www.opengis.net/def/nil/OGC/0/unknown", "materialClass_uri": "http://www.opengis.net/def/nil/OGC/0/unknown", "genericSymbolizer": "1445", "symbol_no": 1445, "height": 2.0001395, "angle": 0.30595842003822327}}, {"type": "Feature", "id": "https://geosciml4china.example.org/J43C001002/specimen/K2Y.2", "geometry": {"type": "Point", "coordinates": [74.00742621041617, 39.764588371055815]}, "properties": {"@featureType": "GeologicSpecimenView", "identifier": {"value": "https://geosciml4china.example.org/J43C001002/specimen/K2Y.2", "@codeSpace": "http://www.ietf.org/rfc/rfc2616"}, "label": "动物化石", "description": "动物化石（化石产地；宿主 英吉莎群；标定 verdict=verified）", "specimenType": "化石产地", "source": "LDZOFBB099.WT（1:25万建造构造图）", "specimenType_uri": "http://www.opengis.net/def/nil/OGC/0/unknown", "materialClass_uri": "http://www.opengis.net/def/nil/OGC/0/unknown", "genericSymbolizer": "1445", "symbol_no": 1445, "height": 2.00014, "angle": 0.48928341269493103}}, {"type": "Feature", "id": "https://geosciml4china.example.org/J43C001002/specimen/EK.10", "geometry": {"type": "Point", "coordinates": [74.96900745428265, 39.74869338997544]}, "properties": {"@featureType": "GeologicSpecimenView", "identifier": {"value": "https://geosciml4china.example.org/J43C001002/specimen/EK.10", "@codeSpace": "http://www.ietf.org/rfc/rfc2616"}, "label": "动物化石", "description": "动物化石（化石产地；宿主 喀什群；标定 verdict=verified）", "specimenType": "化石产地", "source": "LDZOFBB099.WT（1:25万建造构造图）", "specimenType_uri": "http://www.opengis.net/def/nil/OGC/0/unknown", "materialClass_uri": "http://www.opengis.net/def/nil/OGC/0/unknown", "genericSymbolizer": "1445", "symbol_no": 1445, "height": 2.0001395, "angle": 0.014577982947230339}}, {"type": "Feature", "id": "https://geosciml4china.example.org/J43C001002/specimen/Qhvl-Qhch.1", "geometry": {"type": "Point", "coordinates": [74.38156349163931, 39.10458198636108]}, "properties": {"@featureType": "GeologicSpecimenView", "identifier": {"value": "https://geosciml4china.example.org/J43C001002/specimen/Qhvl-Qhch.1", "@codeSpace": "http://www.ietf.org/rfc/rfc2616"}, "label": "泥火山", "description": "泥火山（泥火山产地；宿主 第四系泥火山堆积-化；标定 verdict=verified）", "specimenType": "泥火山", "source": "LDZOFBB099.WT（1:25万建造构造图）", "specimenType_uri": "http://www.opengis.net/def/nil/OGC/0/unknown", "materialClass_uri": "http://www.opengis.net/def/nil/OGC/0/unknown", "genericSymbolizer": "1304", "symbol_no": 1304, "height": 2.0, "angle": 0.30322039127349854}}, {"type": "Feature", "id": "https://geosciml4china.example.org/J43C001002/specimen/Qhvl-Qhch.2", "geometry": {"type": "Point", "coordinates": [74.38904823157299, 39.10020784093533]}, "properties": {"@featureType": "GeologicSpecimenView", "identifier": {"value": "https://geosciml4china.example.org/J43C001002/specimen/Qhvl-Qhch.2", "@codeSpace": "http://www.ietf.org/rfc/rfc2616"}, "label": "泥火山", "description": "泥火山（泥火山产地；宿主 第四系泥火山堆积-化；标定 verdict=verified）", "specimenType": "泥火山", "source": "LDZOFBB099.WT（1:25万建造构造图）", "specimenType_uri": "http://www.opengis.net/def/nil/OGC/0/unknown", "materialClass_uri": "http://www.opengis.net/def/nil/OGC/0/unknown", "genericSymbolizer": "1304", "symbol_no": 1304, "height": 2.0, "angle": 0.2995334267616272}}, {"type": "Feature", "id": "https://geosciml4china.example.org/J43C001002/specimen/Qhvl-Qhch.3", "geometry": {"type": "Point", "coordinates": [74.37321981130232, 39.105546254177405]}, "properties": {"@featureType": "GeologicSpecimenView", "identifier": {"value": "https://geosciml4china.example.org/J43C001002/specimen/Qhvl-Qhch.3", "@codeSpace": "http://www.ietf.org/rfc/rfc2616"}, "label": "泥火山", "description": "泥火山（泥火山产地；宿主 第四系泥火山堆积-化；标定 verdict=verified）", "specimenType": "泥火山", "source": "LDZOFBB099.WT（1:25万建造构造图）", "specimenType_uri": "http://www.opengis.net/def/nil/OGC/0/unknown", "materialClass_uri": "http://www.opengis.net/def/nil/OGC/0/unknown", "genericSymbolizer": "1304", "symbol_no": 1304, "height": 2.0, "angle": 0.30732327699661255}}, {"type": "Feature", "id": "https://geosciml4china.example.org/J43C001002/specimen/Qhvl-Qhch.4", "geometry": {"type": "Point", "coordinates": [74.32673361342967, 39.082633680311105]}, "properties": {"@featureType": "GeologicSpecimenView", "identifier": {"value": "https://geosciml4china.example.org/J43C001002/specimen/Qhvl-Qhch.4", "@codeSpace": "http://www.ietf.org/rfc/rfc2616"}, "label": "泥火山", "description": "泥火山（泥火山产地；宿主 第四系泥火山堆积-化；标定 verdict=verified）", "specimenType": "泥火山", "source": "LDZOFBB099.WT（1:25万建造构造图）", "specimenType_uri": "http://www.opengis.net/def/nil/OGC/0/unknown", "materialClass_uri": "http://www.opengis.net/def/nil/OGC/0/unknown", "genericSymbolizer": "1304", "symbol_no": 1304, "height": 2.0, "angle": 0.33011704683303833}}, {"type": "Feature", "id": "https://geosciml4china.example.org/J43C001002/specimen/Qhvl-Qhch.5", "geometry": {"type": "Point", "coordinates": [74.37841255086907, 39.07026217647193]}, "properties": {"@featureType": "GeologicSpecimenView", "identifier": {"value": "https://geosciml4china.example.org/J43C001002/specimen/Qhvl-Qhch.5", "@codeSpace": "http://www.ietf.org/rfc/rfc2616"}, "label": "泥火山", "description": "泥火山（泥火山产地；宿主 第四系泥火山堆积-化；标定 verdict=verified）", "specimenType": "泥火山", "source": "LDZOFBB099.WT（1:25万建造构造图）", "specimenType_uri": "http://www.opengis.net/def/nil/OGC/0/unknown", "materialClass_uri": "http://www.opengis.net/def/nil/OGC/0/unknown", "genericSymbolizer": "1304", "symbol_no": 1304, "height": 2.0, "angle": 0.30469512939453125}}, {"type": "Feature", "id": "https://geosciml4china.example.org/J43C001002/specimen/Qhvl-Qhch.6", "geometry": {"type": "Point", "coordinates": [74.38101356462782, 39.067076102826164]}, "properties": {"@featureType": "GeologicSpecimenView", "identifier": {"value": "https://geosciml4china.example.org/J43C001002/specimen/Qhvl-Qhch.6", "@codeSpace": "http://www.ietf.org/rfc/rfc2616"}, "label": "泥火山", "description": "泥火山（泥火山产地；宿主 第四系泥火山堆积-化；标定 verdict=verified）", "specimenType": "泥火山", "source": "LDZOFBB099.WT（1:25万建造构造图）", "specimenType_uri": "http://www.opengis.net/def/nil/OGC/0/unknown", "materialClass_uri": "http://www.opengis.net/def/nil/OGC/0/unknown", "genericSymbolizer": "1304", "symbol_no": 1304, "height": 2.0, "angle": 0.3034091591835022}}, {"type": "Feature", "id": "https://geosciml4china.example.org/J43C001002/specimen/Qhvl-Qhch.7", "geometry": {"type": "Point", "coordinates": [74.3862419402352, 39.06643352176403]}, "properties": {"@featureType": "GeologicSpecimenView", "identifier": {"value": "https://geosciml4china.example.org/J43C001002/specimen/Qhvl-Qhch.7", "@codeSpace": "http://www.ietf.org/rfc/rfc2616"}, "label": "泥火山", "description": "泥火山（泥火山产地；宿主 第四系泥火山堆积-化；标定 verdict=verified）", "specimenType": "泥火山", "source": "LDZOFBB099.WT（1:25万建造构造图）", "specimenType_uri": "http://www.opengis.net/def/nil/OGC/0/unknown", "materialClass_uri": "http://www.opengis.net/def/nil/OGC/0/unknown", "genericSymbolizer": "1304", "symbol_no": 1304, "height": 2.0, "angle": 0.30083930492401123}}, {"type": "Feature", "id": "https://geosciml4china.example.org/J43C001002/specimen/Qhvl-Qhch.8", "geometry": {"type": "Point", "coordinates": [74.39219177576457, 39.0624653980638]}, "properties": {"@featureType": "GeologicSpecimenView", "identifier": {"value": "https://geosciml4china.example.org/J43C001002/specimen/Qhvl-Qhch.8", "@codeSpace": "http://www.ietf.org/rfc/rfc2616"}, "label": "泥火山", "description": "泥火山（泥火山产地；宿主 第四系泥火山堆积-化；标定 verdict=verified）", "specimenType": "泥火山", "source": "LDZOFBB099.WT（1:25万建造构造图）", "specimenType_uri": "http://www.opengis.net/def/nil/OGC/0/unknown", "materialClass_uri": "http://www.opengis.net/def/nil/OGC/0/unknown", "genericSymbolizer": "1304", "symbol_no": 1304, "height": 2.0, "angle": 0.29790741205215454}}, {"type": "Feature", "id": "https://geosciml4china.example.org/J43C001002/specimen/Qp2l.1", "geometry": {"type": "Point", "coordinates": [74.39884288755351, 39.05758182247082]}, "properties": {"@featureType": "GeologicSpecimenView", "identifier": {"value": "https://geosciml4china.example.org/J43C001002/specimen/Qp2l.1", "@codeSpace": "http://www.ietf.org/rfc/rfc2616"}, "label": "泥火山", "description": "泥火山（泥火山产地；宿主 湖积层；标定 verdict=verified）", "specimenType": "泥火山", "source": "LDZOFBB099.WT（1:25万建造构造图）", "specimenType_uri": "http://www.opengis.net/def/nil/OGC/0/unknown", "materialClass_uri": "http://www.opengis.net/def/nil/OGC/0/unknown", "genericSymbolizer": "1304", "symbol_no": 1304, "height": 2.0, "angle": 0.29462966322898865}}, {"type": "Feature", "id": "https://geosciml4china.example.org/J43C001002/specimen/Qhfl.1", "geometry": {"type": "Point", "coordinates": [74.4034496448469, 39.05630841808347]}, "properties": {"@featureType": "GeologicSpecimenView", "identifier": {"value": "https://geosciml4china.example.org/J43C001002/specimen/Qhfl.1", "@codeSpace": "http://www.ietf.org/rfc/rfc2616"}, "label": "泥火山", "description": "泥火山（泥火山产地；宿主 第四系湖沼堆积层；标定 verdict=verified）", "specimenType": "泥火山", "source": "LDZOFBB099.WT（1:25万建造构造图）", "specimenType_uri": "http://www.opengis.net/def/nil/OGC/0/unknown", "materialClass_uri": "http://www.opengis.net/def/nil/OGC/0/unknown", "genericSymbolizer": "1304", "symbol_no": 1304, "height": 2.0, "angle": 0.29236266016960144}}, {"type": "Feature", "id": "https://geosciml4china.example.org/J43C001002/specimen/Qhvl-Qhch.9", "geometry": {"type": "Point", "coordinates": [74.47499091065971, 39.05874208070978]}, "properties": {"@featureType": "GeologicSpecimenView", "identifier": {"value": "https://geosciml4china.example.org/J43C001002/specimen/Qhvl-Qhch.9", "@codeSpace": "http://www.ietf.org/rfc/rfc2616"}, "label": "泥火山", "description": "泥火山（泥火山产地；宿主 第四系泥火山堆积-化；标定 verdict=verified）", "specimenType": "泥火山", "source": "LDZOFBB099.WT（1:25万建造构造图）", "specimenType_uri": "http://www.opengis.net/def/nil/OGC/0/unknown", "materialClass_uri": "http://www.opengis.net/def/nil/OGC/0/unknown", "genericSymbolizer": "1304", "symbol_no": 1304, "height": 2.0, "angle": 0.2572198212146759}}, {"type": "Feature", "id": "https://geosciml4china.example.org/J43C001002/specimen/Qhvl-Qhch.10", "geometry": {"type": "Point", "coordinates": [74.47555294251434, 39.04101622049998]}, "properties": {"@featureType": "GeologicSpecimenView", "identifier": {"value": "https://geosciml4china.example.org/J43C001002/specimen/Qhvl-Qhch.10", "@codeSpace": "http://www.ietf.org/rfc/rfc2616"}, "label": "泥火山", "description": "泥火山（泥火山产地；宿主 第四系泥火山堆积-化；标定 verdict=verified）", "specimenType": "泥火山", "source": "LDZOFBB099.WT（1:25万建造构造图）", "specimenType_uri": "http://www.opengis.net/def/nil/OGC/0/unknown", "materialClass_uri": "http://www.opengis.net/def/nil/OGC/0/unknown", "genericSymbolizer": "1304", "symbol_no": 1304, "height": 2.0, "angle": 0.25691089034080505}}, {"type": "Feature", "id": "https://geosciml4china.example.org/J43C001002/specimen/Qhvl-Qhch.11", "geometry": {"type": "Point", "coordinates": [74.48043967100809, 39.04198561543159]}, "properties": {"@featureType": "GeologicSpecimenView", "identifier": {"value": "https://geosciml4china.example.org/J43C001002/specimen/Qhvl-Qhch.11", "@codeSpace": "http://www.ietf.org/rfc/rfc2616"}, "label": "泥火山", "description": "泥火山（泥火山产地；宿主 第四系泥火山堆积-化；标定 verdict=verified）", "specimenType": "泥火山", "source": "LDZOFBB099.WT（1:25万建造构造图）", "specimenType_uri": "http://www.opengis.net/def/nil/OGC/0/unknown", "materialClass_uri": "http://www.opengis.net/def/nil/OGC/0/unknown", "genericSymbolizer": "1304", "symbol_no": 1304, "height": 2.0, "angle": 0.25451210141181946}}, {"type": "Feature", "id": "https://geosciml4china.example.org/J43C001002/specimen/Qhvl-Qhch.12", "geometry": {"type": "Point", "coordinates": [74.48427098454916, 39.03768804381666]}, "properties": {"@featureType": "GeologicSpecimenView", "identifier": {"value": "https://geosciml4china.example.org/J43C001002/specimen/Qhvl-Qhch.12", "@codeSpace": "http://www.ietf.org/rfc/rfc2616"}, "label": "泥火山", "description": "泥火山（泥火山产地；宿主 第四系泥火山堆积-化；标定 verdict=verified）", "specimenType": "泥火山", "source": "LDZOFBB099.WT（1:25万建造构造图）", "specimenType_uri": "http://www.opengis.net/def/nil/OGC/0/unknown", "materialClass_uri": "http://www.opengis.net/def/nil/OGC/0/unknown", "genericSymbolizer": "1304", "symbol_no": 1304, "height": 2.0, "angle": 0.25262215733528137}}, {"type": "Feature", "id": "https://geosciml4china.example.org/J43C001002/specimen/Qhvl-Qhch.13", "geometry": {"type": "Point", "coordinates": [74.4919807540234, 39.03683013376646]}, "properties": {"@featureType": "GeologicSpecimenView", "identifier": {"value": "https://geosciml4china.example.org/J43C001002/specimen/Qhvl-Qhch.13", "@codeSpace": "http://www.ietf.org/rfc/rfc2616"}, "label": "泥火山", "description": "泥火山（泥火山产地；宿主 第四系泥火山堆积-化；标定 verdict=verified）", "specimenType": "泥火山", "source": "LDZOFBB099.WT（1:25万建造构造图）", "specimenType_uri": "http://www.opengis.net/def/nil/OGC/0/unknown", "materialClass_uri": "http://www.opengis.net/def/nil/OGC/0/unknown", "genericSymbolizer": "1304", "symbol_no": 1304, "height": 2.0, "angle": 0.24883334338665009}}, {"type": "Feature", "id": "https://geosciml4china.example.org/J43C001002/specimen/Qhvl-Qhch.14", "geometry": {"type": "Point", "coordinates": [74.47640165619286, 39.04421943271753]}, "properties": {"@featureType": "GeologicSpecimenView", "identifier": {"value": "https://geosciml4china.example.org/J43C001002/specimen/Qhvl-Qhch.14", "@codeSpace": "http://www.ietf.org/rfc/rfc2616"}, "label": "泥火山", "description": "泥火山（泥火山产地；宿主 第四系泥火山堆积-化；标定 verdict=verified）", "specimenType": "泥火山", "source": "LDZOFBB099.WT（1:25万建造构造图）", "specimenType_uri": "http://www.opengis.net/def/nil/OGC/0/unknown", "materialClass_uri": "http://www.opengis.net/def/nil/OGC/0/unknown", "genericSymbolizer": "1304", "symbol_no": 1304, "height": 2.0, "angle": 0.25649890303611755}}, {"type": "Feature", "id": "https://geosciml4china.example.org/J43C001002/specimen/Qhvl-Qhch.15", "geometry": {"type": "Point", "coordinates": [74.4714890159241, 39.04948464404518]}, "properties": {"@featureType": "GeologicSpecimenView", "identifier": {"value": "https://geosciml4china.example.org/J43C001002/specimen/Qhvl-Qhch.15", "@codeSpace": "http://www.ietf.org/rfc/rfc2616"}, "label": "泥火山", "description": "泥火山（泥火山产地；宿主 第四系泥火山堆积-化；标定 verdict=verified）", "specimenType": "泥火山", "source": "LDZOFBB099.WT（1:25万建造构造图）", "specimenType_uri": "http://www.opengis.net/def/nil/OGC/0/unknown", "materialClass_uri": "http://www.opengis.net/def/nil/OGC/0/unknown", "genericSymbolizer": "1304", "symbol_no": 1304, "height": 2.0, "angle": 0.2589225769042969}}, {"type": "Feature", "id": "https://geosciml4china.example.org/J43C001002/specimen/Qhvl-Qhch.16", "geometry": {"type": "Point", "coordinates": [74.46983301515357, 39.053260248150764]}, "properties": {"@featureType": "GeologicSpecimenView", "identifier": {"value": "https://geosciml4china.example.org/J43C001002/specimen/Qhvl-Qhch.16", "@codeSpace": "http://www.ietf.org/rfc/rfc2616"}, "label": "泥火山", "description": "泥火山（泥火山产地；宿主 第四系泥火山堆积-化；标定 verdict=verified）", "specimenType": "泥火山", "source": "LDZOFBB099.WT（1:25万建造构造图）", "specimenType_uri": "http://www.opengis.net/def/nil/OGC/0/unknown", "materialClass_uri": "http://www.opengis.net/def/nil/OGC/0/unknown", "genericSymbolizer": "1304", "symbol_no": 1304, "height": 2.0, "angle": 0.25974366068840027}}, {"type": "Feature", "id": "https://geosciml4china.example.org/J43C001002/specimen/Qhvl-Qhch.17", "geometry": {"type": "Point", "coordinates": [74.45520324977365, 39.07164903962814]}, "properties": {"@featureType": "GeologicSpecimenView", "identifier": {"value": "https://geosciml4china.example.org/J43C001002/specimen/Qhvl-Qhch.17", "@codeSpace": "http://www.ietf.org/rfc/rfc2616"}, "label": "泥火山", "description": "泥火山（泥火山产地；宿主 第四系泥火山堆积-化；标定 verdict=verified）", "specimenType": "泥火山", "source": "LDZOFBB099.WT（1:25万建造构造图）", "specimenType_uri": "http://www.opengis.net/def/nil/OGC/0/unknown", "materialClass_uri": "http://www.opengis.net/def/nil/OGC/0/unknown", "genericSymbolizer": "1304", "symbol_no": 1304, "height": 2.0, "angle": 0.266965389251709}}, {"type": "Feature", "id": "https://geosciml4china.example.org/J43C001002/specimen/Qhvl-Qhch.18", "geometry": {"type": "Point", "coordinates": [74.49947161465539, 39.00133695781732]}, "properties": {"@featureType": "GeologicSpecimenView", "identifier": {"value": "https://geosciml4china.example.org/J43C001002/specimen/Qhvl-Qhch.18", "@codeSpace": "http://www.ietf.org/rfc/rfc2616"}, "label": "泥火山", "description": "泥火山（泥火山产地；宿主 第四系泥火山堆积-化；标定 verdict=verified）", "specimenType": "泥火山", "source": "LDZOFBB099.WT（1:25万建造构造图）", "specimenType_uri": "http://www.opengis.net/def/nil/OGC/0/unknown", "materialClass_uri": "http://www.opengis.net/def/nil/OGC/0/unknown", "genericSymbolizer": "1304", "symbol_no": 1304, "height": 2.0, "angle": 0.24509017169475555}}, {"type": "Feature", "id": "https://geosciml4china.example.org/J43C001002/specimen/Qhvl-Qhch.19", "geometry": {"type": "Point", "coordinates": [74.5108197751279, 39.00155216631438]}, "properties": {"@featureType": "GeologicSpecimenView", "identifier": {"value": "https://geosciml4china.example.org/J43C001002/specimen/Qhvl-Qhch.19", "@codeSpace": "http://www.ietf.org/rfc/rfc2616"}, "label": "泥火山", "description": "泥火山（泥火山产地；宿主 第四系泥火山堆积-化；标定 verdict=verified）", "specimenType": "泥火山", "source": "LDZOFBB099.WT（1:25万建造构造图）", "specimenType_uri": "http://www.opengis.net/def/nil/OGC/0/unknown", "materialClass_uri": "http://www.opengis.net/def/nil/OGC/0/unknown", "genericSymbolizer": "1304", "symbol_no": 1304, "height": 2.0, "angle": 0.23951798677444458}}]}