{
"type": "FeatureCollection",
"name": "LDZOFBA005.WL",
"crs": { "type": "name", "properties": { "name": "urn:ogc:def:crs:OGC:1.3:CRS84" } },
"xy_coordinate_resolution": 1e-15,
"features": [
{ "type": "Feature", "properties": { "ID": 2, "长度": 0.85739332822062519, "FEATUREID": "OFBA005C1AJ430010020000001", "CHFCAC": "000001", "GZCAB": "B8（阿克萨依背斜）", "GZCE": "02", "GZCDD": "101", "GZCDF": "101", "GZCCBE": "东倾", "GZCCBF": "12", "GZCCAE": "南倾", "GZCCAF": "32", "GZCDI": "中泥盆统克孜勒陶组", "GZCDH": "101", "GZCK": "102", "GZEKG": "133200", "GZCCAM": "背斜总体为一轴面略向南倾的大型宽缓褶皱", "PKIGJ": "新疆1∶25万库尔干幅（J43C001002）区域地质调查报告", "linetype": 65, "aux_linetype": 0, "width": 0.05000000074505806, "x_coef": 300.0, "y_coef": 5.0, "_src_file": "LDZOFBA005.WL", "_src_id": 0 }, "geometry": { "type": "LineString", "coordinates": [ [ 74.191337909923718, 39.278371687774332 ], [ 74.217793291239246, 39.275984745767872 ], [ 74.236907358226063, 39.273543899072024 ], [ 74.258953297655481, 39.271403902304023 ], [ 74.287980849335383, 39.26844672247978 ], [ 74.322889713011733, 39.26409015832872 ], [ 74.362929366653887, 39.26003659272348 ], [ 74.407393019566484, 39.253138825950685 ], [ 74.432002883210785, 39.250408429711371 ], [ 74.45772960314801, 39.244825035101577 ], [ 74.48309571392484, 39.238378417182794 ], [ 74.50219591148327, 39.235037990002283 ], [ 74.523142074385376, 39.229990169969327 ], [ 74.54517714016211, 39.225798751684067 ], [ 74.562073132910953, 39.222154549741973 ], [ 74.576398606632097, 39.219069173336159 ], [ 74.591831665032984, 39.21398879808342 ], [ 74.622336625506691, 39.202108877461519 ], [ 74.642188188155956, 39.192185843550313 ], [ 74.673805985472384, 39.173163123774721 ], [ 74.706153508864205, 39.151280494330649 ], [ 74.740309561377217, 39.129392828944169 ], [ 74.780311189381521, 39.106364958697924 ], [ 74.818073452756607, 39.08874070489356 ], [ 74.870095562731393, 39.068838406520541 ], [ 74.932336886461329, 39.048633875767749 ], [ 74.986493024861403, 39.030107284943369 ], [ 74.998929314876889, 39.02525770761914 ] ] } },
{ "type": "Feature", "properties": { "ID": 3, "长度": 0.866089943235126, "FEATUREID": "OFBA005C1AJ430010020000002", "CHFCAC": "000002", "GZCAB": "B7（玛尔坎土山复背斜）", "GZCE": "04", "GZCDD": "101", "GZCDF": "102", "GZCCBE": "西倾", "GZCCBF": "15-70", "GZCCAE": "南倾", "GZCCAF": "15-70", "GZCDI": "上石炭统和下二叠统", "GZCDH": "101", "GZCK": "102", "GZEKG": "130000", "GZCCAM": "大规模由南向北逆冲推覆构造作用使其同轴叠加而复杂化", "PKIGJ": "新疆1∶25万库尔干幅（J43C001002）区域地质调查报告", "linetype": 65, "aux_linetype": 0, "width": 0.05000000074505806, "x_coef": 300.0, "y_coef": 5.0, "_src_file": "LDZOFBA005.WL", "_src_id": 1 }, "geometry": { "type": "LineString", "coordinates": [ [ 73.927537965521125, 39.324929127121138 ], [ 74.023129613589447, 39.320860266835318 ], [ 74.101175512572866, 39.314941859421488 ], [ 74.145495210110383, 39.309273979115964 ], [ 74.201079634095109, 39.300393408033869 ], [ 74.246054579872563, 39.297419707162597 ], [ 74.307167741718786, 39.295071391730701 ], [ 74.368983393328392, 39.292694765854122 ], [ 74.420975196797727, 39.288600047055652 ], [ 74.508091209957072, 39.281362067536683 ], [ 74.56288191710172, 39.276124487812247 ], [ 74.601519051798064, 39.271352559623423 ], [ 74.666848409447979, 39.261736641604372 ], [ 74.730054952921918, 39.25153351804741 ], [ 74.788336681150156, 39.239650339524921 ] ] } },
{ "type": "Feature", "properties": { "ID": 4, "长度": 1.2126997316694641, "FEATUREID": "OFBA005C1AJ430010020000003", "CHFCAC": "000003", "GZCAB": "X15（交日铁盖铁复向斜）", "GZCE": "03", "GZCDD": "102", "GZCDF": "101", "GZCCBE": "东倾", "GZCCBF": "20", "GZCCAE": "北倾", "GZCCAF": "40", "GZCDI": "N1k 、N1a 和Qp1x", "GZCDH": "101", "GZCK": "101", "GZEKG": "111200", "GZCCAM": "核部可见一系列次级褶皱，核部具\"W\"型特征", "PKIGJ": "新疆1∶25万库尔干幅（J43C001002）区域地质调查报告", "linetype": 65, "aux_linetype": 4, "width": 0.05000000074505806, "x_coef": 300.0, "y_coef": 4.0, "_src_file": "LDZOFBA005.WL", "_src_id": 2 }, "geometry": { "type": "LineString", "coordinates": [ [ 73.757439757213518, 39.409985676356285 ], [ 73.831091891574005, 39.42166080991651 ], [ 73.880939734232697, 39.427606937226642 ], [ 73.959623348473912, 39.434884402092166 ], [ 74.008783430278243, 39.441315215039673 ], [ 74.045280205378802, 39.448167598031546 ], [ 74.094358223693405, 39.462199871946204 ], [ 74.142061825655702, 39.475110158646373 ], [ 74.202411855958658, 39.491907477191795 ], [ 74.2606920958698, 39.507569176850694 ], [ 74.322549878228244, 39.519949080318433 ], [ 74.371081304412513, 39.528405615846538 ], [ 74.421745567665255, 39.535761366273661 ], [ 74.479454051133402, 39.545309155119426 ], [ 74.546356591242514, 39.552136615189056 ], [ 74.597065778349517, 39.557779391531639 ], [ 74.650617823548117, 39.561226253609348 ], [ 74.705583432738379, 39.564106455096237 ], [ 74.729558120726637, 39.562527937232929 ], [ 74.768348192302128, 39.55606462003945 ], [ 74.841707269727777, 39.530544753344223 ], [ 74.893169190829227, 39.510961962791328 ], [ 74.944599783658489, 39.495721092102784 ] ] } },
{ "type": "Feature", "properties": { "ID": 5, "长度": 0.71460431418842685, "FEATUREID": "OFBA005C1AJ430010020000004", "CHFCAC": "000004", "GZCAB": "X8（乌鲁克恰提复向斜）", "GZCE": "03", "GZCDD": "101", "GZCDF": "101", "GZCCBE": "W", "GZCCBF": "20", "GZCCAE": "北陡倾", "GZCCAF": "18", "GZCDI": "向斜核部主体由下更新", "GZCDH": "101", "GZCK": "101", "GZEKG": "111230", "GZCCAM": "该向斜总体为一轴面略向北陡倾的大型宽缓复向斜，卷入褶褶的最新地层为下更新统西域组，而覆盖其上的中更新统乌苏群则未参加褶皱", "PKIGJ": "新疆1∶25万库尔干幅（J43C001002）区域地质调查报告", "linetype": 65, "aux_linetype": 4, "width": 0.05000000074505806, "x_coef": 250.0, "y_coef": 4.0, "_src_file": "LDZOFBA005.WL", "_src_id": 3 }, "geometry": { "type": "LineString", "coordinates": [ [ 74.064488105365982, 39.694924996329348 ], [ 74.099917929276259, 39.739941455118448 ], [ 74.118761931161032, 39.758635180854029 ], [ 74.140482766493804, 39.774073811514015 ], [ 74.16575550971254, 39.788988396537505 ], [ 74.191090348457024, 39.799533424018819 ], [ 74.231285162733371, 39.810172339094024 ], [ 74.274335874778814, 39.819724107385497 ], [ 74.314595621147447, 39.826515658556239 ], [ 74.341471215069092, 39.82776244046353 ], [ 74.381113282948903, 39.82579842932229 ], [ 74.414396931402422, 39.822697810944945 ], [ 74.45899952099191, 39.819095411283563 ], [ 74.566542596448457, 39.81845588288018 ], [ 74.604038720072509, 39.818589901972913 ], [ 74.623849065331328, 39.818110255967689 ], [ 74.640853159932064, 39.813799592660992 ], [ 74.666383989781679, 39.800782173933506 ], [ 74.68980721175592, 39.782297780745303 ], [ 74.716065759212938, 39.758905400397182 ] ] } }
]
}
